{
"type": "FeatureCollection",
"name": "geo_18_特定施設入居者生活介護（有料老人ホーム（サービス付き高齢者向け住宅））",
"crs": { "type": "name", "properties": { "name": "urn:ogc:def:crs:OGC:1.3:CRS84" } },
"features": [
{ "type": "Feature", "properties": { "内容": "アーク向陽【特定施設入居者生活介護（有料老人ホーム（サービス付き高齢者向け住宅））】定正1丁目1325", "url2": "https://www.kaigokensaku.mhlw.go.jp/18/index.php?action_kouhyou_detail_004_kani=true&JigyosyoCd=1870103627-00&ServiceCd=&Type=search" }, "geometry": { "type": "Point", "coordinates": [ 136.227551552056639, 36.117821418498082 ] } },
{ "type": "Feature", "properties": { "内容": "アスピカケアセンターまびぃ～Ma・Vie～開発【特定施設入居者生活介護（有料老人ホーム（サービス付き高齢者向け住宅））】福井県福井市開発5丁目101-1", "url2": "https://www.kaigokensaku.mhlw.go.jp/18/index.php?action_kouhyou_detail_004_kani=true&JigyosyoCd=1870103932-00&ServiceCd=&Type=search" }, "geometry": { "type": "Point", "coordinates": [ 136.2425901, 36.0857738 ] } },
{ "type": "Feature", "properties": { "内容": "サービス付き高齢者向け住宅　すずらん【特定施設入居者生活介護（有料老人ホーム（サービス付き高齢者向け住宅））】福井県福井市西開発3丁目306番地サービス付き高齢者向け住宅　すずらん", "url2": "https://www.kaigokensaku.mhlw.go.jp/18/index.php?action_kouhyou_detail_004_kani=true&JigyosyoCd=1870103106-00&ServiceCd=&Type=search" }, "geometry": { "type": "Point", "coordinates": [ 136.235614899999973, 36.0839263 ] } },
{ "type": "Feature", "properties": { "内容": "県民せいきょうサービス付き高齢者向け住宅江守きらめき（特定施設）【特定施設入居者生活介護（有料老人ホーム（サービス付き高齢者向け住宅））】福井県福井市江守中町2号12番地", "url2": "https://www.kaigokensaku.mhlw.go.jp/18/index.php?action_kouhyou_detail_004_kani=true&JigyosyoCd=1870103353-00&ServiceCd=&Type=search" }, "geometry": { "type": "Point", "coordinates": [ 136.199224252406339, 36.037194761499059 ] } },
{ "type": "Feature", "properties": { "内容": "コーピアせいめい【特定施設入居者生活介護（有料老人ホーム（サービス付き高齢者向け住宅））】福井市今市町65ー11ー1", "url2": "https://www.kaigokensaku.mhlw.go.jp/18/index.php?action_kouhyou_detail_004_kani=true&JigyosyoCd=1870102975-00&ServiceCd=&Type=search" }, "geometry": { "type": "Point", "coordinates": [ 136.207063400000038, 36.0211392 ] } },
{ "type": "Feature", "properties": { "内容": "ル・レーヴほのか【特定施設入居者生活介護（有料老人ホーム（サービス付き高齢者向け住宅））】福井市みのり１丁目５－１６", "url2": "https://www.kaigokensaku.mhlw.go.jp/18/index.php?action_kouhyou_detail_004_kani=true&JigyosyoCd=1870102843-00&ServiceCd=&Type=search" }, "geometry": { "type": "Point", "coordinates": [ 136.2172309, 36.0494802 ] } },
{ "type": "Feature", "properties": { "内容": "県民せいきょうサービス付き高齢者向け住宅勝山きらめき【特定施設入居者生活介護（有料老人ホーム（サービス付き高齢者向け住宅））】元町２丁目５番１２号", "url2": "https://www.kaigokensaku.mhlw.go.jp/18/index.php?action_kouhyou_detail_004_kani=true&JigyosyoCd=1870600192-00&ServiceCd=&Type=search" }, "geometry": { "type": "Point", "coordinates": [ 133.853108, 34.3160665 ] } },
{ "type": "Feature", "properties": { "内容": "特定施設入居者生活介護　コンフォガーデン木村【特定施設入居者生活介護（有料老人ホーム（サービス付き高齢者向け住宅））】福井県あわら市市姫三丁目２４番８号", "url2": "https://www.kaigokensaku.mhlw.go.jp/18/index.php?action_kouhyou_detail_004_kani=true&JigyosyoCd=1870800289-00&ServiceCd=&Type=search" }, "geometry": { "type": "Point", "coordinates": [ 136.2294445, 36.2090945 ] } },
{ "type": "Feature", "properties": { "内容": "県民せいきょう丹南きらめき介護付き高齢者向け住宅【特定施設入居者生活介護（有料老人ホーム（サービス付き高齢者向け住宅））】福井県越前市家久町49-4-1", "url2": "https://www.kaigokensaku.mhlw.go.jp/18/index.php?action_kouhyou_detail_004_kani=true&JigyosyoCd=1870301114-00&ServiceCd=&Type=search" }, "geometry": { "type": "Point", "coordinates": [ 136.1666324, 35.931715 ] } },
{ "type": "Feature", "properties": { "内容": "フォーユーエクセルわかたけ【特定施設入居者生活介護（有料老人ホーム（サービス付き高齢者向け住宅））】越前市堀川町9番15号フォーユーエクセルわかたけ", "url2": "https://www.kaigokensaku.mhlw.go.jp/18/index.php?action_kouhyou_detail_004_kani=true&JigyosyoCd=1870300785-00&ServiceCd=&Type=search" }, "geometry": { "type": "Point", "coordinates": [ 136.171160500000042, 35.8984992 ] } },
{ "type": "Feature", "properties": { "内容": "ケアフルハウス【特定施設入居者生活介護（有料老人ホーム（サービス付き高齢者向け住宅））】福井県越前市広瀬町153-12-3", "url2": "https://www.kaigokensaku.mhlw.go.jp/18/index.php?action_kouhyou_detail_004_kani=true&JigyosyoCd=1870301031-00&ServiceCd=&Type=search" }, "geometry": { "type": "Point", "coordinates": [ 136.1471089, 35.8902404 ] } },
{ "type": "Feature", "properties": { "内容": "サンシャインゆり特定施設入居者生活介護【特定施設入居者生活介護（有料老人ホーム（サービス付き高齢者向け住宅））】福井県坂井市春江町本堂27-1-1サンシャインゆり", "url2": "https://www.kaigokensaku.mhlw.go.jp/18/index.php?action_kouhyou_detail_004_kani=true&JigyosyoCd=1871701130-00&ServiceCd=&Type=search" }, "geometry": { "type": "Point", "coordinates": [ 136.203968300000042, 36.1387838 ] } }
]
}
