{
"type": "FeatureCollection",
"name": "geo_18_幼稚園",
"crs": { "type": "name", "properties": { "name": "urn:ogc:def:crs:EPSG::6668" } },
"features": [
{ "type": "Feature", "properties": { "P29_001": "18201", "P29_002": "A118110000013", "P29_003": "16011", "P29_004": "福井大学教育学部附属幼稚園", "P29_005": "福井県福井市二の宮4-45-1", "P29_006": "1", "P29_007": "0", "P29_008": "00", "P29_009": null }, "geometry": { "type": "Point", "coordinates": [ 136.21330582688438, 36.087567122893546 ] } },
{ "type": "Feature", "properties": { "P29_001": "18201", "P29_002": "A118210000011", "P29_003": "16011", "P29_004": "福井市立大安寺幼稚園", "P29_005": "福井県福井市田ノ谷町14-6", "P29_006": "3", "P29_007": "0", "P29_008": "00", "P29_009": null }, "geometry": { "type": "Point", "coordinates": [ 136.176108770701035, 36.105344815256167 ] } },
{ "type": "Feature", "properties": { "P29_001": "18201", "P29_002": "A118210000020", "P29_003": "16011", "P29_004": "福井市立岡保幼稚園", "P29_005": "福井県福井市河水町18-8", "P29_006": "3", "P29_007": "0", "P29_008": "00", "P29_009": null }, "geometry": { "type": "Point", "coordinates": [ 136.273288311089971, 36.051640048833043 ] } },
{ "type": "Feature", "properties": { "P29_001": "18201", "P29_002": "A118210000039", "P29_003": "16011", "P29_004": "福井市立殿下幼稚園", "P29_005": "福井県福井市風尾町6-24", "P29_006": "3", "P29_007": "0", "P29_008": "00", "P29_009": null }, "geometry": { "type": "Point", "coordinates": [ 136.046807415861849, 36.036560954103393 ] } },
{ "type": "Feature", "properties": { "P29_001": "18201", "P29_002": "A118210000048", "P29_003": "16011", "P29_004": "福井市立鶉東部幼稚園", "P29_005": "福井県福井市仙町6-4", "P29_006": "3", "P29_007": "0", "P29_008": "00", "P29_009": null }, "geometry": { "type": "Point", "coordinates": [ 136.164546236105167, 36.128848063519392 ] } },
{ "type": "Feature", "properties": { "P29_001": "18201", "P29_002": "A118210000057", "P29_003": "16011", "P29_004": "福井市立鷹巣幼稚園", "P29_005": "福井県福井市和布町3-6", "P29_006": "3", "P29_007": "0", "P29_008": "00", "P29_009": null }, "geometry": { "type": "Point", "coordinates": [ 136.065891235452426, 36.130589565681909 ] } },
{ "type": "Feature", "properties": { "P29_001": "18201", "P29_002": "A118210000066", "P29_003": "16011", "P29_004": "福井市立長橋幼稚園", "P29_005": "福井県福井市長橋町18-48", "P29_006": "3", "P29_007": "0", "P29_008": "00", "P29_009": null }, "geometry": { "type": "Point", "coordinates": [ 136.049145468430112, 36.11042533691343 ] } },
{ "type": "Feature", "properties": { "P29_001": "18201", "P29_002": "A118210000075", "P29_003": "16011", "P29_004": "福井市立高須城幼稚園", "P29_005": "福井県福井市高須町71-31", "P29_006": "3", "P29_007": "0", "P29_008": "00", "P29_009": null }, "geometry": { "type": "Point", "coordinates": [ 136.106926035832458, 36.114157242982415 ] } },
{ "type": "Feature", "properties": { "P29_001": "18202", "P29_002": "A118210000084", "P29_003": "16011", "P29_004": "敦賀市立敦賀北幼稚園", "P29_005": "福井県敦賀市曙町11-94", "P29_006": "3", "P29_007": "0", "P29_008": "00", "P29_009": null }, "geometry": { "type": "Point", "coordinates": [ 136.074867881757456, 35.655875429020419 ] } },
{ "type": "Feature", "properties": { "P29_001": "18209", "P29_002": "A118210000093", "P29_003": "16011", "P29_004": "越前市吉野幼稚園", "P29_005": "福井県越前市本保町19-9-1", "P29_006": "3", "P29_007": "0", "P29_008": "00", "P29_009": null }, "geometry": { "type": "Point", "coordinates": [ 136.158596775808036, 35.925607511874297 ] } },
{ "type": "Feature", "properties": { "P29_001": "18209", "P29_002": "A118210000100", "P29_003": "16011", "P29_004": "越前市武生西幼稚園", "P29_005": "福井県越前市中央2-2-13", "P29_006": "3", "P29_007": "0", "P29_008": "00", "P29_009": null }, "geometry": { "type": "Point", "coordinates": [ 136.15782571233504, 35.902010553288669 ] } },
{ "type": "Feature", "properties": { "P29_001": "18209", "P29_002": "A118210000119", "P29_003": "16011", "P29_004": "越前市武生南幼稚園", "P29_005": "福井県越前市柳町12-32", "P29_006": "3", "P29_007": "0", "P29_008": "00", "P29_009": null }, "geometry": { "type": "Point", "coordinates": [ 136.164109767818388, 35.895697688442631 ] } },
{ "type": "Feature", "properties": { "P29_001": "18209", "P29_002": "A118210000128", "P29_003": "16011", "P29_004": "越前市国高幼稚園", "P29_005": "福井県越前市国高2-319-3", "P29_006": "3", "P29_007": "0", "P29_008": "00", "P29_009": null }, "geometry": { "type": "Point", "coordinates": [ 136.187080286570534, 35.912374284723754 ] } },
{ "type": "Feature", "properties": { "P29_001": "18209", "P29_002": "A118210000137", "P29_003": "16011", "P29_004": "越前市王子保幼稚園", "P29_005": "福井県越前市今宿町5-14", "P29_006": "3", "P29_007": "0", "P29_008": "00", "P29_009": null }, "geometry": { "type": "Point", "coordinates": [ 136.167107993448127, 35.866276057164306 ] } },
{ "type": "Feature", "properties": { "P29_001": "18209", "P29_002": "A118210000146", "P29_003": "16011", "P29_004": "越前市坂口幼稚園", "P29_005": "福井県越前市湯谷町24-25", "P29_006": "3", "P29_007": "0", "P29_008": "00", "P29_009": null }, "geometry": { "type": "Point", "coordinates": [ 136.086712527591715, 35.858814409957795 ] } },
{ "type": "Feature", "properties": { "P29_001": "18205", "P29_002": "A118210000155", "P29_003": "16011", "P29_004": "大野市阪谷幼稚園", "P29_005": "福井県大野市伏石11-14", "P29_006": "3", "P29_007": "0", "P29_008": "00", "P29_009": null }, "geometry": { "type": "Point", "coordinates": [ 136.573800777120624, 35.984763873739233 ] } },
{ "type": "Feature", "properties": { "P29_001": "18205", "P29_002": "A118210000164", "P29_003": "16011", "P29_004": "大野市上庄幼稚園", "P29_005": "福井県大野市稲郷27-11", "P29_006": "3", "P29_007": "0", "P29_008": "00", "P29_009": null }, "geometry": { "type": "Point", "coordinates": [ 136.523058672732162, 35.951487739848119 ] } },
{ "type": "Feature", "properties": { "P29_001": "18205", "P29_002": "A118210000182", "P29_003": "16011", "P29_004": "大野市富田幼稚園", "P29_005": "福井県大野市上野42-17", "P29_006": "3", "P29_007": "0", "P29_008": "00", "P29_009": null }, "geometry": { "type": "Point", "coordinates": [ 136.538164118642385, 35.990440551948645 ] } },
{ "type": "Feature", "properties": { "P29_001": "18205", "P29_002": "A118210000191", "P29_003": "16011", "P29_004": "大野市小山幼稚園", "P29_005": "福井県大野市下舌9-1-1", "P29_006": "3", "P29_007": "0", "P29_008": "00", "P29_009": null }, "geometry": { "type": "Point", "coordinates": [ 136.490980006117127, 35.962099831727123 ] } },
{ "type": "Feature", "properties": { "P29_001": "18206", "P29_002": "A118210000208", "P29_003": "16011", "P29_004": "勝山市立成器南幼稚園", "P29_005": "福井県勝山市元町2-18-38", "P29_006": "3", "P29_007": "0", "P29_008": "00", "P29_009": null }, "geometry": { "type": "Point", "coordinates": [ 136.502884941821634, 36.055189296046926 ] } },
{ "type": "Feature", "properties": { "P29_001": "18207", "P29_002": "A118210000217", "P29_003": "16011", "P29_004": "鯖江市鯖江東幼稚園", "P29_005": "福井県鯖江市新横江2-6-37", "P29_006": "3", "P29_007": "0", "P29_008": "00", "P29_009": null }, "geometry": { "type": "Point", "coordinates": [ 136.198401350095395, 35.939258474460608 ] } },
{ "type": "Feature", "properties": { "P29_001": "18207", "P29_002": "A118210000226", "P29_003": "16011", "P29_004": "鯖江市神明幼稚園", "P29_005": "福井県鯖江市三六町1-8-24", "P29_006": "3", "P29_007": "0", "P29_008": "00", "P29_009": null }, "geometry": { "type": "Point", "coordinates": [ 136.178298001413935, 35.971847997724844 ] } },
{ "type": "Feature", "properties": { "P29_001": "18207", "P29_002": "A118210000235", "P29_003": "16011", "P29_004": "鯖江市片上幼稚園", "P29_005": "福井県鯖江市大野町16-6", "P29_006": "3", "P29_007": "0", "P29_008": "00", "P29_009": null }, "geometry": { "type": "Point", "coordinates": [ 136.231477764357237, 35.974276894629476 ] } },
{ "type": "Feature", "properties": { "P29_001": "18207", "P29_002": "A118210000244", "P29_003": "16011", "P29_004": "鯖江市北中山幼稚園", "P29_005": "福井県鯖江市戸口町9-11-4", "P29_006": "3", "P29_007": "0", "P29_008": "00", "P29_009": null }, "geometry": { "type": "Point", "coordinates": [ 136.244077525503258, 35.95332464127322 ] } },
{ "type": "Feature", "properties": { "P29_001": "18201", "P29_002": "A118210000253", "P29_003": "16011", "P29_004": "福井市立一乗幼稚園", "P29_005": "福井県福井市西新町1-4", "P29_006": "3", "P29_007": "0", "P29_008": "00", "P29_009": null }, "geometry": { "type": "Point", "coordinates": [ 136.290426532725462, 35.995582691596944 ] } },
{ "type": "Feature", "properties": { "P29_001": "18201", "P29_002": "A118210000262", "P29_003": "16011", "P29_004": "福井市立上文殊幼稚園", "P29_005": "福井県福井市生部町36-6", "P29_006": "3", "P29_007": "0", "P29_008": "00", "P29_009": null }, "geometry": { "type": "Point", "coordinates": [ 136.253040718258745, 35.9993828300518 ] } },
{ "type": "Feature", "properties": { "P29_001": "18201", "P29_002": "A118210000271", "P29_003": "16011", "P29_004": "福井市立酒生幼稚園", "P29_005": "福井県福井市成願寺町5-1", "P29_006": "3", "P29_007": "0", "P29_008": "00", "P29_009": null }, "geometry": { "type": "Point", "coordinates": [ 136.275038137023927, 36.03233769956779 ] } },
{ "type": "Feature", "properties": { "P29_001": "18201", "P29_002": "A118210000280", "P29_003": "16011", "P29_004": "福井市立下宇坂幼稚園", "P29_005": "福井県福井市市波町55-5", "P29_006": "3", "P29_007": "0", "P29_008": "00", "P29_009": null }, "geometry": { "type": "Point", "coordinates": [ 136.332309762616291, 36.015154661892474 ] } },
{ "type": "Feature", "properties": { "P29_001": "18201", "P29_002": "A118210000299", "P29_003": "16011", "P29_004": "福井市立羽生幼稚園", "P29_005": "福井県福井市大宮町12-31", "P29_006": "3", "P29_007": "0", "P29_008": "00", "P29_009": null }, "geometry": { "type": "Point", "coordinates": [ 136.415978761666054, 35.99950468022962 ] } },
{ "type": "Feature", "properties": { "P29_001": "18322", "P29_002": "A118210000315", "P29_003": "16011", "P29_004": "吉野幼稚園", "P29_005": "福井県吉田郡永平寺町松岡吉野26-21", "P29_006": "3", "P29_007": "0", "P29_008": "00", "P29_009": null }, "geometry": { "type": "Point", "coordinates": [ 136.295027996349859, 36.073167999977564 ] } },
{ "type": "Feature", "properties": { "P29_001": "18210", "P29_002": "A118210000333", "P29_003": "16011", "P29_004": "坂井市立三国南幼稚園", "P29_005": "福井県坂井市三国町南本町1-4-35", "P29_006": "3", "P29_007": "0", "P29_008": "00", "P29_009": null }, "geometry": { "type": "Point", "coordinates": [ 136.154483414421179, 36.212116727793656 ] } },
{ "type": "Feature", "properties": { "P29_001": "18210", "P29_002": "A118210000342", "P29_003": "16011", "P29_004": "坂井市立平章幼稚園", "P29_005": "福井県坂井市丸岡町霞町3-10-1", "P29_006": "3", "P29_007": "0", "P29_008": "00", "P29_009": null }, "geometry": { "type": "Point", "coordinates": [ 136.275466941013235, 36.153159712594253 ] } },
{ "type": "Feature", "properties": { "P29_001": "18210", "P29_002": "A118210000351", "P29_003": "16011", "P29_004": "坂井市立高椋幼稚園", "P29_005": "福井県坂井市丸岡町寅国2-13", "P29_006": "3", "P29_007": "0", "P29_008": "00", "P29_009": null }, "geometry": { "type": "Point", "coordinates": [ 136.270116179373701, 36.144076649368849 ] } },
{ "type": "Feature", "properties": { "P29_001": "18210", "P29_002": "A118210000360", "P29_003": "16011", "P29_004": "坂井市立鳴鹿幼稚園", "P29_005": "福井県坂井市丸岡町上金屋5-15", "P29_006": "3", "P29_007": "0", "P29_008": "00", "P29_009": null }, "geometry": { "type": "Point", "coordinates": [ 136.308117830542528, 36.110598300096498 ] } },
{ "type": "Feature", "properties": { "P29_001": "18210", "P29_002": "A118210000379", "P29_003": "16011", "P29_004": "坂井市立磯部幼稚園", "P29_005": "福井県坂井市丸岡町下安田19-9", "P29_006": "3", "P29_007": "0", "P29_008": "00", "P29_009": null }, "geometry": { "type": "Point", "coordinates": [ 136.257188620416798, 36.123688424655555 ] } },
{ "type": "Feature", "properties": { "P29_001": "18210", "P29_002": "A118210000388", "P29_003": "16011", "P29_004": "坂井市立春江幼稚園", "P29_005": "福井県坂井市春江町江留下屋敷220", "P29_006": "3", "P29_007": "0", "P29_008": "00", "P29_009": null }, "geometry": { "type": "Point", "coordinates": [ 136.22175700156987, 36.13012300215901 ] } },
{ "type": "Feature", "properties": { "P29_001": "18210", "P29_002": "A118210000397", "P29_003": "16011", "P29_004": "坂井市立春江西幼稚園", "P29_005": "福井県坂井市春江町松木11-7", "P29_006": "3", "P29_007": "0", "P29_008": "00", "P29_009": null }, "geometry": { "type": "Point", "coordinates": [ 136.20101600141578, 36.136329999590551 ] } },
{ "type": "Feature", "properties": { "P29_001": "18210", "P29_002": "A118210000404", "P29_003": "16011", "P29_004": "坂井市立大石幼稚園", "P29_005": "福井県坂井市春江町中庄11-2-3", "P29_006": "3", "P29_007": "0", "P29_008": "00", "P29_009": null }, "geometry": { "type": "Point", "coordinates": [ 136.188051154741544, 36.15498099114113 ] } },
{ "type": "Feature", "properties": { "P29_001": "18210", "P29_002": "A118210000413", "P29_003": "16011", "P29_004": "坂井市立春江東幼稚園", "P29_005": "福井県坂井市春江町中筋29-1", "P29_006": "3", "P29_007": "0", "P29_008": "00", "P29_009": null }, "geometry": { "type": "Point", "coordinates": [ 136.238031389181202, 36.128864930275583 ] } },
{ "type": "Feature", "properties": { "P29_001": "18201", "P29_002": "A118210000422", "P29_003": "16011", "P29_004": "福井市立清水東幼稚園", "P29_005": "福井県福井市三留町69-2", "P29_006": "3", "P29_007": "0", "P29_008": "00", "P29_009": null }, "geometry": { "type": "Point", "coordinates": [ 136.153792536882321, 36.037583193298573 ] } },
{ "type": "Feature", "properties": { "P29_001": "18201", "P29_002": "A118210000431", "P29_003": "16011", "P29_004": "福井市立清水西幼稚園", "P29_005": "福井県福井市大森町9-2", "P29_006": "3", "P29_007": "0", "P29_008": "00", "P29_009": null }, "geometry": { "type": "Point", "coordinates": [ 136.116780240581392, 36.018852185724356 ] } },
{ "type": "Feature", "properties": { "P29_001": "18210", "P29_002": "A118210000440", "P29_003": "16011", "P29_004": "坂井市立三国北幼稚園", "P29_005": "福井県坂井市三国町神明1-5-46", "P29_006": "3", "P29_007": "0", "P29_008": "00", "P29_009": null }, "geometry": { "type": "Point", "coordinates": [ 136.146841704254228, 36.216907279237525 ] } },
{ "type": "Feature", "properties": { "P29_001": "18210", "P29_002": "A118210000459", "P29_003": "16011", "P29_004": "坂井市立加戸幼稚園", "P29_005": "福井県坂井市三国町加戸34-30-1", "P29_006": "3", "P29_007": "0", "P29_008": "00", "P29_009": null }, "geometry": { "type": "Point", "coordinates": [ 136.172677944335419, 36.228232033246961 ] } },
{ "type": "Feature", "properties": { "P29_001": "18209", "P29_002": "A118210000477", "P29_003": "16011", "P29_004": "越前市味真野幼稚園", "P29_005": "福井県越前市池泉町9-1", "P29_006": "3", "P29_007": "0", "P29_008": "00", "P29_009": null }, "geometry": { "type": "Point", "coordinates": [ 136.233503245629606, 35.890634437482426 ] } },
{ "type": "Feature", "properties": { "P29_001": "18202", "P29_002": "A118210000486", "P29_003": "16011", "P29_004": "敦賀市立松陵幼稚園", "P29_005": "福井県敦賀市櫛川町2-11-5-5", "P29_006": "3", "P29_007": "0", "P29_008": "00", "P29_009": null }, "geometry": { "type": "Point", "coordinates": [ 136.0457850042649, 35.648130705090594 ] } },
{ "type": "Feature", "properties": { "P29_001": "18201", "P29_002": "A118210000495", "P29_003": "16011", "P29_004": "福井市立清水北幼稚園", "P29_005": "福井県福井市グリーンハイツ5-101", "P29_006": "3", "P29_007": "0", "P29_008": "00", "P29_009": null }, "geometry": { "type": "Point", "coordinates": [ 136.164418879224826, 36.04266062253118 ] } },
{ "type": "Feature", "properties": { "P29_001": "18201", "P29_002": "A118210000501", "P29_003": "16011", "P29_004": "福井市立本郷幼稚園", "P29_005": "福井県福井市大年町65-32", "P29_006": "3", "P29_007": "0", "P29_008": "00", "P29_009": null }, "geometry": { "type": "Point", "coordinates": [ 136.140093955387186, 36.114842177119783 ] } },
{ "type": "Feature", "properties": { "P29_001": "18201", "P29_002": "A118310000019", "P29_003": "16011", "P29_004": "報徳幼稚園", "P29_005": "福井県福井市手寄1-19-4", "P29_006": "4", "P29_007": "0", "P29_008": "00", "P29_009": null }, "geometry": { "type": "Point", "coordinates": [ 136.224476997673605, 36.058640001063537 ] } },
{ "type": "Feature", "properties": { "P29_001": "18202", "P29_002": "A118310000028", "P29_003": "16011", "P29_004": "早翠幼稚園", "P29_005": "福井県敦賀市本町1-6-10", "P29_006": "4", "P29_007": "0", "P29_008": "00", "P29_009": null }, "geometry": { "type": "Point", "coordinates": [ 136.074031446498026, 35.651424452795894 ] } },
{ "type": "Feature", "properties": { "P29_001": "18201", "P29_002": "A118310000037", "P29_003": "16011", "P29_004": "仁愛女子短期大学附属幼稚園", "P29_005": "福井県福井市天池町43-1-1", "P29_006": "4", "P29_007": "0", "P29_008": "00", "P29_009": null }, "geometry": { "type": "Point", "coordinates": [ 136.216545056796548, 36.103304797733557 ] } },
{ "type": "Feature", "properties": { "P29_001": "18201", "P29_002": "A118310000055", "P29_003": "16011", "P29_004": "聖徳幼稚園", "P29_005": "福井県福井市松本3-11-19", "P29_006": "4", "P29_007": "0", "P29_008": "00", "P29_009": null }, "geometry": { "type": "Point", "coordinates": [ 136.223765941962569, 36.071916555852091 ] } },
{ "type": "Feature", "properties": { "P29_001": "18201", "P29_002": "A118310000064", "P29_003": "16011", "P29_004": "小鳩幼稚園", "P29_005": "福井県福井市志比口2-25-25", "P29_006": "4", "P29_007": "0", "P29_008": "00", "P29_009": null }, "geometry": { "type": "Point", "coordinates": [ 136.240234525972539, 36.071454126278965 ] } },
{ "type": "Feature", "properties": { "P29_001": "18202", "P29_002": "A118310000082", "P29_003": "16011", "P29_004": "敦賀教会幼稚園", "P29_005": "福井県敦賀市本町2-2-25", "P29_006": "4", "P29_007": "0", "P29_008": "00", "P29_009": null }, "geometry": { "type": "Point", "coordinates": [ 136.073976239150795, 35.650140124985661 ] } },
{ "type": "Feature", "properties": { "P29_001": "18209", "P29_002": "A118310000091", "P29_003": "16011", "P29_004": "学校法人恩恵学園恩恵幼稚園", "P29_005": "福井県越前市住吉町3-29", "P29_006": "4", "P29_007": "0", "P29_008": "00", "P29_009": null }, "geometry": { "type": "Point", "coordinates": [ 136.169004062756585, 35.899039922310841 ] } },
{ "type": "Feature", "properties": { "P29_001": "18209", "P29_002": "A118310000108", "P29_003": "16011", "P29_004": "丈生幼稚園", "P29_005": "福井県越前市京町3-3-5", "P29_006": "4", "P29_007": "0", "P29_008": "00", "P29_009": null }, "geometry": { "type": "Point", "coordinates": [ 136.162625298991514, 35.904215790092714 ] } },
{ "type": "Feature", "properties": { "P29_001": "18209", "P29_002": "A118310000117", "P29_003": "16011", "P29_004": "丈生神山幼稚園", "P29_005": "福井県越前市三ッ口町45", "P29_006": "4", "P29_007": "0", "P29_008": "00", "P29_009": null }, "geometry": { "type": "Point", "coordinates": [ 136.158912057939318, 35.887880428540818 ] } },
{ "type": "Feature", "properties": { "P29_001": "18209", "P29_002": "A118310000126", "P29_003": "16011", "P29_004": "ひかり幼稚園", "P29_005": "福井県越前市芝原4-1-30", "P29_006": "4", "P29_007": "0", "P29_008": "00", "P29_009": null }, "geometry": { "type": "Point", "coordinates": [ 136.160533940364786, 35.918887438554712 ] } },
{ "type": "Feature", "properties": { "P29_001": "18205", "P29_002": "A118310000144", "P29_003": "16011", "P29_004": "大野幼稚園", "P29_005": "福井県大野市明倫町7-18", "P29_006": "4", "P29_007": "0", "P29_008": "00", "P29_009": null }, "geometry": { "type": "Point", "coordinates": [ 136.489250701924703, 35.981351894856068 ] } },
{ "type": "Feature", "properties": { "P29_001": "18205", "P29_002": "A118310000153", "P29_003": "16011", "P29_004": "白菊幼稚園", "P29_005": "福井県大野市要町3-4", "P29_006": "4", "P29_007": "0", "P29_008": "00", "P29_009": null }, "geometry": { "type": "Point", "coordinates": [ 136.490703356658372, 35.98937275504602 ] } },
{ "type": "Feature", "properties": { "P29_001": "18210", "P29_002": "A118310000162", "P29_003": "16011", "P29_004": "緑幼稚園", "P29_005": "福井県坂井市丸岡町霞町1-5", "P29_006": "4", "P29_007": "0", "P29_008": "00", "P29_009": null }, "geometry": { "type": "Point", "coordinates": [ 136.270660177553196, 36.151291615964439 ] } }
]
}
