{
"type": "FeatureCollection",
"name": "geo_18_小規模多機能型居宅介護",
"crs": { "type": "name", "properties": { "name": "urn:ogc:def:crs:OGC:1.3:CRS84" } },
"features": [
{ "type": "Feature", "properties": { "内容": "ほのか【小規模多機能型居宅介護】福井県福井市灯明寺1丁目2401番地", "url": "https://www.kaigokensaku.mhlw.go.jp/18/index.php?action_kouhyou_detail_004_kani=true&JigyosyoCd=1890100058-00&ServiceCd=730&Type=search", "url2": "http://www.care-unit.com/" }, "geometry": { "type": "Point", "coordinates": [ 136.212059, 36.0923828 ] } },
{ "type": "Feature", "properties": { "内容": "小規模多機能型居宅介護支援事業所「わがや」【小規模多機能型居宅介護】福井県福井市宝永3丁目25番8号小規模多機能型居宅介護支援事業所「わがや」", "url": "https://www.kaigokensaku.mhlw.go.jp/18/index.php?action_kouhyou_detail_004_kani=true&JigyosyoCd=1890100819-00&ServiceCd=730&Type=search", "url2": "nioiin.com/" }, "geometry": { "type": "Point", "coordinates": [ 136.222768200000019, 36.069457900000018 ] } },
{ "type": "Feature", "properties": { "内容": "つどいの家・よかったね【小規模多機能型居宅介護】福井市松本２丁目２５番１６号", "url": "https://www.kaigokensaku.mhlw.go.jp/18/index.php?action_kouhyou_detail_004_kani=true&JigyosyoCd=1890100017-00&ServiceCd=730&Type=search", "url2": "http://care-net.biz/18" }, "geometry": { "type": "Point", "coordinates": [ 136.226202715344186, 36.074626867786975 ] } },
{ "type": "Feature", "properties": { "内容": "くつろぎの家・よかったね【小規模多機能型居宅介護】福井県福井市照手1丁目16-16絆マンション", "url": "https://www.kaigokensaku.mhlw.go.jp/18/index.php?action_kouhyou_detail_004_kani=true&JigyosyoCd=1890100025-00&ServiceCd=730&Type=search", "url2": "https://care-friends.com" }, "geometry": { "type": "Point", "coordinates": [ 136.210545374868843, 36.064602000415661 ] } },
{ "type": "Feature", "properties": { "内容": "楽家【小規模多機能型居宅介護】福井市上野本町1丁目3912番地", "url": "https://www.kaigokensaku.mhlw.go.jp/18/index.php?action_kouhyou_detail_004_kani=true&JigyosyoCd=1890100116-00&ServiceCd=730&Type=search", "url2": "https://www.koyokai-fukui.com/care/rakuya1.php" }, "geometry": { "type": "Point", "coordinates": [ 136.235567295106506, 36.110501748968098 ] } },
{ "type": "Feature", "properties": { "内容": "小規模多機能型居宅介護事業所美山【小規模多機能型居宅介護】福井県福井市美山町6-1", "url": "https://www.kaigokensaku.mhlw.go.jp/18/index.php?action_kouhyou_detail_004_kani=true&JigyosyoCd=1890100702-00&ServiceCd=730&Type=search", "url2": "http://www.asuwafukushikai.jp/gh-miyama/" }, "geometry": { "type": "Point", "coordinates": [ 136.360287699999958, 35.999311 ] } },
{ "type": "Feature", "properties": { "内容": "活き生きほっと俱楽部福井【小規模多機能型居宅介護】福井県福井市大和田2-2101", "url": "https://www.kaigokensaku.mhlw.go.jp/18/index.php?action_kouhyou_detail_004_kani=true&JigyosyoCd=1890100918-00&ServiceCd=730&Type=search", "url2": "http://www.hotreha.com" }, "geometry": { "type": "Point", "coordinates": [ 136.253496303704821, 36.098717106330966 ] } },
{ "type": "Feature", "properties": { "内容": "よりそいの家・よかったね【小規模多機能型居宅介護】福井県福井市丸山２丁目５１４番地レリエフ丸山1F", "url": "https://www.kaigokensaku.mhlw.go.jp/18/index.php?action_kouhyou_detail_004_kani=true&JigyosyoCd=1890100272-00&ServiceCd=730&Type=search", "url2": "https://care-friends.com" }, "geometry": { "type": "Point", "coordinates": [ 136.245611, 36.0733257 ] } },
{ "type": "Feature", "properties": { "内容": "県民せいきょう小規模多機能ホーム江守きらめきハウス【小規模多機能型居宅介護】福井市江守中町第2号12番地", "url": "https://www.kaigokensaku.mhlw.go.jp/18/index.php?action_kouhyou_detail_004_kani=true&JigyosyoCd=1890100371-00&ServiceCd=730&Type=search", "url2": "http://www.fukui.coop/" }, "geometry": { "type": "Point", "coordinates": [ 136.198977099999979, 36.0371981 ] } },
{ "type": "Feature", "properties": { "内容": "ほほえみの家・よかったね【小規模多機能型居宅介護】四十谷町5番18号1", "url": "https://www.kaigokensaku.mhlw.go.jp/18/index.php?action_kouhyou_detail_004_kani=true&JigyosyoCd=1890100470-00&ServiceCd=730&Type=search", "url2": "https://care-friends.com" }, "geometry": { "type": "Point", "coordinates": [ 136.175041, 36.1074389 ] } },
{ "type": "Feature", "properties": { "内容": "小規模多機能型居宅介護ぽかぽか【小規模多機能型居宅介護】福井市菅谷１丁目１３－１９", "url": "https://www.kaigokensaku.mhlw.go.jp/18/index.php?action_kouhyou_detail_004_kani=true&JigyosyoCd=1890100512-00&ServiceCd=730&Type=search", "url2": "http://www.kotobukinokai.com/" }, "geometry": { "type": "Point", "coordinates": [ 136.1935522, 36.069855 ] } },
{ "type": "Feature", "properties": { "内容": "小規模多機能ホーム　二の丸苑【小規模多機能型居宅介護】福井市大手2丁目21-3", "url": "https://www.kaigokensaku.mhlw.go.jp/18/index.php?action_kouhyou_detail_004_kani=true&JigyosyoCd=1890100553-00&ServiceCd=730&Type=search", "url2": "http://www.ninomaruen@muse.ocn.ne.jp" }, "geometry": { "type": "Point", "coordinates": [ 136.222882199999958, 36.0666166 ] } },
{ "type": "Feature", "properties": { "内容": "小規模多機能　ほおずき【小規模多機能型居宅介護】福井市大瀬町２３－１０１", "url": "https://www.kaigokensaku.mhlw.go.jp/18/index.php?action_kouhyou_detail_004_kani=true&JigyosyoCd=1890100454-00&ServiceCd=730&Type=search", "url2": "http://www.kenrakukai.jp/higashiago/" }, "geometry": { "type": "Point", "coordinates": [ 136.185089299999959, 36.0696993 ] } },
{ "type": "Feature", "properties": { "内容": "あさくらの家　東郷【小規模多機能型居宅介護】福井市東郷二ヶ町6-2-1", "url": "https://www.kaigokensaku.mhlw.go.jp/18/index.php?action_kouhyou_detail_004_kani=true&JigyosyoCd=1890100306-00&ServiceCd=730&Type=search", "url2": "http://www.asakuraen.jp" }, "geometry": { "type": "Point", "coordinates": [ 136.265234, 36.0193156 ] } },
{ "type": "Feature", "properties": { "内容": "森のイスキア【小規模多機能型居宅介護】福井市和田東２丁目７０４番地", "url": "https://www.kaigokensaku.mhlw.go.jp/18/index.php?action_kouhyou_detail_004_kani=true&JigyosyoCd=1890100603-00&ServiceCd=730&Type=search", "url2": "http://snow-dp.co.jp/" }, "geometry": { "type": "Point", "coordinates": [ 136.250015, 36.0491226 ] } },
{ "type": "Feature", "properties": { "内容": "やすらぎの家【小規模多機能型居宅介護】福井県福井市日之出３丁目１２－８やすらぎの家", "url": "https://www.kaigokensaku.mhlw.go.jp/18/index.php?action_kouhyou_detail_004_kani=true&JigyosyoCd=1890101130-00&ServiceCd=730&Type=search", "url2": "ｗｗｗ．ｆｕｋｕ．ｋｏｕｍｙｏｕｊｉ．ｊｐ" }, "geometry": { "type": "Point", "coordinates": [ 136.230353749073771, 36.06417029124303 ] } },
{ "type": "Feature", "properties": { "内容": "小規模多機能型居宅介護事業所やよいの里【小規模多機能型居宅介護】福井市加茂緑苑町402番地", "url": "https://www.kaigokensaku.mhlw.go.jp/18/index.php?action_kouhyou_detail_004_kani=true&JigyosyoCd=1890100405-00&ServiceCd=730&Type=search", "url2": "http://www.aijuen.com/" }, "geometry": { "type": "Point", "coordinates": [ 136.191610800000035, 36.0548513 ] } },
{ "type": "Feature", "properties": { "内容": "えばたホームやわらぎ【小規模多機能型居宅介護】福井県福井市江端町20-1-3", "url": "https://www.kaigokensaku.mhlw.go.jp/18/index.php?action_kouhyou_detail_004_kani=true&JigyosyoCd=1890100694-00&ServiceCd=730&Type=search", "url2": "http://rokujokoseikai.jp" }, "geometry": { "type": "Point", "coordinates": [ 136.213082500000041, 36.0258753 ] } },
{ "type": "Feature", "properties": { "内容": "みらい【小規模多機能型居宅介護】福井県福井市新田塚２丁目12-15", "url": "https://www.kaigokensaku.mhlw.go.jp/18/index.php?action_kouhyou_detail_004_kani=true&JigyosyoCd=1890101148-00&ServiceCd=730&Type=search", "url2": "https://fukui-kakehashi.co.jp/" }, "geometry": { "type": "Point", "coordinates": [ 136.205078499999985, 36.0877289 ] } },
{ "type": "Feature", "properties": { "内容": "かけはし【小規模多機能型居宅介護】福井県福井市本堂町69字14番地1", "url": "https://www.kaigokensaku.mhlw.go.jp/18/index.php?action_kouhyou_detail_004_kani=true&JigyosyoCd=1890100850-00&ServiceCd=730&Type=search", "url2": "https://fukui-kakehashi.co.jp/" }, "geometry": { "type": "Point", "coordinates": [ 136.13210330000004, 36.0594941 ] } },
{ "type": "Feature", "properties": { "内容": "小規模多機能ホーム　ひびきの家【小規模多機能型居宅介護】福井県福井市鮎川町９１－３７", "url": "https://www.kaigokensaku.mhlw.go.jp/18/index.php?action_kouhyou_detail_004_kani=true&JigyosyoCd=1890100140-00&ServiceCd=730&Type=search", "url2": "https://h.green-i.jp/" }, "geometry": { "type": "Point", "coordinates": [ 136.032837200000017, 36.0910731 ] } },
{ "type": "Feature", "properties": { "内容": "アットホーム仁愛【小規模多機能型居宅介護】福井市乾徳4丁目4番10号", "url": "https://www.kaigokensaku.mhlw.go.jp/18/index.php?action_kouhyou_detail_004_kani=true&JigyosyoCd=1890100397-00&ServiceCd=730&Type=search", "url2": null }, "geometry": { "type": "Point", "coordinates": [ 136.205645199999907, 36.0716298 ] } },
{ "type": "Feature", "properties": { "内容": "小規模多機能型居宅介護事業所　いろどり二の宮【小規模多機能型居宅介護】福井市二の宮3丁目32-21", "url": "https://www.kaigokensaku.mhlw.go.jp/18/index.php?action_kouhyou_detail_004_kani=true&JigyosyoCd=1890100496-00&ServiceCd=730&Type=search", "url2": "http://www.shinkai-co.com/" }, "geometry": { "type": "Point", "coordinates": [ 136.2178331, 36.0868224 ] } },
{ "type": "Feature", "properties": { "内容": "県民せいきょう小規模多機能ホーム　宝永きらめきハウス【小規模多機能型居宅介護】福井市宝永３丁目３－１", "url": "https://www.kaigokensaku.mhlw.go.jp/18/index.php?action_kouhyou_detail_004_kani=true&JigyosyoCd=1890100181-00&ServiceCd=730&Type=search", "url2": "http://www.fukui.coop/care/shisetsu/hoei-kirameki/" }, "geometry": { "type": "Point", "coordinates": [ 136.2240405, 36.0673194 ] } },
{ "type": "Feature", "properties": { "内容": "県民せいきょう小規模多機能ホーム岡保きらめきハウス【小規模多機能型居宅介護】曽万布町7字18番1", "url": "https://www.kaigokensaku.mhlw.go.jp/18/index.php?action_kouhyou_detail_004_kani=true&JigyosyoCd=1890100629-00&ServiceCd=730&Type=search", "url2": "http://www.fukui.coop/" }, "geometry": { "type": "Point", "coordinates": [ 136.262756099999933, 36.043043 ] } },
{ "type": "Feature", "properties": { "内容": "小規模多機能型居宅介護事業所いろどり丸山【小規模多機能型居宅介護】福井県福井市丸山2丁目514番", "url": "https://www.kaigokensaku.mhlw.go.jp/18/index.php?action_kouhyou_detail_004_kani=true&JigyosyoCd=1890100314-00&ServiceCd=730&Type=search", "url2": "http://www.shinkai-co.com/" }, "geometry": { "type": "Point", "coordinates": [ 136.193130200000041, 36.0755321 ] } },
{ "type": "Feature", "properties": { "内容": "朝焼けとひつじ雲【小規模多機能型居宅介護】福井県福井市石盛２丁目２０１５番地", "url": "https://www.kaigokensaku.mhlw.go.jp/18/index.php?action_kouhyou_detail_004_kani=true&JigyosyoCd=1890101304-00&ServiceCd=730&Type=search", "url2": "https://yuzuriha.p-kit.com/" }, "geometry": { "type": "Point", "coordinates": [ 136.231677600000012, 36.1157933 ] } },
{ "type": "Feature", "properties": { "内容": "小規模多機能型居宅介護ゆずり葉【小規模多機能型居宅介護】福井県福井市春日３丁目１００９", "url": "https://www.kaigokensaku.mhlw.go.jp/18/index.php?action_kouhyou_detail_004_kani=true&JigyosyoCd=1890101023-00&ServiceCd=730&Type=search", "url2": "https://yuzuriha.p-kit.com/" }, "geometry": { "type": "Point", "coordinates": [ 136.226485900000029, 36.050298099894256 ] } },
{ "type": "Feature", "properties": { "内容": "小規模多機能型居宅介護事業所　アイホーム　ゆうゆう【小規模多機能型居宅介護】福井県敦賀市結城町13番24号", "url": "https://www.kaigokensaku.mhlw.go.jp/18/index.php?action_kouhyou_detail_004_kani=true&JigyosyoCd=1890200031-00&ServiceCd=730&Type=search", "url2": "http://ihome-csi.locaiinfo.jp/" }, "geometry": { "type": "Point", "coordinates": [ 136.064042940475474, 35.655186299425296 ] } },
{ "type": "Feature", "properties": { "内容": "coco【小規模多機能型居宅介護】福井県敦賀市松栄町13番4-2", "url": "https://www.kaigokensaku.mhlw.go.jp/18/index.php?action_kouhyou_detail_004_kani=true&JigyosyoCd=1890200270-00&ServiceCd=730&Type=search", "url2": "http://www.fukushika.com" }, "geometry": { "type": "Point", "coordinates": [ 136.056488800000011, 35.631922 ] } },
{ "type": "Feature", "properties": { "内容": "小規模多機能ホームこばやし【小規模多機能型居宅介護】ひばりヶ丘町1057番", "url": "https://www.kaigokensaku.mhlw.go.jp/18/index.php?action_kouhyou_detail_004_kani=true&JigyosyoCd=1890200072-00&ServiceCd=730&Type=search", "url2": "http://care-koba.com/s_home/" }, "geometry": { "type": "Point", "coordinates": [ 136.0416418, 35.622305799999985 ] } },
{ "type": "Feature", "properties": { "内容": "松原のいろ　幸【小規模多機能型居宅介護】福井県敦賀市鋳物師町１２－１６－５", "url": "https://www.kaigokensaku.mhlw.go.jp/18/index.php?action_kouhyou_detail_004_kani=true&JigyosyoCd=1890200171-00&ServiceCd=730&Type=search", "url2": "http://www.fukushika.com" }, "geometry": { "type": "Point", "coordinates": [ 136.05400469999995, 35.6507244 ] } },
{ "type": "Feature", "properties": { "内容": "小規模多機能型居宅介護　いっぷく【小規模多機能型居宅介護】福井県敦賀市衣掛町420番", "url": "https://www.kaigokensaku.mhlw.go.jp/18/index.php?action_kouhyou_detail_004_kani=true&JigyosyoCd=1890200221-00&ServiceCd=730&Type=search", "url2": null }, "geometry": { "type": "Point", "coordinates": [ 136.071915699999977, 35.63102380000003 ] } },
{ "type": "Feature", "properties": { "内容": "県民せいきょう小規模多機能ホーム　結城きらめきハウス【小規模多機能型居宅介護】福井県敦賀市結城町13番24号", "url": "https://www.kaigokensaku.mhlw.go.jp/18/index.php?action_kouhyou_detail_004_kani=true&JigyosyoCd=1890200304-00&ServiceCd=730&Type=search", "url2": "http://www.fukui.coop/" }, "geometry": { "type": "Point", "coordinates": [ 136.063985696295163, 35.655243187407201 ] } },
{ "type": "Feature", "properties": { "内容": "小規模多機能型居宅介護あゆみ【小規模多機能型居宅介護】敦賀市高野2号1-1", "url": "https://www.kaigokensaku.mhlw.go.jp/18/index.php?action_kouhyou_detail_004_kani=true&JigyosyoCd=1890200049-00&ServiceCd=730&Type=search", "url2": "http://kjinkai.jp" }, "geometry": { "type": "Point", "coordinates": [ 136.0873623, 35.635835 ] } },
{ "type": "Feature", "properties": { "内容": "県民せいきょう小規模多機能ホーム　敦賀きらめきハウス【小規模多機能型居宅介護】市野々町2丁目1554番", "url": "https://www.kaigokensaku.mhlw.go.jp/18/index.php?action_kouhyou_detail_004_kani=true&JigyosyoCd=1890200122-00&ServiceCd=730&Type=search", "url2": "http://www.fukui.coop/" }, "geometry": { "type": "Point", "coordinates": [ 136.051197199999933, 35.6217941 ] } },
{ "type": "Feature", "properties": { "内容": "小規模多機能型居宅介護事業所おあしす【小規模多機能型居宅介護】福井県小浜市雲浜1丁目８－８", "url": "https://www.kaigokensaku.mhlw.go.jp/18/index.php?action_kouhyou_detail_004_kani=true&JigyosyoCd=1890400045-00&ServiceCd=730&Type=search", "url2": "http://homeoasis.jp/" }, "geometry": { "type": "Point", "coordinates": [ 135.750401900000043, 35.5094139 ] } },
{ "type": "Feature", "properties": { "内容": "小規模多機能ホームはな【小規模多機能型居宅介護】福井県小浜市遠敷四丁目７０５番地１", "url": "https://www.kaigokensaku.mhlw.go.jp/18/index.php?action_kouhyou_detail_004_kani=true&JigyosyoCd=1890400029-00&ServiceCd=730&Type=search", "url2": null }, "geometry": { "type": "Point", "coordinates": [ 135.782861017790992, 35.481082651141357 ] } },
{ "type": "Feature", "properties": { "内容": "小規模多機能型居宅介護　めいりん【小規模多機能型居宅介護】大野市明倫町6-19", "url": "https://www.kaigokensaku.mhlw.go.jp/18/index.php?action_kouhyou_detail_004_kani=true&JigyosyoCd=1890500059-00&ServiceCd=730&Type=search", "url2": null }, "geometry": { "type": "Point", "coordinates": [ 136.4886914, 35.9835941 ] } },
{ "type": "Feature", "properties": { "内容": "小規模多機能型居宅介護事業所和が家【小規模多機能型居宅介護】福井県大野市中据52-6-8", "url": "https://www.kaigokensaku.mhlw.go.jp/18/index.php?action_kouhyou_detail_004_kani=true&JigyosyoCd=1890500018-00&ServiceCd=730&Type=search", "url2": null }, "geometry": { "type": "Point", "coordinates": [ 136.50605059999998, 35.9590176 ] } },
{ "type": "Feature", "properties": { "内容": "県民せいきょう小規模多機能ホーム大野きらめきハウス【小規模多機能型居宅介護】福井県大野市天神町3番21号", "url": "https://www.kaigokensaku.mhlw.go.jp/18/index.php?action_kouhyou_detail_004_kani=true&JigyosyoCd=1890500034-00&ServiceCd=730&Type=search", "url2": "http://www.fukui.coop/" }, "geometry": { "type": "Point", "coordinates": [ 136.4884859, 35.9790976 ] } },
{ "type": "Feature", "properties": { "内容": "よろこんでハウス・サンプラザ【小規模多機能型居宅介護】元町１丁目7-28サンプラザ２Ｆ", "url": "https://www.kaigokensaku.mhlw.go.jp/18/index.php?action_kouhyou_detail_004_kani=true&JigyosyoCd=1890600081-00&ServiceCd=730&Type=search", "url2": null }, "geometry": { "type": "Point", "coordinates": [ 136.502395, 36.0610367 ] } },
{ "type": "Feature", "properties": { "内容": "よろこんでハウス・サンプラザ【小規模多機能型居宅介護】福井県勝山市元町1-7-28サンプラザ", "url": "https://www.kaigokensaku.mhlw.go.jp/18/index.php?action_kouhyou_detail_004_kani=true&JigyosyoCd=1890600107-00&ServiceCd=730&Type=search", "url2": null }, "geometry": { "type": "Point", "coordinates": [ 136.502457600000014, 36.0609994 ] } },
{ "type": "Feature", "properties": { "内容": "県民せいきょう小規模多機能型居宅介護勝山きらめきハウス【小規模多機能型居宅介護】元町2丁目5番12号", "url": "https://www.kaigokensaku.mhlw.go.jp/18/index.php?action_kouhyou_detail_004_kani=true&JigyosyoCd=1890600073-00&ServiceCd=730&Type=search", "url2": "http://www.fukui.coop" }, "geometry": { "type": "Point", "coordinates": [ 133.853108, 34.316066499999934 ] } },
{ "type": "Feature", "properties": { "内容": "小規模多機能型居宅介護　きらめきの里鯖江【小規模多機能型居宅介護】福井県鯖江市小黒町3丁目1009番", "url": "https://www.kaigokensaku.mhlw.go.jp/18/index.php?action_kouhyou_detail_004_kani=true&JigyosyoCd=1890700139-00&ServiceCd=730&Type=search", "url2": "https://www.fukui.coop/kirameki-fukushikai/" }, "geometry": { "type": "Point", "coordinates": [ 136.173196700524926, 35.955729963159804 ] } },
{ "type": "Feature", "properties": { "内容": "県民せいきょう小規模多機能ホーム鯖江きらめきハウス【小規模多機能型居宅介護】小黒町３丁目１０－２１", "url": "https://www.kaigokensaku.mhlw.go.jp/18/index.php?action_kouhyou_detail_004_kani=true&JigyosyoCd=1890700105-00&ServiceCd=730&Type=search", "url2": "http://www.fukui.coop/" }, "geometry": { "type": "Point", "coordinates": [ 136.173464100000047, 35.9555835 ] } },
{ "type": "Feature", "properties": { "内容": "おしどり荘【小規模多機能型居宅介護】福井県鯖江市別司町41-30", "url": "https://www.kaigokensaku.mhlw.go.jp/18/index.php?action_kouhyou_detail_004_kani=true&JigyosyoCd=1890700022-00&ServiceCd=730&Type=search", "url2": "http://www.touyoukai.or.jp/" }, "geometry": { "type": "Point", "coordinates": [ 136.260332400000038, 35.947612 ] } },
{ "type": "Feature", "properties": { "内容": "陽だまりさばえ【小規模多機能型居宅介護】鯖江市旭町４丁目9-10", "url": "https://www.kaigokensaku.mhlw.go.jp/18/index.php?action_kouhyou_detail_004_kani=true&JigyosyoCd=1890700063-00&ServiceCd=730&Type=search", "url2": "https://www.jujinkai.or.jp/zaitaku/service-06" }, "geometry": { "type": "Point", "coordinates": [ 136.1866215, 35.9486572 ] } },
{ "type": "Feature", "properties": { "内容": "地域密着小規模多機能型居宅介護事業所ありんこ【小規模多機能型居宅介護】鯖江市西大井町12-38-2", "url": "https://www.kaigokensaku.mhlw.go.jp/18/index.php?action_kouhyou_detail_004_kani=true&JigyosyoCd=1890700055-00&ServiceCd=730&Type=search", "url2": null }, "geometry": { "type": "Point", "coordinates": [ 136.138384, 35.9593489 ] } },
{ "type": "Feature", "properties": { "内容": "小規模多機能型居宅介護　もんざえもん【小規模多機能型居宅介護】鯖江市鳥羽3丁目1-29-1", "url": "https://www.kaigokensaku.mhlw.go.jp/18/index.php?action_kouhyou_detail_004_kani=true&JigyosyoCd=1890700030-00&ServiceCd=730&Type=search", "url2": "monza@wakatake.ne.jp" }, "geometry": { "type": "Point", "coordinates": [ 136.185633899999971, 35.9846379 ] } },
{ "type": "Feature", "properties": { "内容": "県民せいきょう小規模多機能ホーム金津きらめきハウス【小規模多機能型居宅介護】あわら市大溝3丁目11番7号", "url": "https://www.kaigokensaku.mhlw.go.jp/18/index.php?action_kouhyou_detail_004_kani=true&JigyosyoCd=1890800087-00&ServiceCd=730&Type=search", "url2": "https://www.fukui.coop/care/shisetsu/kanazu-kirameki/" }, "geometry": { "type": "Point", "coordinates": [ 136.2255165, 36.2070906 ] } },
{ "type": "Feature", "properties": { "内容": "小規模多機能型居宅介護　あわら聖徳園【小規模多機能型居宅介護】福井県あわら市田中々3-25-7", "url": "https://www.kaigokensaku.mhlw.go.jp/18/index.php?action_kouhyou_detail_004_kani=true&JigyosyoCd=1890800012-00&ServiceCd=730&Type=search", "url2": "http://www.shotokuen.or.jp/" }, "geometry": { "type": "Point", "coordinates": [ 136.197489099999984, 36.2211843 ] } },
{ "type": "Feature", "properties": { "内容": "小規模多機能ホームかのん【小規模多機能型居宅介護】福井県越前市横根町12-4-1", "url": "https://www.kaigokensaku.mhlw.go.jp/18/index.php?action_kouhyou_detail_004_kani=true&JigyosyoCd=1890300187-00&ServiceCd=730&Type=search", "url2": "http://lifemore.ne.jp/" }, "geometry": { "type": "Point", "coordinates": [ 136.134955699999978, 35.909619 ] } },
{ "type": "Feature", "properties": { "内容": "小規模多機能ホーム　藤の里【小規模多機能型居宅介護】福井県越前市国府２丁目８－３３", "url": "https://www.kaigokensaku.mhlw.go.jp/18/index.php?action_kouhyou_detail_004_kani=true&JigyosyoCd=1890300120-00&ServiceCd=730&Type=search", "url2": null }, "geometry": { "type": "Point", "coordinates": [ 136.168216, 35.9071564 ] } },
{ "type": "Feature", "properties": { "内容": "社会福祉法人　一眞会　小規模多機能型居宅介護　王子保ホーム【小規模多機能型居宅介護】福井県越前市四郎丸町61-1-12", "url": "https://www.kaigokensaku.mhlw.go.jp/18/index.php?action_kouhyou_detail_004_kani=true&JigyosyoCd=1890300336-00&ServiceCd=730&Type=search", "url2": "https://ikiiki.website" }, "geometry": { "type": "Point", "coordinates": [ 136.1689619, 35.8692074 ] } },
{ "type": "Feature", "properties": { "内容": "アスピカケアセンターたけふ　小規模多機能ホーム【小規模多機能型居宅介護】福井県越前市新保町20-31", "url": "https://www.kaigokensaku.mhlw.go.jp/18/index.php?action_kouhyou_detail_004_kani=true&JigyosyoCd=1890300237-00&ServiceCd=730&Type=search", "url2": "http://www.aspica.co.jp" }, "geometry": { "type": "Point", "coordinates": [ 136.153526075581141, 35.908570055395543 ] } },
{ "type": "Feature", "properties": { "内容": "小規模多機能いきいきホームサテライト　和紙の里ホーム【小規模多機能型居宅介護】福井県越前市大滝町25-23-1", "url": "https://www.kaigokensaku.mhlw.go.jp/18/index.php?action_kouhyou_detail_004_kani=true&JigyosyoCd=1890300294-00&ServiceCd=730&Type=search", "url2": "https://ikiiki.website" }, "geometry": { "type": "Point", "coordinates": [ 136.250509099999988, 35.9061232 ] } },
{ "type": "Feature", "properties": { "内容": "小規模多機能ホーム　こころ【小規模多機能型居宅介護】本多1丁目8-12", "url": "https://www.kaigokensaku.mhlw.go.jp/18/index.php?action_kouhyou_detail_004_kani=true&JigyosyoCd=1890300179-00&ServiceCd=730&Type=search", "url2": "http://www.tsukioka-med.com/kokoro/index.html" }, "geometry": { "type": "Point", "coordinates": [ 139.483367899999962, 35.7055192 ] } },
{ "type": "Feature", "properties": { "内容": "県民せいきょう小規模多機能ホーム丹南きらめきハウス【小規模多機能型居宅介護】福井県越前市家久町49字丹南きらめき", "url": "https://www.kaigokensaku.mhlw.go.jp/18/index.php?action_kouhyou_detail_004_kani=true&JigyosyoCd=1890300047-00&ServiceCd=730&Type=search", "url2": "http://www.fukui.coop/" }, "geometry": { "type": "Point", "coordinates": [ 136.166609900000026, 35.9317646 ] } },
{ "type": "Feature", "properties": { "内容": "小規模多機能　いきいきホーム【小規模多機能型居宅介護】越前市高瀬２丁目４－２２越前いきいき健康館２階", "url": "https://www.kaigokensaku.mhlw.go.jp/18/index.php?action_kouhyou_detail_004_kani=true&JigyosyoCd=1890300146-00&ServiceCd=730&Type=search", "url2": "http://www.n-kaneichi.co.jp/" }, "geometry": { "type": "Point", "coordinates": [ 136.160894699999972, 35.8992655 ] } },
{ "type": "Feature", "properties": { "内容": "小規模多機能型居宅介護　わきあいあい　わかたけ【小規模多機能型居宅介護】越前市高木町１２－７－１", "url": "https://www.kaigokensaku.mhlw.go.jp/18/index.php?action_kouhyou_detail_004_kani=true&JigyosyoCd=1890300021-00&ServiceCd=730&Type=search", "url2": "http://www.wakatake.ne.jp" }, "geometry": { "type": "Point", "coordinates": [ 136.190493899999979, 35.9282074 ] } },
{ "type": "Feature", "properties": { "内容": "小規模多機能型居宅介護事業所･介護予防小規模多機能型居宅介護事業所おいで家【小規模多機能型居宅介護】越前市　粟田部町４２－６－１", "url": "https://www.kaigokensaku.mhlw.go.jp/18/index.php?action_kouhyou_detail_004_kani=true&JigyosyoCd=1890300039-00&ServiceCd=730&Type=search", "url2": "http://www.oideya-f.com/" }, "geometry": { "type": "Point", "coordinates": [ 136.239243699999946, 35.9149712 ] } },
{ "type": "Feature", "properties": { "内容": "小規模多機能ホーム　ほがら家【小規模多機能型居宅介護】福井県越前市瓜生町３１－１", "url": "https://www.kaigokensaku.mhlw.go.jp/18/index.php?action_kouhyou_detail_004_kani=true&JigyosyoCd=1890300104-00&ServiceCd=730&Type=search", "url2": "http://ichibankaigo.jp/" }, "geometry": { "type": "Point", "coordinates": [ 136.187308900000062, 35.9031519 ] } },
{ "type": "Feature", "properties": { "内容": "小規模多機能型介護施設　しんじょういこい【小規模多機能型居宅介護】福井県坂井市坂井町上新庄52-29", "url": "https://www.kaigokensaku.mhlw.go.jp/18/index.php?action_kouhyou_detail_004_kani=true&JigyosyoCd=1891700112-00&ServiceCd=730&Type=search", "url2": "http://www.fukui-min-iren.com/iryouseikyou/" }, "geometry": { "type": "Point", "coordinates": [ 136.234457199999952, 36.1628063 ] } },
{ "type": "Feature", "properties": { "内容": "小規模多機能型居宅介護施設　きなっせ【小規模多機能型居宅介護】福井県坂井市春江町中筋第１００号７５番地", "url": "https://www.kaigokensaku.mhlw.go.jp/18/index.php?action_kouhyou_detail_004_kani=true&JigyosyoCd=1891700146-00&ServiceCd=730&Type=search", "url2": null }, "geometry": { "type": "Point", "coordinates": [ 136.23622279999995, 36.1273855 ] } },
{ "type": "Feature", "properties": { "内容": "県民せいきょう　小規模多機能ホーム坂井きらめきハウス【小規模多機能型居宅介護】坂井市坂井町大味56号", "url": "https://www.kaigokensaku.mhlw.go.jp/18/index.php?action_kouhyou_detail_004_kani=true&JigyosyoCd=1891700138-00&ServiceCd=730&Type=search", "url2": "http://www.fukui.coop" }, "geometry": { "type": "Point", "coordinates": [ 136.195449100000019, 36.1849659 ] } },
{ "type": "Feature", "properties": { "内容": "まるおかデイホーム【小規模多機能型居宅介護】福井県坂井市丸岡町八ヶ郷23-19-3", "url": "https://www.kaigokensaku.mhlw.go.jp/18/index.php?action_kouhyou_detail_004_kani=true&JigyosyoCd=1891700047-00&ServiceCd=730&Type=search", "url2": "http://www.life-sp.jp" }, "geometry": { "type": "Point", "coordinates": [ 136.279836599999953, 36.1553225 ] } },
{ "type": "Feature", "properties": { "内容": "小規模多機能なないろ【小規模多機能型居宅介護】福井県吉田郡永平寺町松岡薬師1-145", "url": "https://www.kaigokensaku.mhlw.go.jp/18/index.php?action_kouhyou_detail_004_kani=true&JigyosyoCd=1891600031-00&ServiceCd=730&Type=search", "url2": null }, "geometry": { "type": "Point", "coordinates": [ 136.305852516005189, 36.09617555342497 ] } },
{ "type": "Feature", "properties": { "内容": "小規模多機能　なないろ【小規模多機能型居宅介護】福井県吉田郡松岡薬師1丁目145番地", "url": "https://www.kaigokensaku.mhlw.go.jp/18/index.php?action_kouhyou_detail_004_kani=true&JigyosyoCd=1891600056-00&ServiceCd=730&Type=search", "url2": null }, "geometry": { "type": "Point", "coordinates": [ 136.3059321, 36.0961674 ] } },
{ "type": "Feature", "properties": { "内容": "小規模多機能型事業所あんじゅ【小規模多機能型居宅介護】福井県今立郡池田町常安21-1", "url": "https://www.kaigokensaku.mhlw.go.jp/18/index.php?action_kouhyou_detail_004_kani=true&JigyosyoCd=1891800011-00&ServiceCd=730&Type=search", "url2": "http://www.kenrakukai.jp/ikeda/" }, "geometry": { "type": "Point", "coordinates": [ 136.343482499999936, 35.8784379 ] } },
{ "type": "Feature", "properties": { "内容": "小規模多機能型居宅介護事業所こうの【小規模多機能型居宅介護】福井県南条郡南越前町河野29-5-62", "url": "https://www.kaigokensaku.mhlw.go.jp/18/index.php?action_kouhyou_detail_004_kani=true&JigyosyoCd=1891900027-00&ServiceCd=730&Type=search", "url2": "http://kouno-f.com/" }, "geometry": { "type": "Point", "coordinates": [ 136.082585699999981, 35.8222183 ] } },
{ "type": "Feature", "properties": { "内容": "小規模多機能ホーム　まちや【小規模多機能型居宅介護】福井県南条郡南越前町今庄107-1-1", "url": "https://www.kaigokensaku.mhlw.go.jp/18/index.php?action_kouhyou_detail_004_kani=true&JigyosyoCd=1891900043-00&ServiceCd=730&Type=search", "url2": "machiyahome@machiya-f.com" }, "geometry": { "type": "Point", "coordinates": [ 136.2038219, 35.770774 ] } },
{ "type": "Feature", "properties": { "内容": "美浜町社会福祉協議会吉右ヱ門さん家サテライトでんでんむしの家【小規模多機能型居宅介護】福井県三方郡美浜町郷市27ー7", "url": "https://www.kaigokensaku.mhlw.go.jp/18/index.php?action_kouhyou_detail_004_kani=true&JigyosyoCd=1892100015-00&ServiceCd=730&Type=search", "url2": "http://www.mihamachoshakyo.com" }, "geometry": { "type": "Point", "coordinates": [ 135.937170899999956, 35.6022159 ] } },
{ "type": "Feature", "properties": { "内容": "美浜町社会福祉協議会　吉右ヱ門さん家【小規模多機能型居宅介護】福井県三方郡美浜町佐柿13-5", "url": "https://www.kaigokensaku.mhlw.go.jp/18/index.php?action_kouhyou_detail_004_kani=true&JigyosyoCd=1892100049-00&ServiceCd=730&Type=search", "url2": "http://www.mihamachoshakyo.com/" }, "geometry": { "type": "Point", "coordinates": [ 135.960655399999951, 35.6127729 ] } },
{ "type": "Feature", "properties": { "内容": "美浜町社会福祉協議会　弥右ヱ門さん家【小規模多機能型居宅介護】福井県三方郡美浜町山上６１号７番地", "url": "https://www.kaigokensaku.mhlw.go.jp/18/index.php?action_kouhyou_detail_004_kani=true&JigyosyoCd=1892100031-00&ServiceCd=730&Type=search", "url2": "http:/www.mihamachoshakyo.com/" }, "geometry": { "type": "Point", "coordinates": [ 135.973784600000045, 35.6168336 ] } },
{ "type": "Feature", "properties": { "内容": "小規模多機能サービス　和～なごみ～【小規模多機能型居宅介護】福井県大飯郡高浜町和田１１７号９１番地２", "url": "https://www.kaigokensaku.mhlw.go.jp/18/index.php?action_kouhyou_detail_004_kani=true&JigyosyoCd=1892300078-00&ServiceCd=730&Type=search", "url2": "http:///nagomi-takahama.com" }, "geometry": { "type": "Point", "coordinates": [ 135.576630075883799, 35.489315645090045 ] } },
{ "type": "Feature", "properties": { "内容": "おおい町社会福祉協議会小規模多機能ホームやすらぎ【小規模多機能型居宅介護】福井県大飯郡おおい町安川13-5-3", "url": "https://www.kaigokensaku.mhlw.go.jp/18/index.php?action_kouhyou_detail_004_kani=true&JigyosyoCd=1892300045-00&ServiceCd=730&Type=search", "url2": null }, "geometry": { "type": "Point", "coordinates": [ 135.550138100000026, 35.4466488 ] } },
{ "type": "Feature", "properties": { "内容": "おおい町社会福祉協議会　小規模多機能ホームやすらぎサテライト型事業所小規模多機能ホームかんよもん【小規模多機能型居宅介護】福井県大飯郡おおい町山田１６－３５", "url": "https://www.kaigokensaku.mhlw.go.jp/18/index.php?action_kouhyou_detail_004_kani=true&JigyosyoCd=1892300052-00&ServiceCd=730&Type=search", "url2": null }, "geometry": { "type": "Point", "coordinates": [ 135.6296668, 35.4625897 ] } },
{ "type": "Feature", "properties": { "内容": "おおい町社会福祉協議会　小規模多機能ホームびわの木【小規模多機能型居宅介護】福井県大飯郡おおい町大島第45号22番地", "url": "https://www.kaigokensaku.mhlw.go.jp/18/index.php?action_kouhyou_detail_004_kani=true&JigyosyoCd=1892300086-00&ServiceCd=730&Type=search", "url2": "http://ohi-shakyo.or.jp/" }, "geometry": { "type": "Point", "coordinates": [ 135.657158500000037, 35.5316369 ] } },
{ "type": "Feature", "properties": { "内容": "おおい町社会福祉協議会　小規模多機能ホームきぼう【小規模多機能型居宅介護】福井県大飯郡おおい町名田庄三重４０－４７", "url": "https://www.kaigokensaku.mhlw.go.jp/18/index.php?action_kouhyou_detail_004_kani=true&JigyosyoCd=1892300037-00&ServiceCd=730&Type=search", "url2": null }, "geometry": { "type": "Point", "coordinates": [ 135.684926052392598, 35.406358315473376 ] } },
{ "type": "Feature", "properties": { "内容": "おおい町社会福祉協議会小規模多機能ホームひだまり【小規模多機能型居宅介護】福井県大飯郡おおい町名田庄口坂本第13号5番地", "url": "https://www.kaigokensaku.mhlw.go.jp/18/index.php?action_kouhyou_detail_004_kani=true&JigyosyoCd=1892300029-00&ServiceCd=730&Type=search", "url2": "https://ohi-shakyo.or.jp/" }, "geometry": { "type": "Point", "coordinates": [ 135.6084611, 35.3988027 ] } },
{ "type": "Feature", "properties": { "内容": "小規模多機能ホーム　きやま虹の家【小規模多機能型居宅介護】福井県三方上中郡若狭町気山231-17", "url": "https://www.kaigokensaku.mhlw.go.jp/18/index.php?action_kouhyou_detail_004_kani=true&JigyosyoCd=1892400290-00&ServiceCd=730&Type=search", "url2": "http://www.w-shakyo.or.jp" }, "geometry": { "type": "Point", "coordinates": [ 135.908798, 35.5791409 ] } },
{ "type": "Feature", "properties": { "内容": "小規模多機能ホーム　みさき【小規模多機能型居宅介護】若狭町神子第１３号３の２", "url": "https://www.kaigokensaku.mhlw.go.jp/18/index.php?action_kouhyou_detail_004_kani=true&JigyosyoCd=1892400282-00&ServiceCd=730&Type=search", "url2": "http://www.w-shakyo.or.jp/welfare/misaki.html" }, "geometry": { "type": "Point", "coordinates": [ 135.838751300000013, 35.6217234 ] } }
]
}
