{
"type": "FeatureCollection",
"name": "geo_18_短期入所生活介護",
"crs": { "type": "name", "properties": { "name": "urn:ogc:def:crs:OGC:1.3:CRS84" } },
"features": [
{ "type": "Feature", "properties": { "内容": "ショートステイあたご【短期入所生活介護】足羽5丁目5番17号", "url": "https://www.kaigokensaku.mhlw.go.jp/18/index.php?action_kouhyou_detail_004_kani=true&JigyosyoCd=1870103460-00&ServiceCd=210&Type=search", "url2": null }, "geometry": { "type": "Point", "coordinates": [ 136.198449271827712, 36.057800490480965 ] } },
{ "type": "Feature", "properties": { "内容": "愛全園短期入所生活介護（ユニット型）【短期入所生活介護】福井県福井市丸山町４０－７", "url": "https://www.kaigokensaku.mhlw.go.jp/18/index.php?action_kouhyou_detail_004_kani=true&JigyosyoCd=1870102686-00&ServiceCd=210&Type=search", "url2": "http://www.asuwafukusikai.jp/aizenen/" }, "geometry": { "type": "Point", "coordinates": [ 136.2517083, 36.0775854 ] } },
{ "type": "Feature", "properties": { "内容": "ショートステイあすわ【短期入所生活介護】福井県福井市下馬3丁目511番地", "url": "https://www.kaigokensaku.mhlw.go.jp/18/index.php?action_kouhyou_detail_004_kani=true&JigyosyoCd=1810119352-00&ServiceCd=210&Type=search", "url2": "http://www.jyuzenkai.com/" }, "geometry": { "type": "Point", "coordinates": [ 136.232333899999958, 36.0376999 ] } },
{ "type": "Feature", "properties": { "内容": "ショートステイさくら【短期入所生活介護】福井市花堂東2丁目408", "url": "https://www.kaigokensaku.mhlw.go.jp/18/index.php?action_kouhyou_detail_004_kani=true&JigyosyoCd=1850180108-00&ServiceCd=210&Type=search", "url2": "http://sensuikai.jp" }, "geometry": { "type": "Point", "coordinates": [ 136.222817099999929, 36.041787 ] } },
{ "type": "Feature", "properties": { "内容": "ショートステイ　愛寿苑【短期入所生活介護】福井市若杉2丁目601", "url": "https://www.kaigokensaku.mhlw.go.jp/18/index.php?action_kouhyou_detail_004_kani=true&JigyosyoCd=1870100391-00&ServiceCd=210&Type=search", "url2": "http://www.aijuen.com/" }, "geometry": { "type": "Point", "coordinates": [ 136.190858100000014, 36.0552318 ] } },
{ "type": "Feature", "properties": { "内容": "短期入所生活介護　あさくら苑【短期入所生活介護】福井市下六条町18-32", "url": "https://www.kaigokensaku.mhlw.go.jp/18/index.php?action_kouhyou_detail_004_kani=true&JigyosyoCd=1870100409-00&ServiceCd=210&Type=search", "url2": "http://www.asakuraen.jp" }, "geometry": { "type": "Point", "coordinates": [ 136.229378099999963, 36.0351768 ] } },
{ "type": "Feature", "properties": { "内容": "山翠苑【短期入所生活介護】福井市堅達町２４－１", "url": "https://www.kaigokensaku.mhlw.go.jp/18/index.php?action_kouhyou_detail_004_kani=true&JigyosyoCd=1870100441-00&ServiceCd=210&Type=search", "url2": "http://www.sansuien.jp/" }, "geometry": { "type": "Point", "coordinates": [ 136.271151300000042, 36.0749736 ] } },
{ "type": "Feature", "properties": { "内容": "新田塚ハウス【短期入所生活介護】福井県福井市江上町55-5", "url": "https://www.kaigokensaku.mhlw.go.jp/18/index.php?action_kouhyou_detail_004_kani=true&JigyosyoCd=1870100466-00&ServiceCd=210&Type=search", "url2": "http://www.f-gh.jp/house/" }, "geometry": { "type": "Point", "coordinates": [ 136.164038932621793, 36.131068864114177 ] } },
{ "type": "Feature", "properties": { "内容": "特別養護老人ホーム　藤島園【短期入所生活介護】福井市高木中央３－１７０１", "url": "https://www.kaigokensaku.mhlw.go.jp/18/index.php?action_kouhyou_detail_004_kani=true&JigyosyoCd=1870100177-00&ServiceCd=210&Type=search", "url2": "http://www.fujishimaen.or.jp/" }, "geometry": { "type": "Point", "coordinates": [ 136.2396814, 36.0924394 ] } },
{ "type": "Feature", "properties": { "内容": "高雄苑【短期入所生活介護】福井県福井市本堂町５１字３３番地", "url": "https://www.kaigokensaku.mhlw.go.jp/18/index.php?action_kouhyou_detail_004_kani=true&JigyosyoCd=1870100185-00&ServiceCd=210&Type=search", "url2": "http://www.takaoen.jp/" }, "geometry": { "type": "Point", "coordinates": [ 136.126684399999931, 36.0564834 ] } },
{ "type": "Feature", "properties": { "内容": "あさむつ苑ショートステイ【短期入所生活介護】福井市引目町第21号9番地の2", "url": "https://www.kaigokensaku.mhlw.go.jp/18/index.php?action_kouhyou_detail_004_kani=true&JigyosyoCd=1870100227-00&ServiceCd=210&Type=search", "url2": "http://www.asamutuen.jp/" }, "geometry": { "type": "Point", "coordinates": [ 136.19742240000005, 36.022397 ] } },
{ "type": "Feature", "properties": { "内容": "悠和園【短期入所生活介護】福井県福井市免鳥町22-74", "url": "https://www.kaigokensaku.mhlw.go.jp/18/index.php?action_kouhyou_detail_004_kani=true&JigyosyoCd=1870100250-00&ServiceCd=210&Type=search", "url2": "http://www.yuwaen.jp" }, "geometry": { "type": "Point", "coordinates": [ 136.074891, 36.1309826 ] } },
{ "type": "Feature", "properties": { "内容": "宝珠苑短期入所生活介護事業所【短期入所生活介護】福井市内山梨子町2-3-1", "url": "https://www.kaigokensaku.mhlw.go.jp/18/index.php?action_kouhyou_detail_004_kani=true&JigyosyoCd=1870100037-00&ServiceCd=210&Type=search", "url2": "http://www.houjuen.org/" }, "geometry": { "type": "Point", "coordinates": [ 136.1573704, 36.1349009 ] } },
{ "type": "Feature", "properties": { "内容": "たんぽぽ苑【短期入所生活介護】福井市石盛３丁目３０１番地", "url": "https://www.kaigokensaku.mhlw.go.jp/18/index.php?action_kouhyou_detail_004_kani=true&JigyosyoCd=1870100045-00&ServiceCd=210&Type=search", "url2": "https://www.tanpopoen-senjukai.com" }, "geometry": { "type": "Point", "coordinates": [ 136.236716238597921, 36.118491884821566 ] } },
{ "type": "Feature", "properties": { "内容": "足羽利生苑【短期入所生活介護】福井県福井市栂野町20-7", "url": "https://www.kaigokensaku.mhlw.go.jp/18/index.php?action_kouhyou_detail_004_kani=true&JigyosyoCd=1870100052-00&ServiceCd=210&Type=search", "url2": "http://www.asuwafukushikai.jp/" }, "geometry": { "type": "Point", "coordinates": [ 136.258015099999966, 36.0388432 ] } },
{ "type": "Feature", "properties": { "内容": "愛全園ショートステイサービスセンター【短期入所生活介護】福井市丸山町40-7", "url": "https://www.kaigokensaku.mhlw.go.jp/18/index.php?action_kouhyou_detail_004_kani=true&JigyosyoCd=1870100060-00&ServiceCd=210&Type=search", "url2": "http://www.asuwafukushikai.jp" }, "geometry": { "type": "Point", "coordinates": [ 136.251463699999931, 36.0776558 ] } },
{ "type": "Feature", "properties": { "内容": "短期入所生活介護事業所　文珠苑【短期入所生活介護】福井県福井市北山町第35号5番地の１", "url": "https://www.kaigokensaku.mhlw.go.jp/18/index.php?action_kouhyou_detail_004_kani=true&JigyosyoCd=1870100169-00&ServiceCd=210&Type=search", "url2": "https://www.monjuen.com" }, "geometry": { "type": "Point", "coordinates": [ 136.250863100000061, 36.0016067 ] } },
{ "type": "Feature", "properties": { "内容": "指定介護老人福祉施設　美山貴寿苑【短期入所生活介護】福井市市波町３１－２", "url": "https://www.kaigokensaku.mhlw.go.jp/18/index.php?action_kouhyou_detail_004_kani=true&JigyosyoCd=1870101563-00&ServiceCd=210&Type=search", "url2": "https://miyamakijuen.jp/" }, "geometry": { "type": "Point", "coordinates": [ 136.330821, 36.0162412 ] } },
{ "type": "Feature", "properties": { "内容": "すみれ荘【短期入所生活介護】福井市島寺町８３－１", "url": "https://www.kaigokensaku.mhlw.go.jp/18/index.php?action_kouhyou_detail_004_kani=true&JigyosyoCd=1870101597-00&ServiceCd=210&Type=search", "url2": "http://www.s-shinseikai.jp" }, "geometry": { "type": "Point", "coordinates": [ 136.14238649999993, 36.0174078 ] } },
{ "type": "Feature", "properties": { "内容": "こしの渚苑【短期入所生活介護】福井県福井市蒲生町１－９０－１", "url": "https://www.kaigokensaku.mhlw.go.jp/18/index.php?action_kouhyou_detail_004_kani=true&JigyosyoCd=1870101639-00&ServiceCd=210&Type=search", "url2": "http://www.koshinonagisaen.com/" }, "geometry": { "type": "Point", "coordinates": [ 136.011194599999953, 36.0382524 ] } },
{ "type": "Feature", "properties": { "内容": "コスモス老人短期入所事業所【短期入所生活介護】福井県福井市帆谷町1字外山33", "url": "https://www.kaigokensaku.mhlw.go.jp/18/index.php?action_kouhyou_detail_004_kani=true&JigyosyoCd=1870101803-00&ServiceCd=210&Type=search", "url2": "http://www.ht-cosmos.or.jp/" }, "geometry": { "type": "Point", "coordinates": [ 136.233934, 36.005964 ] } },
{ "type": "Feature", "properties": { "内容": "六条ホームやわらぎ【短期入所生活介護】福井県福井市下六条町217-4", "url": "https://www.kaigokensaku.mhlw.go.jp/18/index.php?action_kouhyou_detail_004_kani=true&JigyosyoCd=1870104138-00&ServiceCd=210&Type=search", "url2": "https://rokujyokoseikai.jp/" }, "geometry": { "type": "Point", "coordinates": [ 136.2340106, 36.0365422 ] } },
{ "type": "Feature", "properties": { "内容": "福井板垣ケアセンターそよ風【短期入所生活介護】福井県福井市下馬3丁目102", "url": "https://www.kaigokensaku.mhlw.go.jp/18/index.php?action_kouhyou_detail_004_kani=true&JigyosyoCd=1870104021-00&ServiceCd=210&Type=search", "url2": "https://www.sykz.jp" }, "geometry": { "type": "Point", "coordinates": [ 136.2340767, 36.0422341 ] } },
{ "type": "Feature", "properties": { "内容": "かわにし苑【短期入所生活介護】福井市砂子坂町9-5", "url": "https://www.kaigokensaku.mhlw.go.jp/18/index.php?action_kouhyou_detail_004_kani=true&JigyosyoCd=1870101977-00&ServiceCd=210&Type=search", "url2": "http://kawanishien.com" }, "geometry": { "type": "Point", "coordinates": [ 136.147187199999962, 36.146219 ] } },
{ "type": "Feature", "properties": { "内容": "ほたるの杜【短期入所生活介護】羽坂町33-1ｰ１", "url": "https://www.kaigokensaku.mhlw.go.jp/18/index.php?action_kouhyou_detail_004_kani=true&JigyosyoCd=1870103833-00&ServiceCd=210&Type=search", "url2": "http://takaoen.jp" }, "geometry": { "type": "Point", "coordinates": [ 136.136608399999972, 36.0602637 ] } },
{ "type": "Feature", "properties": { "内容": "モアヤング　こもれびホーム【短期入所生活介護】福井県福井市和田中町東沖田30番地の1", "url": "https://www.kaigokensaku.mhlw.go.jp/18/index.php?action_kouhyou_detail_004_kani=true&JigyosyoCd=1870101811-00&ServiceCd=210&Type=search", "url2": "http://www.moreyoung.jp/" }, "geometry": { "type": "Point", "coordinates": [ 136.257291697401797, 36.050449075406085 ] } },
{ "type": "Feature", "properties": { "内容": "短期入所生活介護センター　なの花【短期入所生活介護】福井市加茂河原３丁目1－22", "url": "https://www.kaigokensaku.mhlw.go.jp/18/index.php?action_kouhyou_detail_004_kani=true&JigyosyoCd=1870102074-00&ServiceCd=210&Type=search", "url2": "http://www.nanohana-f.com/" }, "geometry": { "type": "Point", "coordinates": [ 136.193138399999953, 36.0633447 ] } },
{ "type": "Feature", "properties": { "内容": "六条ホームやわらぎ【短期入所生活介護】福井県福井市下六条町２１７番４", "url": "https://www.kaigokensaku.mhlw.go.jp/18/index.php?action_kouhyou_detail_004_kani=true&JigyosyoCd=1870102082-00&ServiceCd=210&Type=search", "url2": "https://rokujyokoseikai.jp/care/rokujyo-home/" }, "geometry": { "type": "Point", "coordinates": [ 136.23409730000003, 36.0366655 ] } },
{ "type": "Feature", "properties": { "内容": "第二ひかり苑泉の郷【短期入所生活介護】福井市今泉町25字15-1", "url": "https://www.kaigokensaku.mhlw.go.jp/18/index.php?action_kouhyou_detail_004_kani=true&JigyosyoCd=1870102231-00&ServiceCd=210&Type=search", "url2": "http://www.hikarigroup.jp" }, "geometry": { "type": "Point", "coordinates": [ 136.253447, 36.0680737 ] } },
{ "type": "Feature", "properties": { "内容": "東安居苑　短期入所【短期入所生活介護】福井市大瀬町２３－１０１", "url": "https://www.kaigokensaku.mhlw.go.jp/18/index.php?action_kouhyou_detail_004_kani=true&JigyosyoCd=1870102470-00&ServiceCd=210&Type=search", "url2": "http://www.kenrakukai.jp/higashiago/" }, "geometry": { "type": "Point", "coordinates": [ 136.185089299999959, 36.0696993 ] } },
{ "type": "Feature", "properties": { "内容": "松本ホームやわらぎ【短期入所生活介護】福井市松本1丁目2-19", "url": "https://www.kaigokensaku.mhlw.go.jp/18/index.php?action_kouhyou_detail_004_kani=true&JigyosyoCd=1870102488-00&ServiceCd=210&Type=search", "url2": "https://rokujyokoseikai.jp/care/matsumoto-home/" }, "geometry": { "type": "Point", "coordinates": [ 136.2325121, 36.0716221 ] } },
{ "type": "Feature", "properties": { "内容": "第２藤島園　そよかぜホーム【短期入所生活介護】福井県福井市河合勝見町４号２４－１", "url": "https://www.kaigokensaku.mhlw.go.jp/18/index.php?action_kouhyou_detail_004_kani=true&JigyosyoCd=1870103031-00&ServiceCd=210&Type=search", "url2": "http://www.fujishimaen.or.jp" }, "geometry": { "type": "Point", "coordinates": [ 136.199899400000049, 36.1126638 ] } },
{ "type": "Feature", "properties": { "内容": "ショートステイ　桜手苑【短期入所生活介護】福井県福井市大手2丁目22番18号", "url": "https://www.kaigokensaku.mhlw.go.jp/18/index.php?action_kouhyou_detail_004_kani=true&JigyosyoCd=1870103502-00&ServiceCd=210&Type=search", "url2": "http://ooteen.org" }, "geometry": { "type": "Point", "coordinates": [ 136.224184899999955, 36.0666833 ] } },
{ "type": "Feature", "properties": { "内容": "あるば・あい【短期入所生活介護】福井県福井市日之出3丁目　16-18", "url": "https://www.kaigokensaku.mhlw.go.jp/18/index.php?action_kouhyou_detail_004_kani=true&JigyosyoCd=1870103023-00&ServiceCd=210&Type=search", "url2": "http://www.maroon.dti.ne.jp/fukujukai/index.html" }, "geometry": { "type": "Point", "coordinates": [ 136.230021, 36.0617954 ] } },
{ "type": "Feature", "properties": { "内容": "ショートステイつぐみ【短期入所生活介護】福井県福井市渕1丁目2215番地", "url": "https://www.kaigokensaku.mhlw.go.jp/18/index.php?action_kouhyou_detail_004_kani=true&JigyosyoCd=1870103221-00&ServiceCd=210&Type=search", "url2": null }, "geometry": { "type": "Point", "coordinates": [ 136.193835422807979, 36.038774521951858 ] } },
{ "type": "Feature", "properties": { "内容": "ほっとリハビリショートステイ福井【短期入所生活介護】福井県福井市大和田2丁目2101ほっと地域包括ケアセンター福井北", "url": "https://www.kaigokensaku.mhlw.go.jp/18/index.php?action_kouhyou_detail_004_kani=true&JigyosyoCd=1870103379-00&ServiceCd=210&Type=search", "url2": "http://www.hotreha.com" }, "geometry": { "type": "Point", "coordinates": [ 136.253625590837828, 36.098858150462576 ] } },
{ "type": "Feature", "properties": { "内容": "花むつ苑　ショートステイ【短期入所生活介護】福井市花堂中1丁目5－6", "url": "https://www.kaigokensaku.mhlw.go.jp/18/index.php?action_kouhyou_detail_004_kani=true&JigyosyoCd=1870102256-00&ServiceCd=210&Type=search", "url2": "http://www.asamutuen.jp/" }, "geometry": { "type": "Point", "coordinates": [ 136.215312199999971, 36.0391566 ] } },
{ "type": "Feature", "properties": { "内容": "いちごショートステイ【短期入所生活介護】福井市西方1丁目2-11いちご在宅支援センター3階", "url": "https://www.kaigokensaku.mhlw.go.jp/18/index.php?action_kouhyou_detail_004_kani=true&JigyosyoCd=1810119840-00&ServiceCd=210&Type=search", "url2": "http://www.kenkoukai.or.jp" }, "geometry": { "type": "Point", "coordinates": [ 136.234537899999964, 36.0537522 ] } },
{ "type": "Feature", "properties": { "内容": "ヴィルヌーブあさくらショートステイ【短期入所生活介護】豊島1丁目2番13号", "url": "https://www.kaigokensaku.mhlw.go.jp/18/index.php?action_kouhyou_detail_004_kani=true&JigyosyoCd=1870102868-00&ServiceCd=210&Type=search", "url2": "http://www.asakuraen.jp/" }, "geometry": { "type": "Point", "coordinates": [ 136.2208301, 36.058065 ] } },
{ "type": "Feature", "properties": { "内容": "ショートステイ　眞盛苑【短期入所生活介護】福井県敦賀市莇生野90号3番", "url": "https://www.kaigokensaku.mhlw.go.jp/18/index.php?action_kouhyou_detail_004_kani=true&JigyosyoCd=1870200043-00&ServiceCd=210&Type=search", "url2": "http://www.jishoukai.jp" }, "geometry": { "type": "Point", "coordinates": [ 136.043886899999961, 35.6274017 ] } },
{ "type": "Feature", "properties": { "内容": "ほっとリハビリショートステイ敦賀【短期入所生活介護】敦賀市沓見141-2-1ほっとライフサポートセンター敦賀", "url": "https://www.kaigokensaku.mhlw.go.jp/18/index.php?action_kouhyou_detail_004_kani=true&JigyosyoCd=1870200308-00&ServiceCd=210&Type=search", "url2": "http://hotreha.com" }, "geometry": { "type": "Point", "coordinates": [ 136.032168700000057, 35.6441276 ] } },
{ "type": "Feature", "properties": { "内容": "ショートステイ眞盛苑【短期入所生活介護】敦賀市荕生野９０号３番", "url": "https://www.kaigokensaku.mhlw.go.jp/18/index.php?action_kouhyou_detail_004_kani=true&JigyosyoCd=1870200431-00&ServiceCd=210&Type=search", "url2": "http://www.jishoukai.jp" }, "geometry": { "type": "Point", "coordinates": [ 136.043886899999961, 35.6274017 ] } },
{ "type": "Feature", "properties": { "内容": "第3渓山荘あおぞらショートステイ【短期入所生活介護】福井県敦賀市松島町2-6-35", "url": "https://www.kaigokensaku.mhlw.go.jp/18/index.php?action_kouhyou_detail_004_kani=true&JigyosyoCd=1870200589-00&ServiceCd=210&Type=search", "url2": "https://kjinkai.jp/" }, "geometry": { "type": "Point", "coordinates": [ 136.059287400000017, 35.6518883 ] } },
{ "type": "Feature", "properties": { "内容": "第2渓山荘ぽっぽショートステイ【短期入所生活介護】福井県敦賀市鉄輪町1丁目2－57", "url": "https://www.kaigokensaku.mhlw.go.jp/18/index.php?action_kouhyou_detail_004_kani=true&JigyosyoCd=1870200316-00&ServiceCd=210&Type=search", "url2": "https://www.kjinkai.jp" }, "geometry": { "type": "Point", "coordinates": [ 136.073916938623029, 35.642978396292683 ] } },
{ "type": "Feature", "properties": { "内容": "渓山荘ショートステイ【短期入所生活介護】福井県敦賀市中８１－１－５", "url": "https://www.kaigokensaku.mhlw.go.jp/18/index.php?action_kouhyou_detail_004_kani=true&JigyosyoCd=1870200019-00&ServiceCd=210&Type=search", "url2": "http://www.kjinkai.jp" }, "geometry": { "type": "Point", "coordinates": [ 136.087853799999948, 35.6389014 ] } },
{ "type": "Feature", "properties": { "内容": "地域密着型介護老人福祉施設　若狭東ハイツ【短期入所生活介護】福井県小浜市遠敷４８号１０番１", "url": "https://www.kaigokensaku.mhlw.go.jp/18/index.php?action_kouhyou_detail_004_kani=true&JigyosyoCd=1870400346-00&ServiceCd=210&Type=search", "url2": "http://www.wakasa-fukushikai.com" }, "geometry": { "type": "Point", "coordinates": [ 135.780269399999952, 35.4863922 ] } },
{ "type": "Feature", "properties": { "内容": "若狭ハイツ　ショートステイ【短期入所生活介護】小浜市阿納尻第５９号９番地の１", "url": "https://www.kaigokensaku.mhlw.go.jp/18/index.php?action_kouhyou_detail_004_kani=true&JigyosyoCd=1870400049-00&ServiceCd=210&Type=search", "url2": "http://wakasa-fukushikai.com" }, "geometry": { "type": "Point", "coordinates": [ 135.762864900000068, 35.5295762 ] } },
{ "type": "Feature", "properties": { "内容": "もみじの里【短期入所生活介護】福井県小浜市東勢11号3番", "url": "https://www.kaigokensaku.mhlw.go.jp/18/index.php?action_kouhyou_detail_004_kani=true&JigyosyoCd=1870400155-00&ServiceCd=210&Type=search", "url2": "http://www.momijist.jp/" }, "geometry": { "type": "Point", "coordinates": [ 135.720410099999981, 35.482683 ] } },
{ "type": "Feature", "properties": { "内容": "特別養護老人ホームひまわり荘【短期入所生活介護】福井県小浜市加茂2-52", "url": "https://www.kaigokensaku.mhlw.go.jp/18/index.php?action_kouhyou_detail_004_kani=true&JigyosyoCd=1870400122-00&ServiceCd=210&Type=search", "url2": "http://www.sekishin-himawari.or.jp/" }, "geometry": { "type": "Point", "coordinates": [ 135.8215993, 35.4924896 ] } },
{ "type": "Feature", "properties": { "内容": "森目ホーム　ぶる～夢【短期入所生活介護】森目6-16-3", "url": "https://www.kaigokensaku.mhlw.go.jp/18/index.php?action_kouhyou_detail_004_kani=true&JigyosyoCd=1870500483-00&ServiceCd=210&Type=search", "url2": "http://www14.plala.or.jp/yawaragi/kaigo/index.html" }, "geometry": { "type": "Point", "coordinates": [ 136.5260012, 36.0098946 ] } },
{ "type": "Feature", "properties": { "内容": "わらびの郷【短期入所生活介護】福井県大野市蕨生158-35", "url": "https://www.kaigokensaku.mhlw.go.jp/18/index.php?action_kouhyou_detail_004_kani=true&JigyosyoCd=1870500020-00&ServiceCd=210&Type=search", "url2": "http://www.saiseikai-seiwaen.jp/" }, "geometry": { "type": "Point", "coordinates": [ 136.546960200000058, 35.9819682 ] } },
{ "type": "Feature", "properties": { "内容": "大野和光園ショートステイ事業所【短期入所生活介護】福井県大野市篠座７９号１１番地", "url": "https://www.kaigokensaku.mhlw.go.jp/18/index.php?action_kouhyou_detail_004_kani=true&JigyosyoCd=1870500038-00&ServiceCd=210&Type=search", "url2": "http://www.ono-wakouen.jp/" }, "geometry": { "type": "Point", "coordinates": [ 136.500851099999977, 35.9647917 ] } },
{ "type": "Feature", "properties": { "内容": "大野和光園　ショートステイ事業所【短期入所生活介護】福井県大野市篠座７９号１１番地", "url": "https://www.kaigokensaku.mhlw.go.jp/18/index.php?action_kouhyou_detail_004_kani=true&JigyosyoCd=1870500376-00&ServiceCd=210&Type=search", "url2": "http://www.ono-wakouen.jp/" }, "geometry": { "type": "Point", "coordinates": [ 136.500693069311524, 35.965260931789864 ] } },
{ "type": "Feature", "properties": { "内容": "短期入所生活介護　ルンビニー花園【短期入所生活介護】大野市牛ヶ原１５４-１-１", "url": "https://www.kaigokensaku.mhlw.go.jp/18/index.php?action_kouhyou_detail_004_kani=true&JigyosyoCd=1870500012-00&ServiceCd=210&Type=search", "url2": "http://fuku-koumyouji.jp/" }, "geometry": { "type": "Point", "coordinates": [ 136.465946499999973, 35.9937401 ] } },
{ "type": "Feature", "properties": { "内容": "大野和光園　和らぎの里　ショートステイ事業所【短期入所生活介護】福井県大野市春日3丁目1718番地", "url": "https://www.kaigokensaku.mhlw.go.jp/18/index.php?action_kouhyou_detail_004_kani=true&JigyosyoCd=1870500327-00&ServiceCd=210&Type=search", "url2": "http://www.ono-wakouen.jp/" }, "geometry": { "type": "Point", "coordinates": [ 136.497523699999988, 35.9734904 ] } },
{ "type": "Feature", "properties": { "内容": "介護老人福祉施設ビハーラ大野　短期入所生活介護（空床利用型）【短期入所生活介護】福井県大野市牛ヶ原１５４－１－１", "url": "https://www.kaigokensaku.mhlw.go.jp/18/index.php?action_kouhyou_detail_004_kani=true&JigyosyoCd=1870500467-00&ServiceCd=210&Type=search", "url2": "http://www.fuku*koumyouki.jp" }, "geometry": { "type": "Point", "coordinates": [ 136.465924200000018, 35.9938373 ] } },
{ "type": "Feature", "properties": { "内容": "大野和光園　和らぎの里　ショートステイ事業所【短期入所生活介護】福井県大野市春日3丁目1718番地", "url": "https://www.kaigokensaku.mhlw.go.jp/18/index.php?action_kouhyou_detail_004_kani=true&JigyosyoCd=1870500509-00&ServiceCd=210&Type=search", "url2": "http://www.ono-wakouen.jp/" }, "geometry": { "type": "Point", "coordinates": [ 136.498051240051211, 35.9734904 ] } },
{ "type": "Feature", "properties": { "内容": "森目ホーム　やわらぎ【短期入所生活介護】森目6-16-3", "url": "https://www.kaigokensaku.mhlw.go.jp/18/index.php?action_kouhyou_detail_004_kani=true&JigyosyoCd=1870500491-00&ServiceCd=210&Type=search", "url2": "http://rokujyokoseikai.jp" }, "geometry": { "type": "Point", "coordinates": [ 136.5260012, 36.0098946 ] } },
{ "type": "Feature", "properties": { "内容": "まこと苑ショートステイ事業所【短期入所生活介護】福井県大野市中荒井町２丁目８０６番地", "url": "https://www.kaigokensaku.mhlw.go.jp/18/index.php?action_kouhyou_detail_004_kani=true&JigyosyoCd=1870500533-00&ServiceCd=210&Type=search", "url2": null }, "geometry": { "type": "Point", "coordinates": [ 136.4941095, 35.9878047 ] } },
{ "type": "Feature", "properties": { "内容": "まこと苑ショートステイ事業所（ユニット型）【短期入所生活介護】福井県大野市中荒井町2丁目806番地", "url": "https://www.kaigokensaku.mhlw.go.jp/18/index.php?action_kouhyou_detail_004_kani=true&JigyosyoCd=1870500541-00&ServiceCd=210&Type=search", "url2": "https://makotoen.com" }, "geometry": { "type": "Point", "coordinates": [ 136.4941095, 35.9878047 ] } },
{ "type": "Feature", "properties": { "内容": "特別養護老人ホーム　さくら荘【短期入所生活介護】福井県勝山市北谷町中尾13-16", "url": "https://www.kaigokensaku.mhlw.go.jp/18/index.php?action_kouhyou_detail_004_kani=true&JigyosyoCd=1870600028-00&ServiceCd=210&Type=search", "url2": null }, "geometry": { "type": "Point", "coordinates": [ 136.543431300000066, 36.0991102 ] } },
{ "type": "Feature", "properties": { "内容": "さつき苑【短期入所生活介護】福井県勝山市片瀬第１５号２２番地", "url": "https://www.kaigokensaku.mhlw.go.jp/18/index.php?action_kouhyou_detail_004_kani=true&JigyosyoCd=1870600010-00&ServiceCd=210&Type=search", "url2": "http://www.satsuki.or.jp/" }, "geometry": { "type": "Point", "coordinates": [ 136.521571399999971, 36.0487165 ] } },
{ "type": "Feature", "properties": { "内容": "シルバーケア九頭竜【短期入所生活介護】福井県勝山市平泉寺町岩ヶ野第42号61番地", "url": "https://www.kaigokensaku.mhlw.go.jp/18/index.php?action_kouhyou_detail_004_kani=true&JigyosyoCd=1870600200-00&ServiceCd=210&Type=search", "url2": "https://kuzuryuworkshop.com/" }, "geometry": { "type": "Point", "coordinates": [ 136.546740900000032, 36.0133012 ] } },
{ "type": "Feature", "properties": { "内容": "ほっとリハビリショートステイ鯖江【短期入所生活介護】福井県鯖江市鳥羽町107-70", "url": "https://www.kaigokensaku.mhlw.go.jp/18/index.php?action_kouhyou_detail_004_kani=true&JigyosyoCd=1870700737-00&ServiceCd=210&Type=search", "url2": "http://hotreha.com" }, "geometry": { "type": "Point", "coordinates": [ 136.199129631213367, 35.985928039027094 ] } },
{ "type": "Feature", "properties": { "内容": "つつじの家【短期入所生活介護】福井県鯖江市水落町3丁目6-32", "url": "https://www.kaigokensaku.mhlw.go.jp/18/index.php?action_kouhyou_detail_004_kani=true&JigyosyoCd=1870700588-00&ServiceCd=210&Type=search", "url2": "http://www.tutujien.or.jp" }, "geometry": { "type": "Point", "coordinates": [ 136.1817714, 35.967046 ] } },
{ "type": "Feature", "properties": { "内容": "うぐいすの里【短期入所生活介護】福井県鯖江市漆原町20－8", "url": "https://www.kaigokensaku.mhlw.go.jp/18/index.php?action_kouhyou_detail_004_kani=true&JigyosyoCd=1870700034-00&ServiceCd=210&Type=search", "url2": "https://www.gogakuen.com/" }, "geometry": { "type": "Point", "coordinates": [ 136.145520199999964, 35.9385881 ] } },
{ "type": "Feature", "properties": { "内容": "ことぶき荘【短期入所生活介護】福井県鯖江市大野町3-1", "url": "https://www.kaigokensaku.mhlw.go.jp/18/index.php?action_kouhyou_detail_004_kani=true&JigyosyoCd=1870700463-00&ServiceCd=210&Type=search", "url2": "http://www.touyoukai.or.jp" }, "geometry": { "type": "Point", "coordinates": [ 136.2283956, 35.9780763 ] } },
{ "type": "Feature", "properties": { "内容": "エレガントセニールガーデン【短期入所生活介護】福井県鯖江市吉江町31-7-1", "url": "https://www.kaigokensaku.mhlw.go.jp/18/index.php?action_kouhyou_detail_004_kani=true&JigyosyoCd=1870700166-00&ServiceCd=210&Type=search", "url2": null }, "geometry": { "type": "Point", "coordinates": [ 136.168302, 35.986754 ] } },
{ "type": "Feature", "properties": { "内容": "ことぶき荘【短期入所生活介護】福井県鯖江市大野町3-1", "url": "https://www.kaigokensaku.mhlw.go.jp/18/index.php?action_kouhyou_detail_004_kani=true&JigyosyoCd=1870700067-00&ServiceCd=210&Type=search", "url2": "http://www.touyoukai.or.jp" }, "geometry": { "type": "Point", "coordinates": [ 136.2283956, 35.9780763 ] } },
{ "type": "Feature", "properties": { "内容": "芦原メロン苑（ユニット型）【短期入所生活介護】福井県あわら市井江葭50-18", "url": "https://www.kaigokensaku.mhlw.go.jp/18/index.php?action_kouhyou_detail_004_kani=true&JigyosyoCd=1870800248-00&ServiceCd=210&Type=search", "url2": "http://www.meron-en.or.jp" }, "geometry": { "type": "Point", "coordinates": [ 136.218481, 36.2403604 ] } },
{ "type": "Feature", "properties": { "内容": "コンフォガーデン木村【短期入所生活介護】福井県あわら市市姫3丁目24-8", "url": "https://www.kaigokensaku.mhlw.go.jp/18/index.php?action_kouhyou_detail_004_kani=true&JigyosyoCd=1870800289-00&ServiceCd=210&Type=search", "url2": "http://www.confo-g-kimura.jp/" }, "geometry": { "type": "Point", "coordinates": [ 136.22965320000003, 36.2091171 ] } },
{ "type": "Feature", "properties": { "内容": "あわら市金津雲雀ヶ丘寮短期入所生活介護事業所【短期入所生活介護】福井県あわら市春宮3丁目28－21", "url": "https://www.kaigokensaku.mhlw.go.jp/18/index.php?action_kouhyou_detail_004_kani=true&JigyosyoCd=1870800198-00&ServiceCd=210&Type=search", "url2": "http://awara-shakyo.or.jp/" }, "geometry": { "type": "Point", "coordinates": [ 136.227530800000068, 36.2199603 ] } },
{ "type": "Feature", "properties": { "内容": "ウエルネス木村【短期入所生活介護】福井県あわら市自由ケ丘２－１５－２３", "url": "https://www.kaigokensaku.mhlw.go.jp/18/index.php?action_kouhyou_detail_004_kani=true&JigyosyoCd=1870800123-00&ServiceCd=210&Type=search", "url2": "http://www.s-fukushi.or.jp/wellness/" }, "geometry": { "type": "Point", "coordinates": [ 136.235882800000013, 36.2182995 ] } },
{ "type": "Feature", "properties": { "内容": "ショートスティみんなの家【短期入所生活介護】福井県あわら市大溝3丁目4番32号みんなの家　大溝", "url": "https://www.kaigokensaku.mhlw.go.jp/18/index.php?action_kouhyou_detail_004_kani=true&JigyosyoCd=1870800271-00&ServiceCd=210&Type=search", "url2": null }, "geometry": { "type": "Point", "coordinates": [ 136.22182620000001, 36.2086671 ] } },
{ "type": "Feature", "properties": { "内容": "芦原メロン苑ショートステイ【短期入所生活介護】福井県あわら市井江葭50-18", "url": "https://www.kaigokensaku.mhlw.go.jp/18/index.php?action_kouhyou_detail_004_kani=true&JigyosyoCd=1870800016-00&ServiceCd=210&Type=search", "url2": "http://www.meron-en.or.jp" }, "geometry": { "type": "Point", "coordinates": [ 136.218481, 36.2403604 ] } },
{ "type": "Feature", "properties": { "内容": "湯の町メロン苑ショートステイ【短期入所生活介護】福井県あわら市二面４２－２０", "url": "https://www.kaigokensaku.mhlw.go.jp/18/index.php?action_kouhyou_detail_004_kani=true&JigyosyoCd=1870800164-00&ServiceCd=210&Type=search", "url2": "http://www.meron-en.or.jp/" }, "geometry": { "type": "Point", "coordinates": [ 136.194944699999951, 36.2268474 ] } },
{ "type": "Feature", "properties": { "内容": "ケアフルハウスショートステイ【短期入所生活介護】越前市広瀬町153-12-2", "url": "https://www.kaigokensaku.mhlw.go.jp/18/index.php?action_kouhyou_detail_004_kani=true&JigyosyoCd=1870300678-00&ServiceCd=210&Type=search", "url2": "http://carefull.co.jp" }, "geometry": { "type": "Point", "coordinates": [ 136.146704900000032, 35.8895608 ] } },
{ "type": "Feature", "properties": { "内容": "第２和上苑【短期入所生活介護】福井県越前市白崎町第34号2番地１", "url": "https://www.kaigokensaku.mhlw.go.jp/18/index.php?action_kouhyou_detail_004_kani=true&JigyosyoCd=1870300124-00&ServiceCd=210&Type=search", "url2": "http://www.wakatake.ne.jp" }, "geometry": { "type": "Point", "coordinates": [ 136.145103, 35.8644917 ] } },
{ "type": "Feature", "properties": { "内容": "短期入所生活介護センター　メゾンいまだて【短期入所生活介護】福井県越前市東樫尾町８番３８号", "url": "https://www.kaigokensaku.mhlw.go.jp/18/index.php?action_kouhyou_detail_004_kani=true&JigyosyoCd=1870300439-00&ServiceCd=210&Type=search", "url2": "http://www.mezon-f.com/" }, "geometry": { "type": "Point", "coordinates": [ 136.282945199999972, 35.9382156 ] } },
{ "type": "Feature", "properties": { "内容": "ほっとリハビリショートステイ【短期入所生活介護】福井県越前市高木町55-11-18ほっとライフサポートセンター", "url": "https://www.kaigokensaku.mhlw.go.jp/18/index.php?action_kouhyou_detail_004_kani=true&JigyosyoCd=1870300603-00&ServiceCd=210&Type=search", "url2": "http://hotreha.com/" }, "geometry": { "type": "Point", "coordinates": [ 136.192093900000032, 35.9190196 ] } },
{ "type": "Feature", "properties": { "内容": "水仙園短期入所生活介護事業所【短期入所生活介護】越前市萱谷町４－９－１", "url": "https://www.kaigokensaku.mhlw.go.jp/18/index.php?action_kouhyou_detail_004_kani=true&JigyosyoCd=1870300017-00&ServiceCd=210&Type=search", "url2": "http://www.suisenen.jp" }, "geometry": { "type": "Point", "coordinates": [ 136.23272, 35.8787034 ] } },
{ "type": "Feature", "properties": { "内容": "第３和上苑【短期入所生活介護】福井県越前市高木町12-7-1", "url": "https://www.kaigokensaku.mhlw.go.jp/18/index.php?action_kouhyou_detail_004_kani=true&JigyosyoCd=1870300728-00&ServiceCd=210&Type=search", "url2": "http://www.wakatake.ne.jp/" }, "geometry": { "type": "Point", "coordinates": [ 136.190493899999979, 35.9282074 ] } },
{ "type": "Feature", "properties": { "内容": "ショートステイいちばん星【短期入所生活介護】瓜生町31－1", "url": "https://www.kaigokensaku.mhlw.go.jp/18/index.php?action_kouhyou_detail_004_kani=true&JigyosyoCd=1870300819-00&ServiceCd=210&Type=search", "url2": "http://www.ichibankaigo.jp" }, "geometry": { "type": "Point", "coordinates": [ 136.177467400000069, 35.9261461 ] } },
{ "type": "Feature", "properties": { "内容": "介護老人福祉施設　豊楽園　　　　短期入所生活介護【短期入所生活介護】福井県坂井市坂井町下関42-2", "url": "https://www.kaigokensaku.mhlw.go.jp/18/index.php?action_kouhyou_detail_004_kani=true&JigyosyoCd=1871700090-00&ServiceCd=210&Type=search", "url2": "https://s-fukushi.or.jp/hourakuen/" }, "geometry": { "type": "Point", "coordinates": [ 136.228004332402094, 36.190815263968076 ] } },
{ "type": "Feature", "properties": { "内容": "ガーデンハイツ春江【短期入所生活介護】福井県坂井市春江町針原４８－２８－１", "url": "https://www.kaigokensaku.mhlw.go.jp/18/index.php?action_kouhyou_detail_004_kani=true&JigyosyoCd=1871700108-00&ServiceCd=210&Type=search", "url2": "http://fj-g.jp/" }, "geometry": { "type": "Point", "coordinates": [ 136.207384100000013, 36.1286039 ] } },
{ "type": "Feature", "properties": { "内容": "長寿の郷【短期入所生活介護】福井県坂井市丸岡町八々郷２２－５", "url": "https://www.kaigokensaku.mhlw.go.jp/18/index.php?action_kouhyou_detail_004_kani=true&JigyosyoCd=1871700728-00&ServiceCd=210&Type=search", "url2": "http://www.choujuen.net" }, "geometry": { "type": "Point", "coordinates": [ 136.278392100000019, 36.1606468 ] } },
{ "type": "Feature", "properties": { "内容": "短期入所生活介護　潟池野【短期入所生活介護】坂井町下関42-4-2", "url": "https://www.kaigokensaku.mhlw.go.jp/18/index.php?action_kouhyou_detail_004_kani=true&JigyosyoCd=1871700850-00&ServiceCd=210&Type=search", "url2": "https://s-fukushi.or.jp/kataikeno/" }, "geometry": { "type": "Point", "coordinates": [ 136.228387200000043, 36.1908443 ] } },
{ "type": "Feature", "properties": { "内容": "特別養護老人ホーム　ガーデンハイツ春江【短期入所生活介護】福井県坂井市春江町針原48-28-1", "url": "https://www.kaigokensaku.mhlw.go.jp/18/index.php?action_kouhyou_detail_004_kani=true&JigyosyoCd=1871700934-00&ServiceCd=210&Type=search", "url2": "http://fj-g.jp/" }, "geometry": { "type": "Point", "coordinates": [ 136.207384100000013, 36.1286039 ] } },
{ "type": "Feature", "properties": { "内容": "白楽荘みくに湊短期入所生活介護事業所【短期入所生活介護】福井県坂井市三国町梶49-18", "url": "https://www.kaigokensaku.mhlw.go.jp/18/index.php?action_kouhyou_detail_004_kani=true&JigyosyoCd=1871700926-00&ServiceCd=210&Type=search", "url2": "http://www.hakurakuso.com/" }, "geometry": { "type": "Point", "coordinates": [ 136.155457800000022, 36.2459286 ] } },
{ "type": "Feature", "properties": { "内容": "短期入所生活介護　長寿園【短期入所生活介護】福井県坂井市丸岡町八ケ郷２２－４", "url": "https://www.kaigokensaku.mhlw.go.jp/18/index.php?action_kouhyou_detail_004_kani=true&JigyosyoCd=1871700967-00&ServiceCd=210&Type=search", "url2": "http://www.choujuen.net/" }, "geometry": { "type": "Point", "coordinates": [ 136.2786754, 36.1606079 ] } },
{ "type": "Feature", "properties": { "内容": "ショートステイ生喜庵【短期入所生活介護】福井県坂井市丸岡町長畝16字八ツ割3番1", "url": "https://www.kaigokensaku.mhlw.go.jp/18/index.php?action_kouhyou_detail_004_kani=true&JigyosyoCd=1871701049-00&ServiceCd=210&Type=search", "url2": "http://seikikai-sakai.jp/" }, "geometry": { "type": "Point", "coordinates": [ 136.274741926855427, 36.169596347603601 ] } },
{ "type": "Feature", "properties": { "内容": "白楽荘短期入所生活介護事業所【短期入所生活介護】福井県坂井市三国町梶49-18", "url": "https://www.kaigokensaku.mhlw.go.jp/18/index.php?action_kouhyou_detail_004_kani=true&JigyosyoCd=1871700132-00&ServiceCd=210&Type=search", "url2": "http://www.hakurakuso.com" }, "geometry": { "type": "Point", "coordinates": [ 136.155457800000022, 36.2459286 ] } },
{ "type": "Feature", "properties": { "内容": "プライムハイツ春江【短期入所生活介護】福井県坂井市春江町針原59-2", "url": "https://www.kaigokensaku.mhlw.go.jp/18/index.php?action_kouhyou_detail_004_kani=true&JigyosyoCd=1871700736-00&ServiceCd=210&Type=search", "url2": "http://fj-g.jp" }, "geometry": { "type": "Point", "coordinates": [ 136.208811700000069, 36.1276929 ] } },
{ "type": "Feature", "properties": { "内容": "ショートステイ　やすらぎ　はるえ【短期入所生活介護】福井県坂井市春江町本堂27－1－1", "url": "https://www.kaigokensaku.mhlw.go.jp/18/index.php?action_kouhyou_detail_004_kani=true&JigyosyoCd=1871700777-00&ServiceCd=210&Type=search", "url2": null }, "geometry": { "type": "Point", "coordinates": [ 136.203898, 36.1387777 ] } },
{ "type": "Feature", "properties": { "内容": "短期入所生活介護　かがやき荘【短期入所生活介護】福井県坂井市三国町陣ケ岡13-3", "url": "https://www.kaigokensaku.mhlw.go.jp/18/index.php?action_kouhyou_detail_004_kani=true&JigyosyoCd=1871700983-00&ServiceCd=210&Type=search", "url2": "http://www.s-shinseikai.jp" }, "geometry": { "type": "Point", "coordinates": [ 136.1365389, 36.2355401 ] } },
{ "type": "Feature", "properties": { "内容": "短期入所生活介護施設　はるさか【短期入所生活介護】福井県坂井市春江町中筋第１００号７５番地", "url": "https://www.kaigokensaku.mhlw.go.jp/18/index.php?action_kouhyou_detail_004_kani=true&JigyosyoCd=1871700827-00&ServiceCd=210&Type=search", "url2": null }, "geometry": { "type": "Point", "coordinates": [ 136.23622279999995, 36.1273855 ] } },
{ "type": "Feature", "properties": { "内容": "ひかり苑【短期入所生活介護】福井県吉田郡永平寺町山王7-30", "url": "https://www.kaigokensaku.mhlw.go.jp/18/index.php?action_kouhyou_detail_004_kani=true&JigyosyoCd=1871600035-00&ServiceCd=210&Type=search", "url2": "http://www.hikarigroup.jp/hikarien/" }, "geometry": { "type": "Point", "coordinates": [ 136.3959853, 36.0800933 ] } },
{ "type": "Feature", "properties": { "内容": "ひかり苑【短期入所生活介護】福井県吉田郡永平寺町山王7-30", "url": "https://www.kaigokensaku.mhlw.go.jp/18/index.php?action_kouhyou_detail_004_kani=true&JigyosyoCd=1871600282-00&ServiceCd=210&Type=search", "url2": "http;//www.hikarigroup.jp/hikarien/" }, "geometry": { "type": "Point", "coordinates": [ 136.3958725, 36.0797876 ] } },
{ "type": "Feature", "properties": { "内容": "永平寺ハウス【短期入所生活介護】吉田郡永平寺町けやき台813-1永平寺ハウス", "url": "https://www.kaigokensaku.mhlw.go.jp/18/index.php?action_kouhyou_detail_004_kani=true&JigyosyoCd=1871600050-00&ServiceCd=210&Type=search", "url2": null }, "geometry": { "type": "Point", "coordinates": [ 136.317498600000022, 36.0768645 ] } },
{ "type": "Feature", "properties": { "内容": "アニス松岡【短期入所生活介護】福井県永平寺町松岡椚第３１号７番地１", "url": "https://www.kaigokensaku.mhlw.go.jp/18/index.php?action_kouhyou_detail_004_kani=true&JigyosyoCd=1871600142-00&ServiceCd=210&Type=search", "url2": "http://www.taiyo-kai.jp/" }, "geometry": { "type": "Point", "coordinates": [ 136.297378799999933, 36.0951699 ] } },
{ "type": "Feature", "properties": { "内容": "池田町幸寿苑【短期入所生活介護】福井県今立郡池田町常安２０－５", "url": "https://www.kaigokensaku.mhlw.go.jp/18/index.php?action_kouhyou_detail_004_kani=true&JigyosyoCd=1871800072-00&ServiceCd=210&Type=search", "url2": "http://www.kenrakukai.jp/" }, "geometry": { "type": "Point", "coordinates": [ 136.343993599999976, 35.8776908 ] } },
{ "type": "Feature", "properties": { "内容": "ほのぼの苑短期入所生活介護事業所【短期入所生活介護】福井県南条郡南越前町鋳物師5-10-1", "url": "https://www.kaigokensaku.mhlw.go.jp/18/index.php?action_kouhyou_detail_004_kani=true&JigyosyoCd=1871900096-00&ServiceCd=210&Type=search", "url2": "http://www.honobono-en.com/" }, "geometry": { "type": "Point", "coordinates": [ 136.197598200000016, 35.8416771 ] } },
{ "type": "Feature", "properties": { "内容": "ユニット型指定介護老人福祉施設　第三光が丘ハウス【短期入所生活介護】福井県丹生郡越前町朝日22字７-１", "url": "https://www.kaigokensaku.mhlw.go.jp/18/index.php?action_kouhyou_detail_004_kani=true&JigyosyoCd=1872000011-00&ServiceCd=210&Type=search", "url2": "http://www.kodoen.or.jp" }, "geometry": { "type": "Point", "coordinates": [ 136.119688, 35.9709529 ] } },
{ "type": "Feature", "properties": { "内容": "特別養護老人ホーム　やすらぎ荘【短期入所生活介護】福井県丹生郡越前町織田102-81", "url": "https://www.kaigokensaku.mhlw.go.jp/18/index.php?action_kouhyou_detail_004_kani=true&JigyosyoCd=1872000029-00&ServiceCd=210&Type=search", "url2": "http://ota-yasuragikai.com" }, "geometry": { "type": "Point", "coordinates": [ 136.051444121365449, 35.958382580911255 ] } },
{ "type": "Feature", "properties": { "内容": "シルバーハイツ宮崎【短期入所生活介護】福井県丹生郡越前町小曽原75-35", "url": "https://www.kaigokensaku.mhlw.go.jp/18/index.php?action_kouhyou_detail_004_kani=true&JigyosyoCd=1872000235-00&ServiceCd=210&Type=search", "url2": "http://www.silver-h-miyazaki.jp/" }, "geometry": { "type": "Point", "coordinates": [ 136.066489600000097, 35.9284175 ] } },
{ "type": "Feature", "properties": { "内容": "海楽園短期入所生活介護事業所【短期入所生活介護】福井県丹生郡越前町米ノ46-1-1", "url": "https://www.kaigokensaku.mhlw.go.jp/18/index.php?action_kouhyou_detail_004_kani=true&JigyosyoCd=1872000052-00&ServiceCd=210&Type=search", "url2": "http://echizen-kairakuen.jp/" }, "geometry": { "type": "Point", "coordinates": [ 135.996106, 35.8918365 ] } },
{ "type": "Feature", "properties": { "内容": "特別養護老人ホーム　丹生ケアセンターひまわり荘【短期入所生活介護】福井県丹生郡越前町四ツ杉3-10", "url": "https://www.kaigokensaku.mhlw.go.jp/18/index.php?action_kouhyou_detail_004_kani=true&JigyosyoCd=1872000573-00&ServiceCd=210&Type=search", "url2": "www.sekishin-himawari.or.jp" }, "geometry": { "type": "Point", "coordinates": [ 136.0355446, 35.9607264 ] } },
{ "type": "Feature", "properties": { "内容": "やはず苑【短期入所生活介護】三方郡美浜町金山19-4-11", "url": "https://www.kaigokensaku.mhlw.go.jp/18/index.php?action_kouhyou_detail_004_kani=true&JigyosyoCd=1872100092-00&ServiceCd=210&Type=search", "url2": "http://fukui-youi.com/" }, "geometry": { "type": "Point", "coordinates": [ 135.9251716, 35.6007605 ] } },
{ "type": "Feature", "properties": { "内容": "特別養護老人ホーム　湖岳の郷【短期入所生活介護】福井県三方郡美浜町金山2-3-27", "url": "https://www.kaigokensaku.mhlw.go.jp/18/index.php?action_kouhyou_detail_004_kani=true&JigyosyoCd=1872100035-00&ServiceCd=210&Type=search", "url2": "https://www.kogakunosato.jp/" }, "geometry": { "type": "Point", "coordinates": [ 135.912886366270442, 35.596418422944218 ] } },
{ "type": "Feature", "properties": { "内容": "高浜けいあいの里【短期入所生活介護】福井県大飯郡高浜町和田168－22", "url": "https://www.kaigokensaku.mhlw.go.jp/18/index.php?action_kouhyou_detail_004_kani=true&JigyosyoCd=1872300098-00&ServiceCd=210&Type=search", "url2": "https://yukokai.or.jp/" }, "geometry": { "type": "Point", "coordinates": [ 135.582472100000018, 35.4874894 ] } },
{ "type": "Feature", "properties": { "内容": "楊梅苑ショートステイサービセンター【短期入所生活介護】福井県大飯郡おおい町野尻２８－３７", "url": "https://www.kaigokensaku.mhlw.go.jp/18/index.php?action_kouhyou_detail_004_kani=true&JigyosyoCd=1872300031-00&ServiceCd=210&Type=search", "url2": "http://www.yu-aikai.or.jp/" }, "geometry": { "type": "Point", "coordinates": [ 135.610770699999989, 35.4571065 ] } },
{ "type": "Feature", "properties": { "内容": "高齢者ショートステイ五湖の郷【短期入所生活介護】福井県三方上中郡若狭町田井２４－２", "url": "https://www.kaigokensaku.mhlw.go.jp/18/index.php?action_kouhyou_detail_004_kani=true&JigyosyoCd=1872400138-00&ServiceCd=210&Type=search", "url2": "http://www.w-shakyo.or.jp/" }, "geometry": { "type": "Point", "coordinates": [ 135.867751799999951, 35.5581841 ] } },
{ "type": "Feature", "properties": { "内容": "ショートスティ松寿苑（ユニット型）【短期入所生活介護】福井県三方上中郡若狭町井ノ口32-6-1", "url": "https://www.kaigokensaku.mhlw.go.jp/18/index.php?action_kouhyou_detail_004_kani=true&JigyosyoCd=1872400187-00&ServiceCd=210&Type=search", "url2": "http://shojukai.jp/" }, "geometry": { "type": "Point", "coordinates": [ 135.853920563476549, 35.464491995381685 ] } }
]
}
