{
"type": "FeatureCollection",
"name": "geo_18_訪問介護",
"crs": { "type": "name", "properties": { "name": "urn:ogc:def:crs:OGC:1.3:CRS84" } },
"features": [
{ "type": "Feature", "properties": { "内容": "訪問介護事業所ヒューマンケアネットワーク【訪問介護】福井市日之出4丁目1-6", "url": "https://www.kaigokensaku.mhlw.go.jp/18/index.php?action_kouhyou_detail_004_kani=true&JigyosyoCd=1870100847-00&ServiceCd=110&Type=search", "url2": "http://www.iba-net.co.jp/humancare/" }, "geometry": { "type": "Point", "coordinates": [ 136.230883901760876, 36.062354514793959 ] } },
{ "type": "Feature", "properties": { "内容": "しみず訪問介護ステーション【訪問介護】福井市グリーンハイツ4丁目174番", "url": "https://www.kaigokensaku.mhlw.go.jp/18/index.php?action_kouhyou_detail_004_kani=true&JigyosyoCd=1860190220-00&ServiceCd=110&Type=search", "url2": "http://www.jinai-cs.co.jp/care/index.html" }, "geometry": { "type": "Point", "coordinates": [ 136.16485560000001, 36.0443212 ] } },
{ "type": "Feature", "properties": { "内容": "ニチイケアセンター成和【訪問介護】福井市城東2丁目14-1", "url": "https://www.kaigokensaku.mhlw.go.jp/18/index.php?action_kouhyou_detail_004_kani=true&JigyosyoCd=1870100656-00&ServiceCd=110&Type=search", "url2": "http://www.nichiigakkan.co.jp" }, "geometry": { "type": "Point", "coordinates": [ 136.236090099999956, 36.0618263 ] } },
{ "type": "Feature", "properties": { "内容": "ホームケアみやま【訪問介護】福井市美山町9-11-1福井東商工会美山支所内", "url": "https://www.kaigokensaku.mhlw.go.jp/18/index.php?action_kouhyou_detail_004_kani=true&JigyosyoCd=1870102249-00&ServiceCd=110&Type=search", "url2": "http://fukui-medix.com/" }, "geometry": { "type": "Point", "coordinates": [ 136.362015400000018, 35.9985666 ] } },
{ "type": "Feature", "properties": { "内容": "訪問介護事業所　ケアフル開発【訪問介護】福井市開発２－２２６－２", "url": "https://www.kaigokensaku.mhlw.go.jp/18/index.php?action_kouhyou_detail_004_kani=true&JigyosyoCd=1870102645-00&ServiceCd=110&Type=search", "url2": null }, "geometry": { "type": "Point", "coordinates": [ 136.237811812380983, 36.079557649824622 ] } },
{ "type": "Feature", "properties": { "内容": "ひろば訪問介護ステーション【訪問介護】渡町208オルレアン・K　T101", "url": "https://www.kaigokensaku.mhlw.go.jp/18/index.php?action_kouhyou_detail_004_kani=true&JigyosyoCd=1870103791-00&ServiceCd=110&Type=search", "url2": null }, "geometry": { "type": "Point", "coordinates": [ 136.1883359, 36.0652237 ] } },
{ "type": "Feature", "properties": { "内容": "有限会社　うさごえ介護サポート【訪問介護】福井市花堂中1丁目1番4号", "url": "https://www.kaigokensaku.mhlw.go.jp/18/index.php?action_kouhyou_detail_004_kani=true&JigyosyoCd=1870101530-00&ServiceCd=110&Type=search", "url2": null }, "geometry": { "type": "Point", "coordinates": [ 136.217442600000027, 36.0388984 ] } },
{ "type": "Feature", "properties": { "内容": "あんしん村サポートセンター【訪問介護】福井市北四ツ居２丁目７－１７", "url": "https://www.kaigokensaku.mhlw.go.jp/18/index.php?action_kouhyou_detail_004_kani=true&JigyosyoCd=1870101472-00&ServiceCd=110&Type=search", "url2": "http://ansinmura.jp" }, "geometry": { "type": "Point", "coordinates": [ 136.245480899999961, 36.066454 ] } },
{ "type": "Feature", "properties": { "内容": "ＳＯＭＰＯケア　福井　訪問介護【訪問介護】福井県福井市城東１丁目２－１３", "url": "https://www.kaigokensaku.mhlw.go.jp/18/index.php?action_kouhyou_detail_004_kani=true&JigyosyoCd=1870102090-00&ServiceCd=110&Type=search", "url2": null }, "geometry": { "type": "Point", "coordinates": [ 136.229241999405644, 36.057821774235457 ] } },
{ "type": "Feature", "properties": { "内容": "合同会社あおやま介護企画【訪問介護】福井県福井市西開発1丁目1604", "url": "https://www.kaigokensaku.mhlw.go.jp/18/index.php?action_kouhyou_detail_004_kani=true&JigyosyoCd=1870103601-00&ServiceCd=110&Type=search", "url2": "info@aoyama-cp.com" }, "geometry": { "type": "Point", "coordinates": [ 136.2364823, 36.0746386 ] } },
{ "type": "Feature", "properties": { "内容": "株式会社在　宅支援輝き【訪問介護】福井県福井市加茂河原2丁目21番20号", "url": "https://www.kaigokensaku.mhlw.go.jp/18/index.php?action_kouhyou_detail_004_kani=true&JigyosyoCd=1870102769-00&ServiceCd=110&Type=search", "url2": null }, "geometry": { "type": "Point", "coordinates": [ 136.1925853, 36.0616823 ] } },
{ "type": "Feature", "properties": { "内容": "合同会社ゆめいえ【訪問介護】福井県福井市大宮５丁目4-3", "url": "https://www.kaigokensaku.mhlw.go.jp/18/index.php?action_kouhyou_detail_004_kani=true&JigyosyoCd=1870104146-00&ServiceCd=110&Type=search", "url2": "https://www.yumeie291.jp" }, "geometry": { "type": "Point", "coordinates": [ 136.204446499999989, 36.080027 ] } },
{ "type": "Feature", "properties": { "内容": "花園ホームヘルパーステーション【訪問介護】福井県福井市松本1-36-15", "url": "https://www.kaigokensaku.mhlw.go.jp/18/index.php?action_kouhyou_detail_004_kani=true&JigyosyoCd=1870100268-00&ServiceCd=110&Type=search", "url2": "http://www.hanazono-f.com" }, "geometry": { "type": "Point", "coordinates": [ 136.2319344, 36.0756549 ] } },
{ "type": "Feature", "properties": { "内容": "有限会社　稲木ケア・サービス【訪問介護】福井市上北野２丁目22-9", "url": "https://www.kaigokensaku.mhlw.go.jp/18/index.php?action_kouhyou_detail_004_kani=true&JigyosyoCd=1870100367-00&ServiceCd=110&Type=search", "url2": "https://www.inakicare.co.jp/" }, "geometry": { "type": "Point", "coordinates": [ 136.2514615, 36.05885344999011 ] } },
{ "type": "Feature", "properties": { "内容": "県民せいきょうホームヘルプサービス【訪問介護】福井市羽水１丁目１０７番地", "url": "https://www.kaigokensaku.mhlw.go.jp/18/index.php?action_kouhyou_detail_004_kani=true&JigyosyoCd=1870100342-00&ServiceCd=110&Type=search", "url2": "http://www.fukui.coop/" }, "geometry": { "type": "Point", "coordinates": [ 136.227266800000052, 36.0422703 ] } },
{ "type": "Feature", "properties": { "内容": "公益社団法人　福井市シルバー人材センター介護保険事業所【訪問介護】福井市文京1丁目26-10福井市ワークプラザ1階", "url": "https://www.kaigokensaku.mhlw.go.jp/18/index.php?action_kouhyou_detail_004_kani=true&JigyosyoCd=1870100359-00&ServiceCd=110&Type=search", "url2": "http://www2.interbroad.or.jp/genkikun/" }, "geometry": { "type": "Point", "coordinates": [ 136.221128007470725, 36.078393120398928 ] } },
{ "type": "Feature", "properties": { "内容": "福井新世紀ケアサービス【訪問介護】福井県福井市栗森1-102", "url": "https://www.kaigokensaku.mhlw.go.jp/18/index.php?action_kouhyou_detail_004_kani=true&JigyosyoCd=1870100797-00&ServiceCd=110&Type=search", "url2": "https://www.big-advance.site/s/163/1455" }, "geometry": { "type": "Point", "coordinates": [ 136.2386007, 36.116406099999928 ] } },
{ "type": "Feature", "properties": { "内容": "特定非営利活動法人　コム・サポートプロジェクト【訪問介護】福井市手寄１丁目４番１号ＡＯＳＳＡ３階", "url": "https://www.kaigokensaku.mhlw.go.jp/18/index.php?action_kouhyou_detail_004_kani=true&JigyosyoCd=1870100912-00&ServiceCd=110&Type=search", "url2": "http://cil-csp.com" }, "geometry": { "type": "Point", "coordinates": [ 136.223466067004949, 36.060639547867616 ] } },
{ "type": "Feature", "properties": { "内容": "ＪＡ福井県ヘルパーステーションわかば【訪問介護】福井県福井市渕４丁目６０６番地", "url": "https://www.kaigokensaku.mhlw.go.jp/18/index.php?action_kouhyou_detail_004_kani=true&JigyosyoCd=1870100987-00&ServiceCd=110&Type=search", "url2": null }, "geometry": { "type": "Point", "coordinates": [ 136.185664200000019, 36.0464855 ] } },
{ "type": "Feature", "properties": { "内容": "ケアサービスさくら【訪問介護】福井県福井市順化1丁目10-7", "url": "https://www.kaigokensaku.mhlw.go.jp/18/index.php?action_kouhyou_detail_004_kani=true&JigyosyoCd=1870101035-00&ServiceCd=110&Type=search", "url2": null }, "geometry": { "type": "Point", "coordinates": [ 136.216692488536495, 36.063935370043247 ] } },
{ "type": "Feature", "properties": { "内容": "介護サポートゆうあい【訪問介護】福井県福井市大願寺３丁目９－３大滝クリニック", "url": "https://www.kaigokensaku.mhlw.go.jp/18/index.php?action_kouhyou_detail_004_kani=true&JigyosyoCd=1870101290-00&ServiceCd=110&Type=search", "url2": "http://fukui-youi.com/" }, "geometry": { "type": "Point", "coordinates": [ 136.228329300000041, 36.084356400000011 ] } },
{ "type": "Feature", "properties": { "内容": "アースサポート福井【訪問介護】福井県福井市灯明寺一丁目1403番地", "url": "https://www.kaigokensaku.mhlw.go.jp/18/index.php?action_kouhyou_detail_004_kani=true&JigyosyoCd=1870101506-00&ServiceCd=110&Type=search", "url2": "http://www.earthsupport.co.jp" }, "geometry": { "type": "Point", "coordinates": [ 136.2095342, 36.0905608 ] } },
{ "type": "Feature", "properties": { "内容": "訪問介護ステーション　ひこうきぐも【訪問介護】福井県福井市松城町5-8　ソレイユ松城302", "url": "https://www.kaigokensaku.mhlw.go.jp/18/index.php?action_kouhyou_detail_004_kani=true&JigyosyoCd=1870104039-00&ServiceCd=110&Type=search", "url2": "http://hp.kaipoke.biz/zx6/" }, "geometry": { "type": "Point", "coordinates": [ 136.238012971754671, 36.063718538020282 ] } },
{ "type": "Feature", "properties": { "内容": "ヘルパーステーションいなほ【訪問介護】福井市江端町20字20-24", "url": "https://www.kaigokensaku.mhlw.go.jp/18/index.php?action_kouhyou_detail_004_kani=true&JigyosyoCd=1870101837-00&ServiceCd=110&Type=search", "url2": "http://fukui-medix.com/" }, "geometry": { "type": "Point", "coordinates": [ 136.212260476290908, 36.025895786497586 ] } },
{ "type": "Feature", "properties": { "内容": "うららホームヘルプサービス【訪問介護】福井県福井市木田１丁目3308うららの家", "url": "https://www.kaigokensaku.mhlw.go.jp/18/index.php?action_kouhyou_detail_004_kani=true&JigyosyoCd=1870101878-00&ServiceCd=110&Type=search", "url2": "http://www.hikarigroup.jp/" }, "geometry": { "type": "Point", "coordinates": [ 136.226638699999967, 36.0470307 ] } },
{ "type": "Feature", "properties": { "内容": "リールヘルパーステーション福井成和【訪問介護】成和1-1610リールホーム福井成和", "url": "https://www.kaigokensaku.mhlw.go.jp/18/index.php?action_kouhyou_detail_004_kani=true&JigyosyoCd=1870103809-00&ServiceCd=110&Type=search", "url2": "https://www.rirestage.co.jp/" }, "geometry": { "type": "Point", "coordinates": [ 136.243518, 36.055759 ] } },
{ "type": "Feature", "properties": { "内容": "光陽ホームヘルパーステーション【訪問介護】福井県福井市光陽3丁目10-24光陽生協病院1階", "url": "https://www.kaigokensaku.mhlw.go.jp/18/index.php?action_kouhyou_detail_004_kani=true&JigyosyoCd=1860190451-00&ServiceCd=110&Type=search", "url2": "https://www.fukui-iryouseikyou.jp" }, "geometry": { "type": "Point", "coordinates": [ 136.195429800000056, 36.0655888 ] } },
{ "type": "Feature", "properties": { "内容": "シン・アイ訪問介護センターわかば【訪問介護】福井市花堂中１－８－２０中山ビル１Ｆ", "url": "https://www.kaigokensaku.mhlw.go.jp/18/index.php?action_kouhyou_detail_004_kani=true&JigyosyoCd=1870102058-00&ServiceCd=110&Type=search", "url2": "yu-shinai.jp" }, "geometry": { "type": "Point", "coordinates": [ 136.214045446310337, 36.036776571904845 ] } },
{ "type": "Feature", "properties": { "内容": "訪問介護事業所　東郷【訪問介護】福井市東郷二ヶ町27-15-3リリーブ東郷", "url": "https://www.kaigokensaku.mhlw.go.jp/18/index.php?action_kouhyou_detail_004_kani=true&JigyosyoCd=1870102132-00&ServiceCd=110&Type=search", "url2": "http://www.monjuen.com" }, "geometry": { "type": "Point", "coordinates": [ 136.273188800000071, 36.0157497 ] } },
{ "type": "Feature", "properties": { "内容": "ホームヘルプサービス　つくも苑【訪問介護】福井県福井市つくも2丁目5番5号", "url": "https://www.kaigokensaku.mhlw.go.jp/18/index.php?action_kouhyou_detail_004_kani=true&JigyosyoCd=1870102298-00&ServiceCd=110&Type=search", "url2": "http://tsukumoen.co.jp/" }, "geometry": { "type": "Point", "coordinates": [ 136.209161699999981, 36.0618394 ] } },
{ "type": "Feature", "properties": { "内容": "訪問介護ステーション　福寿【訪問介護】福井市日之出3丁目16-18", "url": "https://www.kaigokensaku.mhlw.go.jp/18/index.php?action_kouhyou_detail_004_kani=true&JigyosyoCd=1870102389-00&ServiceCd=110&Type=search", "url2": "http://www.horae.dti.ne.jp/~akio-i/dimora/dimoraiwai_top.html" }, "geometry": { "type": "Point", "coordinates": [ 136.230224320820611, 36.061783816792754 ] } },
{ "type": "Feature", "properties": { "内容": "ケアサポートみげん【訪問介護】大宮６丁目１７－２４リベルテ竜郷　－大宮－", "url": "https://www.kaigokensaku.mhlw.go.jp/18/index.php?action_kouhyou_detail_004_kani=true&JigyosyoCd=1870102629-00&ServiceCd=110&Type=search", "url2": "https://www.c-migen.jp/" }, "geometry": { "type": "Point", "coordinates": [ 136.200847517196593, 36.081789700000463 ] } },
{ "type": "Feature", "properties": { "内容": "千寿の森訪問介護事業所【訪問介護】福井県福井市栗森２丁目２７１０番地", "url": "https://www.kaigokensaku.mhlw.go.jp/18/index.php?action_kouhyou_detail_004_kani=true&JigyosyoCd=1870103007-00&ServiceCd=110&Type=search", "url2": "https://www.tanpopoen-senjukai.com" }, "geometry": { "type": "Point", "coordinates": [ 136.23951591302793, 36.117130530264561 ] } },
{ "type": "Feature", "properties": { "内容": "（医）清風会　訪問介護センター【訪問介護】福井県福井市順化1丁目8番1号", "url": "https://www.kaigokensaku.mhlw.go.jp/18/index.php?action_kouhyou_detail_004_kani=true&JigyosyoCd=1870103338-00&ServiceCd=110&Type=search", "url2": "http://fukui-yoshidahospital.com//" }, "geometry": { "type": "Point", "coordinates": [ 136.215697, 36.0638781 ] } },
{ "type": "Feature", "properties": { "内容": "訪問介護まごのて福井【訪問介護】福井市丸山1-208リリーフ21日経ビル5Fリリーフ21日経ビル5F", "url": "https://www.kaigokensaku.mhlw.go.jp/18/index.php?action_kouhyou_detail_004_kani=true&JigyosyoCd=1870102710-00&ServiceCd=110&Type=search", "url2": "http://www.self-support.jp" }, "geometry": { "type": "Point", "coordinates": [ 136.244148300000035, 36.073734300000019 ] } },
{ "type": "Feature", "properties": { "内容": "訪問介護ステーション三栄ケアーズ元気ふくい【訪問介護】福井県福井市三郎丸町21番地19号5", "url": "https://www.kaigokensaku.mhlw.go.jp/18/index.php?action_kouhyou_detail_004_kani=true&JigyosyoCd=1870103866-00&ServiceCd=110&Type=search", "url2": "http://saneigenki.com/kaigo/" }, "geometry": { "type": "Point", "coordinates": [ 136.194503800000035, 36.080688 ] } },
{ "type": "Feature", "properties": { "内容": "plus⁺ヘルパーステーション【訪問介護】福井県福井市馬垣町板垣410レ・ジーナⅡ　101", "url": "https://www.kaigokensaku.mhlw.go.jp/18/index.php?action_kouhyou_detail_004_kani=true&JigyosyoCd=1870104229-00&ServiceCd=110&Type=search", "url2": "https://coco-plus-and-co.com/" }, "geometry": { "type": "Point", "coordinates": [ 136.236531523278813, 36.047017530608095 ] } },
{ "type": "Feature", "properties": { "内容": "公益財団法人福井市ふれあい公社ホームヘルプサービスセンター【訪問介護】福井市日之出4丁目3-12", "url": "https://www.kaigokensaku.mhlw.go.jp/18/index.php?action_kouhyou_detail_004_kani=true&JigyosyoCd=1870100102-00&ServiceCd=110&Type=search", "url2": "https://fureai-kousha.jp" }, "geometry": { "type": "Point", "coordinates": [ 136.231368681489585, 36.0645006723284 ] } },
{ "type": "Feature", "properties": { "内容": "有限会社　福祉サービス　ふくいコアラ【訪問介護】福井市西木田3丁目4－21", "url": "https://www.kaigokensaku.mhlw.go.jp/18/index.php?action_kouhyou_detail_004_kani=true&JigyosyoCd=1870101548-00&ServiceCd=110&Type=search", "url2": null }, "geometry": { "type": "Point", "coordinates": [ 136.211653500000011, 36.0530434 ] } },
{ "type": "Feature", "properties": { "内容": "訪問介護ステーションminori【訪問介護】福井県福井市新田塚1丁目55-1", "url": "https://www.kaigokensaku.mhlw.go.jp/18/index.php?action_kouhyou_detail_004_kani=true&JigyosyoCd=1870103775-00&ServiceCd=110&Type=search", "url2": "http://www.minorinokizuna.com" }, "geometry": { "type": "Point", "coordinates": [ 136.2057394, 36.0931501 ] } },
{ "type": "Feature", "properties": { "内容": "はなぐるま介護ステーション【訪問介護】福井県福井市志比口3丁目7-9コーポラス栄101", "url": "https://www.kaigokensaku.mhlw.go.jp/18/index.php?action_kouhyou_detail_004_kani=true&JigyosyoCd=1870103726-00&ServiceCd=110&Type=search", "url2": "https://www.kokotech.jp" }, "geometry": { "type": "Point", "coordinates": [ 136.239110899999986, 36.0731739 ] } },
{ "type": "Feature", "properties": { "内容": "こむぎヘルパーステーション【訪問介護】福井市八ツ島1丁目202-1", "url": "https://www.kaigokensaku.mhlw.go.jp/18/index.php?action_kouhyou_detail_004_kani=true&JigyosyoCd=1870104005-00&ServiceCd=110&Type=search", "url2": null }, "geometry": { "type": "Point", "coordinates": [ 136.209004599999986, 36.0900789 ] } },
{ "type": "Feature", "properties": { "内容": "仁愛訪問介護事業所【訪問介護】福井市乾徳４丁目４番７号仁愛ビル４階", "url": "https://www.kaigokensaku.mhlw.go.jp/18/index.php?action_kouhyou_detail_004_kani=true&JigyosyoCd=1860190550-00&ServiceCd=110&Type=search", "url2": "http://www.jinai-cs.co.jp/jinhou/index.html" }, "geometry": { "type": "Point", "coordinates": [ 136.2056335, 36.0711698 ] } },
{ "type": "Feature", "properties": { "内容": "アクア福井訪問介護【訪問介護】福井県福井市上野本町4丁目1604番地", "url": "https://www.kaigokensaku.mhlw.go.jp/18/index.php?action_kouhyou_detail_004_kani=true&JigyosyoCd=1870104203-00&ServiceCd=110&Type=search", "url2": null }, "geometry": { "type": "Point", "coordinates": [ 136.245808, 36.1151541 ] } },
{ "type": "Feature", "properties": { "内容": "ニチイケアセンター堀の宮【訪問介護】福井県福井市大宮6丁目13-6セレクトビル101号室", "url": "https://www.kaigokensaku.mhlw.go.jp/18/index.php?action_kouhyou_detail_004_kani=true&JigyosyoCd=1870103692-00&ServiceCd=110&Type=search", "url2": null }, "geometry": { "type": "Point", "coordinates": [ 136.1977674, 36.0809039 ] } },
{ "type": "Feature", "properties": { "内容": "ニチイケアセンター花堂東【訪問介護】花堂東1丁目29-17", "url": "https://www.kaigokensaku.mhlw.go.jp/18/index.php?action_kouhyou_detail_004_kani=true&JigyosyoCd=1870103684-00&ServiceCd=110&Type=search", "url2": "https://www.nichiigakkan.co.jp/" }, "geometry": { "type": "Point", "coordinates": [ 136.2221001, 36.0378494 ] } },
{ "type": "Feature", "properties": { "内容": "ヘルパーステーションこころ弐【訪問介護】福井市三十八社町401-22", "url": "https://www.kaigokensaku.mhlw.go.jp/18/index.php?action_kouhyou_detail_004_kani=true&JigyosyoCd=1870102678-00&ServiceCd=110&Type=search", "url2": "http://carecenter-kokoro.net/" }, "geometry": { "type": "Point", "coordinates": [ 136.189599719007447, 36.001545521655835 ] } },
{ "type": "Feature", "properties": { "内容": "ヘルパーステーション花笑み【訪問介護】福井県福井市西谷2丁目523FS-Ⅲ102", "url": "https://www.kaigokensaku.mhlw.go.jp/18/index.php?action_kouhyou_detail_004_kani=true&JigyosyoCd=1870103742-00&ServiceCd=110&Type=search", "url2": "https://www.hanaemi-believe2019.com" }, "geometry": { "type": "Point", "coordinates": [ 136.205033681932406, 36.038693476946456 ] } },
{ "type": "Feature", "properties": { "内容": "ほおずきヘルパー事業所【訪問介護】福井県福井市問屋町1丁目114番地", "url": "https://www.kaigokensaku.mhlw.go.jp/18/index.php?action_kouhyou_detail_004_kani=true&JigyosyoCd=1870103668-00&ServiceCd=110&Type=search", "url2": null }, "geometry": { "type": "Point", "coordinates": [ 136.251870700000012, 36.0613312 ] } },
{ "type": "Feature", "properties": { "内容": "ココ訪問介護事業所【訪問介護】福井県福井市和布町14-64-1", "url": "https://www.kaigokensaku.mhlw.go.jp/18/index.php?action_kouhyou_detail_004_kani=true&JigyosyoCd=1870103676-00&ServiceCd=110&Type=search", "url2": "https:∥r.goope.jp./sr-18-182018s0204" }, "geometry": { "type": "Point", "coordinates": [ 136.064888200000041, 36.128779 ] } },
{ "type": "Feature", "properties": { "内容": "イフディケア福井北【訪問介護】福井県福井市経田2丁目1001フェルティ経田102号", "url": "https://www.kaigokensaku.mhlw.go.jp/18/index.php?action_kouhyou_detail_004_kani=true&JigyosyoCd=1870103320-00&ServiceCd=110&Type=search", "url2": "https://if-d.net/sakura/" }, "geometry": { "type": "Point", "coordinates": [ 136.220369, 36.089797 ] } },
{ "type": "Feature", "properties": { "内容": "敦賀ケアセンタ－かくだ【訪問介護】福井県敦賀市昭和町二丁目17-5", "url": "https://www.kaigokensaku.mhlw.go.jp/18/index.php?action_kouhyou_detail_004_kani=true&JigyosyoCd=1870200035-00&ServiceCd=110&Type=search", "url2": "http://care-net.biz/18/kakuda/" }, "geometry": { "type": "Point", "coordinates": [ 136.059967639197112, 35.640799984334677 ] } },
{ "type": "Feature", "properties": { "内容": "株式会社ケア・サービス・アイ　訪問介護事業所【訪問介護】敦賀市清水町1丁目6番17号", "url": "https://www.kaigokensaku.mhlw.go.jp/18/index.php?action_kouhyou_detail_004_kani=true&JigyosyoCd=1870200100-00&ServiceCd=110&Type=search", "url2": "https://kaigo-csi.localinfo.jp" }, "geometry": { "type": "Point", "coordinates": [ 136.077948930024746, 35.651056349322026 ] } },
{ "type": "Feature", "properties": { "内容": "敦賀市社会福祉協議会指定訪問介護事業所「あいあい」【訪問介護】敦賀市東洋町4番1号敦賀市福祉総合センター「あいあいプラザ」内", "url": "https://www.kaigokensaku.mhlw.go.jp/18/index.php?action_kouhyou_detail_004_kani=true&JigyosyoCd=1870200027-00&ServiceCd=110&Type=search", "url2": "http://tsurugashishakyo.ec-net.jp/" }, "geometry": { "type": "Point", "coordinates": [ 136.069271466548116, 35.643872417631144 ] } },
{ "type": "Feature", "properties": { "内容": "有限会社　あそしえ【訪問介護】福井県敦賀市舞崎町2－23－23", "url": "https://www.kaigokensaku.mhlw.go.jp/18/index.php?action_kouhyou_detail_004_kani=true&JigyosyoCd=1870200134-00&ServiceCd=110&Type=search", "url2": null }, "geometry": { "type": "Point", "coordinates": [ 136.079265599999985, 35.6495835 ] } },
{ "type": "Feature", "properties": { "内容": "つるが生協ヘルパーステーション　とんとん【訪問介護】敦賀市公文名１号６番", "url": "https://www.kaigokensaku.mhlw.go.jp/18/index.php?action_kouhyou_detail_004_kani=true&JigyosyoCd=1870200183-00&ServiceCd=110&Type=search", "url2": "http://www.fukui-min-iren.com/iryouseikyou/" }, "geometry": { "type": "Point", "coordinates": [ 136.060157200000049, 35.623019 ] } },
{ "type": "Feature", "properties": { "内容": "ケアサービス一休さん【訪問介護】福井県敦賀市山泉73号905番地", "url": "https://www.kaigokensaku.mhlw.go.jp/18/index.php?action_kouhyou_detail_004_kani=true&JigyosyoCd=1870200266-00&ServiceCd=110&Type=search", "url2": null }, "geometry": { "type": "Point", "coordinates": [ 136.061354940475439, 35.615167129369055 ] } },
{ "type": "Feature", "properties": { "内容": "株式会社ディープ介護サービスセンター【訪問介護】福井県敦賀市新松島町１番２６号ヴァンヴェールＧ", "url": "https://www.kaigokensaku.mhlw.go.jp/18/index.php?action_kouhyou_detail_004_kani=true&JigyosyoCd=1870200274-00&ServiceCd=110&Type=search", "url2": "http://deep.co.jp" }, "geometry": { "type": "Point", "coordinates": [ 136.05561339999997, 35.6485243 ] } },
{ "type": "Feature", "properties": { "内容": "ヘルパーステーション　　こばやし【訪問介護】福井県敦賀市ひばりケ丘町1057番地", "url": "https://www.kaigokensaku.mhlw.go.jp/18/index.php?action_kouhyou_detail_004_kani=true&JigyosyoCd=1870200282-00&ServiceCd=110&Type=search", "url2": "https://care-koba.com/station/" }, "geometry": { "type": "Point", "coordinates": [ 136.041403899999978, 35.6222968 ] } },
{ "type": "Feature", "properties": { "内容": "セイホーケアサービス【訪問介護】福井県敦賀市相生町21番31号", "url": "https://www.kaigokensaku.mhlw.go.jp/18/index.php?action_kouhyou_detail_004_kani=true&JigyosyoCd=1870200407-00&ServiceCd=110&Type=search", "url2": "https://www.seiho-care.com/" }, "geometry": { "type": "Point", "coordinates": [ 136.067128988460581, 35.654329164415401 ] } },
{ "type": "Feature", "properties": { "内容": "県民せいきょうホームヘルプサービス（敦賀）【訪問介護】敦賀市市野々町2丁目1554番", "url": "https://www.kaigokensaku.mhlw.go.jp/18/index.php?action_kouhyou_detail_004_kani=true&JigyosyoCd=1870200456-00&ServiceCd=110&Type=search", "url2": "http://www.fukui.coop/" }, "geometry": { "type": "Point", "coordinates": [ 136.051197199999933, 35.6217941 ] } },
{ "type": "Feature", "properties": { "内容": "訪問介護ステーション　いずみ【訪問介護】福井県敦賀市鉄輪町１丁目２－５５", "url": "https://www.kaigokensaku.mhlw.go.jp/18/index.php?action_kouhyou_detail_004_kani=true&JigyosyoCd=1870200613-00&ServiceCd=110&Type=search", "url2": "http://www.izumigaoka.jp" }, "geometry": { "type": "Point", "coordinates": [ 136.07387760000006, 35.6434423 ] } },
{ "type": "Feature", "properties": { "内容": "敬仁会ヘルパーステーション【訪問介護】敦賀市鉄輪町1丁目2-57", "url": "https://www.kaigokensaku.mhlw.go.jp/18/index.php?action_kouhyou_detail_004_kani=true&JigyosyoCd=1870200720-00&ServiceCd=110&Type=search", "url2": "https://kjinkai.jp/facility/poppo/visiting-care/" }, "geometry": { "type": "Point", "coordinates": [ 136.0739456, 35.642983 ] } },
{ "type": "Feature", "properties": { "内容": "ＳＯＭＰＯケア　敦賀　訪問介護【訪問介護】福井県敦賀市堂50-1-4　日経ビル1F(長沢)日経ビル１階", "url": "https://www.kaigokensaku.mhlw.go.jp/18/index.php?action_kouhyou_detail_004_kani=true&JigyosyoCd=1870200340-00&ServiceCd=110&Type=search", "url2": null }, "geometry": { "type": "Point", "coordinates": [ 136.070632259524473, 35.632880642806683 ] } },
{ "type": "Feature", "properties": { "内容": "りんくる訪問介護事業所【訪問介護】福井県敦賀市松栄町4-10", "url": "https://www.kaigokensaku.mhlw.go.jp/18/index.php?action_kouhyou_detail_004_kani=true&JigyosyoCd=1870200381-00&ServiceCd=110&Type=search", "url2": null }, "geometry": { "type": "Point", "coordinates": [ 136.062770199999932, 35.6544437 ] } },
{ "type": "Feature", "properties": { "内容": "ヘルパーステーションカクノ【訪問介護】福井県敦賀市木崎19-12-1", "url": "https://www.kaigokensaku.mhlw.go.jp/18/index.php?action_kouhyou_detail_004_kani=true&JigyosyoCd=1870200738-00&ServiceCd=110&Type=search", "url2": "https://kakuno.org/" }, "geometry": { "type": "Point", "coordinates": [ 136.0479397, 35.6428076 ] } },
{ "type": "Feature", "properties": { "内容": "ささえ【訪問介護】敦賀市神楽町１丁目４－８", "url": "https://www.kaigokensaku.mhlw.go.jp/18/index.php?action_kouhyou_detail_004_kani=true&JigyosyoCd=1870200704-00&ServiceCd=110&Type=search", "url2": null }, "geometry": { "type": "Point", "coordinates": [ 136.071616005780868, 35.654167329224897 ] } },
{ "type": "Feature", "properties": { "内容": "ホームケア幸（さち）【訪問介護】福井県敦賀市平和町17-4", "url": "https://www.kaigokensaku.mhlw.go.jp/18/index.php?action_kouhyou_detail_004_kani=true&JigyosyoCd=1870200654-00&ServiceCd=110&Type=search", "url2": "http://fukushika.com/" }, "geometry": { "type": "Point", "coordinates": [ 136.050032595106444, 35.647724600000018 ] } },
{ "type": "Feature", "properties": { "内容": "ケアサービス北寿【訪問介護】福井県敦賀市岡山町703番地", "url": "https://www.kaigokensaku.mhlw.go.jp/18/index.php?action_kouhyou_detail_004_kani=true&JigyosyoCd=1870200530-00&ServiceCd=110&Type=search", "url2": "suzumenosato.co.jp" }, "geometry": { "type": "Point", "coordinates": [ 136.071691612834229, 35.629902775699485 ] } },
{ "type": "Feature", "properties": { "内容": "あすか訪問介護・介護タクシー事業所【訪問介護】福井県敦賀市山泉73-914-4", "url": "https://www.kaigokensaku.mhlw.go.jp/18/index.php?action_kouhyou_detail_004_kani=true&JigyosyoCd=1870200548-00&ServiceCd=110&Type=search", "url2": null }, "geometry": { "type": "Point", "coordinates": [ 136.0625152, 35.6152422 ] } },
{ "type": "Feature", "properties": { "内容": "訪問介護事業所こもれび【訪問介護】福井県敦賀市莇生野95-3-1", "url": "https://www.kaigokensaku.mhlw.go.jp/18/index.php?action_kouhyou_detail_004_kani=true&JigyosyoCd=1870200753-00&ServiceCd=110&Type=search", "url2": null }, "geometry": { "type": "Point", "coordinates": [ 136.0348675, 35.6321 ] } },
{ "type": "Feature", "properties": { "内容": "訪問介護事業所　もみじの里【訪問介護】福井県小浜市東勢11号3番", "url": "https://www.kaigokensaku.mhlw.go.jp/18/index.php?action_kouhyou_detail_004_kani=true&JigyosyoCd=1870400155-00&ServiceCd=110&Type=search", "url2": "http://www.momijist.jp/" }, "geometry": { "type": "Point", "coordinates": [ 135.720410099999981, 35.482683 ] } },
{ "type": "Feature", "properties": { "内容": "ケアサポート　あゆみ【訪問介護】福井県小浜市大手町8-33", "url": "https://www.kaigokensaku.mhlw.go.jp/18/index.php?action_kouhyou_detail_004_kani=true&JigyosyoCd=1870400387-00&ServiceCd=110&Type=search", "url2": "http://www.ayumi-ote.com" }, "geometry": { "type": "Point", "coordinates": [ 135.746238302516218, 35.497343713248831 ] } },
{ "type": "Feature", "properties": { "内容": "県民せいきょうホームヘルプサービス（若狭）【訪問介護】小浜市遠敷9丁目501番地", "url": "https://www.kaigokensaku.mhlw.go.jp/18/index.php?action_kouhyou_detail_004_kani=true&JigyosyoCd=1870400304-00&ServiceCd=110&Type=search", "url2": "http://www.fukui.coop/" }, "geometry": { "type": "Point", "coordinates": [ 135.773807180950939, 35.484002823128037 ] } },
{ "type": "Feature", "properties": { "内容": "訪問介護事業所ゆう【訪問介護】相生第１０号１５番地", "url": "https://www.kaigokensaku.mhlw.go.jp/18/index.php?action_kouhyou_detail_004_kani=true&JigyosyoCd=1870400460-00&ServiceCd=110&Type=search", "url2": null }, "geometry": { "type": "Point", "coordinates": [ 135.701532769057792, 35.445545348651798 ] } },
{ "type": "Feature", "properties": { "内容": "小浜市社会福祉協議会　指定訪問介護事業所【訪問介護】福井県小浜市遠敷84-3-4小浜市総合福祉センター(サン・サンホーム小浜)", "url": "https://www.kaigokensaku.mhlw.go.jp/18/index.php?action_kouhyou_detail_004_kani=true&JigyosyoCd=1870400015-00&ServiceCd=110&Type=search", "url2": "http://www.obama-shakyo.or.jp/" }, "geometry": { "type": "Point", "coordinates": [ 135.781338799999958, 35.4849674 ] } },
{ "type": "Feature", "properties": { "内容": "株式会社ライフサービスヘルパーステーションまごの手【訪問介護】福井県小浜市山王前１丁目6-10", "url": "https://www.kaigokensaku.mhlw.go.jp/18/index.php?action_kouhyou_detail_004_kani=true&JigyosyoCd=1870400031-00&ServiceCd=110&Type=search", "url2": "https://www.life-kaigo.jp/" }, "geometry": { "type": "Point", "coordinates": [ 135.753643300000022, 35.5113443 ] } },
{ "type": "Feature", "properties": { "内容": "訪問介護事業所ぼちぼち堂【訪問介護】福井県小浜市国分44-9", "url": "https://www.kaigokensaku.mhlw.go.jp/18/index.php?action_kouhyou_detail_004_kani=true&JigyosyoCd=1870400114-00&ServiceCd=110&Type=search", "url2": null }, "geometry": { "type": "Point", "coordinates": [ 135.786981289008082, 35.481020148870769 ] } },
{ "type": "Feature", "properties": { "内容": "ニチイケアセンター小浜【訪問介護】小浜市南川町11-35", "url": "https://www.kaigokensaku.mhlw.go.jp/18/index.php?action_kouhyou_detail_004_kani=true&JigyosyoCd=1870400098-00&ServiceCd=110&Type=search", "url2": "http://www.nichiigakkan.co.jp" }, "geometry": { "type": "Point", "coordinates": [ 135.755523700000026, 35.4920769 ] } },
{ "type": "Feature", "properties": { "内容": "訪問介護ステーションおあしす【訪問介護】福井県小浜市雲浜1丁目8番8号株式会社オアシス", "url": "https://www.kaigokensaku.mhlw.go.jp/18/index.php?action_kouhyou_detail_004_kani=true&JigyosyoCd=1870400395-00&ServiceCd=110&Type=search", "url2": "http://homeoasis.jp/" }, "geometry": { "type": "Point", "coordinates": [ 135.750401900000043, 35.5094139 ] } },
{ "type": "Feature", "properties": { "内容": "ふらむはぁとヘルパーステーション【訪問介護】遠敷７丁目301AYATTO", "url": "https://www.kaigokensaku.mhlw.go.jp/18/index.php?action_kouhyou_detail_004_kani=true&JigyosyoCd=1860490034-00&ServiceCd=110&Type=search", "url2": "http://rerephysio.co.jp" }, "geometry": { "type": "Point", "coordinates": [ 135.775840761168638, 35.485241247913564 ] } },
{ "type": "Feature", "properties": { "内容": "一乗ハイツヘルパーステーション【訪問介護】福井県大野市牛ヶ原１５４－１－１", "url": "https://www.kaigokensaku.mhlw.go.jp/18/index.php?action_kouhyou_detail_004_kani=true&JigyosyoCd=1870500012-00&ServiceCd=110&Type=search", "url2": "http://fuku-koumyouji.jp" }, "geometry": { "type": "Point", "coordinates": [ 136.465946499999973, 35.9937401 ] } },
{ "type": "Feature", "properties": { "内容": "聖和園訪問介護サービスセンター【訪問介護】大野市蕨生158-35", "url": "https://www.kaigokensaku.mhlw.go.jp/18/index.php?action_kouhyou_detail_004_kani=true&JigyosyoCd=1870500020-00&ServiceCd=110&Type=search", "url2": "http://www.saiseikai-seiwaen.jp/" }, "geometry": { "type": "Point", "coordinates": [ 136.546899100000019, 35.9819293 ] } },
{ "type": "Feature", "properties": { "内容": "大野市社会福祉協議会　ホームヘルプサービスセンター【訪問介護】福井県大野市天神町7番15号", "url": "https://www.kaigokensaku.mhlw.go.jp/18/index.php?action_kouhyou_detail_004_kani=true&JigyosyoCd=1870500061-00&ServiceCd=110&Type=search", "url2": "http://ono-shakyo.jp/" }, "geometry": { "type": "Point", "coordinates": [ 136.4884942, 35.9779839 ] } },
{ "type": "Feature", "properties": { "内容": "県民せいきょうホームヘルプサービス（奥越）【訪問介護】大野市天神町3番21号", "url": "https://www.kaigokensaku.mhlw.go.jp/18/index.php?action_kouhyou_detail_004_kani=true&JigyosyoCd=1870500186-00&ServiceCd=110&Type=search", "url2": "http://www.fukui.coop/" }, "geometry": { "type": "Point", "coordinates": [ 136.4884859, 35.9790976 ] } },
{ "type": "Feature", "properties": { "内容": "大野和光園ホームヘルプ事業所【訪問介護】福井県大野市春日３丁目1718番地", "url": "https://www.kaigokensaku.mhlw.go.jp/18/index.php?action_kouhyou_detail_004_kani=true&JigyosyoCd=1870500327-00&ServiceCd=110&Type=search", "url2": "http://www.ono-wakouen.jp" }, "geometry": { "type": "Point", "coordinates": [ 136.497523699999988, 35.9734904 ] } },
{ "type": "Feature", "properties": { "内容": "キラキラのヘルパーさん【訪問介護】福井県大野市要町１－１３　松田病院内", "url": "https://www.kaigokensaku.mhlw.go.jp/18/index.php?action_kouhyou_detail_004_kani=true&JigyosyoCd=1810514347-00&ServiceCd=110&Type=search", "url2": "kirakirakai-matsuda.or.jp" }, "geometry": { "type": "Point", "coordinates": [ 136.489038599999958, 35.990482 ] } },
{ "type": "Feature", "properties": { "内容": "合資会社ケアサポート花水木【訪問介護】勝山市毛屋町710", "url": "https://www.kaigokensaku.mhlw.go.jp/18/index.php?action_kouhyou_detail_004_kani=true&JigyosyoCd=1870600150-00&ServiceCd=110&Type=search", "url2": null }, "geometry": { "type": "Point", "coordinates": [ 136.509180900000047, 36.0467469 ] } },
{ "type": "Feature", "properties": { "内容": "勝山市社会福祉協議会ホームヘルプサービスセンター【訪問介護】勝山市郡町1丁目１－５１", "url": "https://www.kaigokensaku.mhlw.go.jp/18/index.php?action_kouhyou_detail_004_kani=true&JigyosyoCd=1870600036-00&ServiceCd=110&Type=search", "url2": "http://www.katuyama-sk.jp" }, "geometry": { "type": "Point", "coordinates": [ 136.496422527647383, 36.068993598940111 ] } },
{ "type": "Feature", "properties": { "内容": "さくら荘訪問介護センター【訪問介護】福井県勝山市芳野町２丁目１－１１さくら荘在宅サービス支援センターさくらんぼ", "url": "https://www.kaigokensaku.mhlw.go.jp/18/index.php?action_kouhyou_detail_004_kani=true&JigyosyoCd=1870600127-00&ServiceCd=110&Type=search", "url2": "http://k-sakurasou.jp" }, "geometry": { "type": "Point", "coordinates": [ 136.499267300000042, 36.066972 ] } },
{ "type": "Feature", "properties": { "内容": "県民せいきょうホームヘルプサービス（勝山）【訪問介護】勝山市元町2丁目5番12号", "url": "https://www.kaigokensaku.mhlw.go.jp/18/index.php?action_kouhyou_detail_004_kani=true&JigyosyoCd=1870600135-00&ServiceCd=110&Type=search", "url2": "http://www.fukui.coop/" }, "geometry": { "type": "Point", "coordinates": [ 136.503378399999974, 36.0577954 ] } },
{ "type": "Feature", "properties": { "内容": "特定非営利活動法人　心の絆【訪問介護】福井県鯖江市三六町二丁目7-13", "url": "https://www.kaigokensaku.mhlw.go.jp/18/index.php?action_kouhyou_detail_004_kani=true&JigyosyoCd=1870700653-00&ServiceCd=110&Type=search", "url2": "http://kizuna2019.jp/" }, "geometry": { "type": "Point", "coordinates": [ 136.17748610000001, 35.9738583 ] } },
{ "type": "Feature", "properties": { "内容": "ほほえみ訪問介護センター【訪問介護】福井県鯖江市桜町２丁目９－３２", "url": "https://www.kaigokensaku.mhlw.go.jp/18/index.php?action_kouhyou_detail_004_kani=true&JigyosyoCd=1870700216-00&ServiceCd=110&Type=search", "url2": null }, "geometry": { "type": "Point", "coordinates": [ 136.179202799999985, 35.9448464 ] } },
{ "type": "Feature", "properties": { "内容": "ふれあいホーム　さわやか虹【訪問介護】福井県鯖江市二丁掛町14-28", "url": "https://www.kaigokensaku.mhlw.go.jp/18/index.php?action_kouhyou_detail_004_kani=true&JigyosyoCd=1870700273-00&ServiceCd=110&Type=search", "url2": "https://www.sawakaya-niji.com/" }, "geometry": { "type": "Point", "coordinates": [ 136.156060199999956, 35.9530417 ] } },
{ "type": "Feature", "properties": { "内容": "ニチイケアセンターたちまち【訪問介護】福井県鯖江市吉江町303", "url": "https://www.kaigokensaku.mhlw.go.jp/18/index.php?action_kouhyou_detail_004_kani=true&JigyosyoCd=1870700364-00&ServiceCd=110&Type=search", "url2": "http://www.nichiigakkan.co.jp" }, "geometry": { "type": "Point", "coordinates": [ 136.176179199999979, 35.9851405 ] } },
{ "type": "Feature", "properties": { "内容": "社会福祉法人　鯖江市社会福祉協議会ホームヘルプサービスセンター【訪問介護】福井県鯖江市神明町５丁目5-37", "url": "https://www.kaigokensaku.mhlw.go.jp/18/index.php?action_kouhyou_detail_004_kani=true&JigyosyoCd=1870700042-00&ServiceCd=110&Type=search", "url2": "http://www.sabae-shakyo.or.jp/" }, "geometry": { "type": "Point", "coordinates": [ 136.186111399999987, 35.981386800000017 ] } },
{ "type": "Feature", "properties": { "内容": "訪問介護まごのて丹南【訪問介護】福井県鯖江市小黒町１丁目１５番８号", "url": "https://www.kaigokensaku.mhlw.go.jp/18/index.php?action_kouhyou_detail_004_kani=true&JigyosyoCd=1870700752-00&ServiceCd=110&Type=search", "url2": "https://wakaizumi-ll.care" }, "geometry": { "type": "Point", "coordinates": [ 136.1759806, 35.9585865 ] } },
{ "type": "Feature", "properties": { "内容": "ハスの実ヘルパーステーションともに【訪問介護】あわら市大溝２丁目２５番１", "url": "https://www.kaigokensaku.mhlw.go.jp/18/index.php?action_kouhyou_detail_004_kani=true&JigyosyoCd=1870800214-00&ServiceCd=110&Type=search", "url2": "http://www.hasunominoie.com" }, "geometry": { "type": "Point", "coordinates": [ 136.197707900000069, 36.2398155 ] } },
{ "type": "Feature", "properties": { "内容": "あわら市金津雲雀ケ丘寮訪問介護事業所【訪問介護】福井県あわら市春宮3丁目28-21", "url": "https://www.kaigokensaku.mhlw.go.jp/18/index.php?action_kouhyou_detail_004_kani=true&JigyosyoCd=1870800198-00&ServiceCd=110&Type=search", "url2": "http://www.awara-hibari.jp" }, "geometry": { "type": "Point", "coordinates": [ 136.227530800000068, 36.2199603 ] } },
{ "type": "Feature", "properties": { "内容": "坂井地区医師会　ヘルパーステーション【訪問介護】福井県あわら市東善寺5-27", "url": "https://www.kaigokensaku.mhlw.go.jp/18/index.php?action_kouhyou_detail_004_kani=true&JigyosyoCd=1860890019-00&ServiceCd=110&Type=search", "url2": "http://www.sakaichiku-med.com/" }, "geometry": { "type": "Point", "coordinates": [ 136.218323599999962, 36.2111778 ] } },
{ "type": "Feature", "properties": { "内容": "ケアハイツヘルパーステーション【訪問介護】福井県あわら市横垣18-11ケアハイツ芦原", "url": "https://www.kaigokensaku.mhlw.go.jp/18/index.php?action_kouhyou_detail_004_kani=true&JigyosyoCd=1870800024-00&ServiceCd=110&Type=search", "url2": "https://careheights.jp/" }, "geometry": { "type": "Point", "coordinates": [ 136.214375, 36.2240049 ] } },
{ "type": "Feature", "properties": { "内容": "訪問介護事業所ケアサービスつるかめ【訪問介護】福井県あわら市市姫二丁目1番10号つるかめ", "url": "https://www.kaigokensaku.mhlw.go.jp/18/index.php?action_kouhyou_detail_004_kani=true&JigyosyoCd=1870800107-00&ServiceCd=110&Type=search", "url2": null }, "geometry": { "type": "Point", "coordinates": [ 136.229455899999948, 36.2125111 ] } },
{ "type": "Feature", "properties": { "内容": "ニチイケアセンター今立【訪問介護】福井県越前市新在家町8-40", "url": "https://www.kaigokensaku.mhlw.go.jp/18/index.php?action_kouhyou_detail_004_kani=true&JigyosyoCd=1870301007-00&ServiceCd=110&Type=search", "url2": "www.nichiigakkan.co.jp" }, "geometry": { "type": "Point", "coordinates": [ 136.2430496, 35.9115897 ] } },
{ "type": "Feature", "properties": { "内容": "レッツ訪問介護ステーション【訪問介護】福井県越前市横根町12-4-1", "url": "https://www.kaigokensaku.mhlw.go.jp/18/index.php?action_kouhyou_detail_004_kani=true&JigyosyoCd=1870301015-00&ServiceCd=110&Type=search", "url2": "http://lifemore.ne.jp/" }, "geometry": { "type": "Point", "coordinates": [ 136.126413, 35.9119682 ] } },
{ "type": "Feature", "properties": { "内容": "あいぜん訪問介護センター【訪問介護】福井県越前市広瀬町131-23", "url": "https://www.kaigokensaku.mhlw.go.jp/18/index.php?action_kouhyou_detail_004_kani=true&JigyosyoCd=1870300363-00&ServiceCd=110&Type=search", "url2": "http://care-net.biz/18/aizen/" }, "geometry": { "type": "Point", "coordinates": [ 136.143272, 35.8872777 ] } },
{ "type": "Feature", "properties": { "内容": "ほっとヘルパーステーション【訪問介護】福井県越前市高木町111-2ほっと地域包括ケアセンター", "url": "https://www.kaigokensaku.mhlw.go.jp/18/index.php?action_kouhyou_detail_004_kani=true&JigyosyoCd=1870300041-00&ServiceCd=110&Type=search", "url2": "http://www.hotreha.com" }, "geometry": { "type": "Point", "coordinates": [ 136.191770770267823, 35.918701394949302 ] } },
{ "type": "Feature", "properties": { "内容": "訪問介護ステーション府中【訪問介護】福井県越前市府中1丁目3号5番地", "url": "https://www.kaigokensaku.mhlw.go.jp/18/index.php?action_kouhyou_detail_004_kani=true&JigyosyoCd=1860390036-00&ServiceCd=110&Type=search", "url2": "http://www2.interbroad.or.jp/hayasi/" }, "geometry": { "type": "Point", "coordinates": [ 136.16994063394452, 35.902047668448176 ] } },
{ "type": "Feature", "properties": { "内容": "県民せいきょうホームヘルプサービス（丹南）【訪問介護】福井県越前市家久町４９字", "url": "https://www.kaigokensaku.mhlw.go.jp/18/index.php?action_kouhyou_detail_004_kani=true&JigyosyoCd=1870300413-00&ServiceCd=110&Type=search", "url2": "http://www.fukui.coop/" }, "geometry": { "type": "Point", "coordinates": [ 136.166609900000026, 35.9317646 ] } },
{ "type": "Feature", "properties": { "内容": "越前市社会福祉協議会ホームヘルプサービスセンター【訪問介護】福井県越前市矢船町第8号12番地1", "url": "https://www.kaigokensaku.mhlw.go.jp/18/index.php?action_kouhyou_detail_004_kani=true&JigyosyoCd=1870300488-00&ServiceCd=110&Type=search", "url2": "https://echizen-shakyo.or.jp/" }, "geometry": { "type": "Point", "coordinates": [ 136.177232499999946, 35.8878535 ] } },
{ "type": "Feature", "properties": { "内容": "訪問介護サービスケアフルハウス【訪問介護】越前市広瀬町153-12-2", "url": "https://www.kaigokensaku.mhlw.go.jp/18/index.php?action_kouhyou_detail_004_kani=true&JigyosyoCd=1870300637-00&ServiceCd=110&Type=search", "url2": "http://carefull.co.jp" }, "geometry": { "type": "Point", "coordinates": [ 136.146741329885799, 35.88957929569321 ] } },
{ "type": "Feature", "properties": { "内容": "ニチイケアセンター武生【訪問介護】越前市国高1-16-16", "url": "https://www.kaigokensaku.mhlw.go.jp/18/index.php?action_kouhyou_detail_004_kani=true&JigyosyoCd=1870300066-00&ServiceCd=110&Type=search", "url2": "http://www.nichiigakkan.co.jp/" }, "geometry": { "type": "Point", "coordinates": [ 136.186622599999964, 35.911176 ] } },
{ "type": "Feature", "properties": { "内容": "和上苑ホームヘルプ【訪問介護】福井県越前市高木町12-7-1", "url": "https://www.kaigokensaku.mhlw.go.jp/18/index.php?action_kouhyou_detail_004_kani=true&JigyosyoCd=1870300728-00&ServiceCd=110&Type=search", "url2": "http://www.wakatake.ne.jp" }, "geometry": { "type": "Point", "coordinates": [ 136.1905305, 35.9281613 ] } },
{ "type": "Feature", "properties": { "内容": "指定訪問介護いっぷく【訪問介護】越前市黒川町114ー61ー1しらやま山荘", "url": "https://www.kaigokensaku.mhlw.go.jp/18/index.php?action_kouhyou_detail_004_kani=true&JigyosyoCd=1870300652-00&ServiceCd=110&Type=search", "url2": "http://www.carehomeippuku.jp/" }, "geometry": { "type": "Point", "coordinates": [ 136.069299499999943, 35.8816815 ] } },
{ "type": "Feature", "properties": { "内容": "いちばん介護【訪問介護】越前市瓜生町31-1", "url": "https://www.kaigokensaku.mhlw.go.jp/18/index.php?action_kouhyou_detail_004_kani=true&JigyosyoCd=1870300181-00&ServiceCd=110&Type=search", "url2": "http://ichibankaigo.jp/" }, "geometry": { "type": "Point", "coordinates": [ 136.182864399999971, 35.9189194 ] } },
{ "type": "Feature", "properties": { "内容": "ナーシング福井【訪問介護】三国町新宿1-8-25", "url": "https://www.kaigokensaku.mhlw.go.jp/18/index.php?action_kouhyou_detail_004_kani=true&JigyosyoCd=1871701189-00&ServiceCd=110&Type=search", "url2": "https://www.nurshingfukui.com" }, "geometry": { "type": "Point", "coordinates": [ 136.141723299999967, 36.2254793 ] } },
{ "type": "Feature", "properties": { "内容": "陽だまり舎介護サービス株式会社【訪問介護】福井県坂井市丸岡町羽崎31-2-5", "url": "https://www.kaigokensaku.mhlw.go.jp/18/index.php?action_kouhyou_detail_004_kani=true&JigyosyoCd=1871701080-00&ServiceCd=110&Type=search", "url2": null }, "geometry": { "type": "Point", "coordinates": [ 136.263317799999982, 36.1151297 ] } },
{ "type": "Feature", "properties": { "内容": "坂井訪問介護二の宮センター【訪問介護】福井県坂井市坂井町折戸第１号５８番地", "url": "https://www.kaigokensaku.mhlw.go.jp/18/index.php?action_kouhyou_detail_004_kani=true&JigyosyoCd=1851780021-00&ServiceCd=110&Type=search", "url2": "https://sakaicare.com/" }, "geometry": { "type": "Point", "coordinates": [ 136.170241199999964, 36.1713585 ] } },
{ "type": "Feature", "properties": { "内容": "あじさい園ホームヘルパーステーション【訪問介護】福井県坂井市三国町梶４９－１８", "url": "https://www.kaigokensaku.mhlw.go.jp/18/index.php?action_kouhyou_detail_004_kani=true&JigyosyoCd=1871700132-00&ServiceCd=110&Type=search", "url2": "http://www.hakurakuso.com" }, "geometry": { "type": "Point", "coordinates": [ 136.155044841664107, 36.246503152972323 ] } },
{ "type": "Feature", "properties": { "内容": "JA福井県ヘルパーステーションはなさき【訪問介護】福井県坂井市坂井町上新庄42-19", "url": "https://www.kaigokensaku.mhlw.go.jp/18/index.php?action_kouhyou_detail_004_kani=true&JigyosyoCd=1871700173-00&ServiceCd=110&Type=search", "url2": "http://www.ja-fukuiken.or.jp" }, "geometry": { "type": "Point", "coordinates": [ 136.2322984, 36.165352200000029 ] } },
{ "type": "Feature", "properties": { "内容": "県民せいきょうホームヘルプサービス（坂井）【訪問介護】福井県坂井市坂井町大味５６号", "url": "https://www.kaigokensaku.mhlw.go.jp/18/index.php?action_kouhyou_detail_004_kani=true&JigyosyoCd=1871700371-00&ServiceCd=110&Type=search", "url2": "https://www.fukui.coop/care/shisetsu/sakai-kirameki/" }, "geometry": { "type": "Point", "coordinates": [ 136.195263948335167, 36.185154738579826 ] } },
{ "type": "Feature", "properties": { "内容": "坂井市社会福祉協議会　ホームヘルパーステーション【訪問介護】福井県坂井市坂井町下新庄18-3-1", "url": "https://www.kaigokensaku.mhlw.go.jp/18/index.php?action_kouhyou_detail_004_kani=true&JigyosyoCd=1871700579-00&ServiceCd=110&Type=search", "url2": "http://www.sakaicityshakyo.jp/" }, "geometry": { "type": "Point", "coordinates": [ 136.223826428974917, 36.166424124034883 ] } },
{ "type": "Feature", "properties": { "内容": "双和会訪問介護ステーションはっぴー【訪問介護】福井県坂井市三国町陣ケ岡35-1-8", "url": "https://www.kaigokensaku.mhlw.go.jp/18/index.php?action_kouhyou_detail_004_kani=true&JigyosyoCd=1871700678-00&ServiceCd=110&Type=search", "url2": "http://fj-g.jp/" }, "geometry": { "type": "Point", "coordinates": [ 136.135546281770303, 36.234882673937072 ] } },
{ "type": "Feature", "properties": { "内容": "夕陽ヘルパーステーション【訪問介護】福井県坂井市三国町錦３丁目１－１８", "url": "https://www.kaigokensaku.mhlw.go.jp/18/index.php?action_kouhyou_detail_004_kani=true&JigyosyoCd=1871700942-00&ServiceCd=110&Type=search", "url2": null }, "geometry": { "type": "Point", "coordinates": [ 136.152176027370274, 36.215819132022425 ] } },
{ "type": "Feature", "properties": { "内容": "訪問介護事業所　アプトケア三国【訪問介護】坂井市三国町三国東2丁目9-23", "url": "https://www.kaigokensaku.mhlw.go.jp/18/index.php?action_kouhyou_detail_004_kani=true&JigyosyoCd=1871700744-00&ServiceCd=110&Type=search", "url2": "http://www.aptcare.jp" }, "geometry": { "type": "Point", "coordinates": [ 136.161245199999939, 36.2122123 ] } },
{ "type": "Feature", "properties": { "内容": "笑楽日のヘルパー芙生【訪問介護】丸岡町山口５９－１３", "url": "https://www.kaigokensaku.mhlw.go.jp/18/index.php?action_kouhyou_detail_004_kani=true&JigyosyoCd=1871700843-00&ServiceCd=110&Type=search", "url2": "https://www.day-warabi.com/" }, "geometry": { "type": "Point", "coordinates": [ 136.33192360000001, 36.1604566 ] } },
{ "type": "Feature", "properties": { "内容": "訪問介護ステーションみかづき【訪問介護】福井県坂井市坂井町長屋64-3", "url": "https://www.kaigokensaku.mhlw.go.jp/18/index.php?action_kouhyou_detail_004_kani=true&JigyosyoCd=1871701221-00&ServiceCd=110&Type=search", "url2": null }, "geometry": { "type": "Point", "coordinates": [ 136.2420447, 36.1816914 ] } },
{ "type": "Feature", "properties": { "内容": "合同会社ヘルパーステーションはっち【訪問介護】福井県坂井市春江町千歩寺35-1-75", "url": "https://www.kaigokensaku.mhlw.go.jp/18/index.php?action_kouhyou_detail_004_kani=true&JigyosyoCd=1871701213-00&ServiceCd=110&Type=search", "url2": "info@helper-hatchi.co.jp" }, "geometry": { "type": "Point", "coordinates": [ 136.2045039, 36.1487205 ] } },
{ "type": "Feature", "properties": { "内容": "ケアふくい訪問介護センター【訪問介護】福井県吉田郡永平寺町松岡薬師1-145", "url": "https://www.kaigokensaku.mhlw.go.jp/18/index.php?action_kouhyou_detail_004_kani=true&JigyosyoCd=1871600126-00&ServiceCd=110&Type=search", "url2": null }, "geometry": { "type": "Point", "coordinates": [ 136.305824857697417, 36.096216707964089 ] } },
{ "type": "Feature", "properties": { "内容": "ヘルパーステーションマミー【訪問介護】福井県吉田郡永平寺町松岡神明3-98", "url": "https://www.kaigokensaku.mhlw.go.jp/18/index.php?action_kouhyou_detail_004_kani=true&JigyosyoCd=1871600274-00&ServiceCd=110&Type=search", "url2": null }, "geometry": { "type": "Point", "coordinates": [ 136.301042199999983, 36.0921676 ] } },
{ "type": "Feature", "properties": { "内容": "ケアふくい訪問介護センター【訪問介護】福井県吉田郡永平寺町松岡薬師1-145", "url": "https://www.kaigokensaku.mhlw.go.jp/18/index.php?action_kouhyou_detail_004_kani=true&JigyosyoCd=1871600316-00&ServiceCd=110&Type=search", "url2": null }, "geometry": { "type": "Point", "coordinates": [ 136.3059321, 36.0961674 ] } },
{ "type": "Feature", "properties": { "内容": "えいへいじ訪問介護ステーション【訪問介護】福井県吉田郡永平寺町飯島6-34", "url": "https://www.kaigokensaku.mhlw.go.jp/18/index.php?action_kouhyou_detail_004_kani=true&JigyosyoCd=1871600217-00&ServiceCd=110&Type=search", "url2": "http://www.eiheijishakyo.jp" }, "geometry": { "type": "Point", "coordinates": [ 136.356621200000063, 36.089843700000017 ] } },
{ "type": "Feature", "properties": { "内容": "社会福祉法人　池田町社会福祉協議会指定訪問介護事業所【訪問介護】福井県今立郡池田町薮田第5号3番地の1総合保健福祉センターほっとプラザ内", "url": "https://www.kaigokensaku.mhlw.go.jp/18/index.php?action_kouhyou_detail_004_kani=true&JigyosyoCd=1871800031-00&ServiceCd=110&Type=search", "url2": null }, "geometry": { "type": "Point", "coordinates": [ 136.345674513491758, 35.895583302593266 ] } },
{ "type": "Feature", "properties": { "内容": "南越前町社会福祉協議会ホームヘルパーステーション【訪問介護】福井県南条郡南越前町脇本17-38-1南条保健福祉センター", "url": "https://www.kaigokensaku.mhlw.go.jp/18/index.php?action_kouhyou_detail_004_kani=true&JigyosyoCd=1871900229-00&ServiceCd=110&Type=search", "url2": null }, "geometry": { "type": "Point", "coordinates": [ 136.1848526, 35.8435403 ] } },
{ "type": "Feature", "properties": { "内容": "へるぷハウス訪問介護事業所【訪問介護】福井県丹生郡越前町西田中12-32", "url": "https://www.kaigokensaku.mhlw.go.jp/18/index.php?action_kouhyou_detail_004_kani=true&JigyosyoCd=1872000532-00&ServiceCd=110&Type=search", "url2": null }, "geometry": { "type": "Point", "coordinates": [ 136.13027569999997, 35.9748746 ] } },
{ "type": "Feature", "properties": { "内容": "越前町社会福祉協議会ホームヘルパーステーション【訪問介護】福井県丹生郡越前町織田106-51-1織田保健福祉センター", "url": "https://www.kaigokensaku.mhlw.go.jp/18/index.php?action_kouhyou_detail_004_kani=true&JigyosyoCd=1872000391-00&ServiceCd=110&Type=search", "url2": "http://www.e-shakyo.or.jp/" }, "geometry": { "type": "Point", "coordinates": [ 136.047773970692447, 35.95733505938653 ] } },
{ "type": "Feature", "properties": { "内容": "指定訪問介護事業所　ヘルパーステーション　さざんか【訪問介護】福井県丹生郡越前町朝日22字7-1", "url": "https://www.kaigokensaku.mhlw.go.jp/18/index.php?action_kouhyou_detail_004_kani=true&JigyosyoCd=1872000516-00&ServiceCd=110&Type=search", "url2": "http://www.kodoen.or.jp/" }, "geometry": { "type": "Point", "coordinates": [ 136.119688, 35.9709529 ] } },
{ "type": "Feature", "properties": { "内容": "美浜町社会福祉協議会　ホームヘルパーステーション【訪問介護】福井県三方郡美浜町山上1-11-1美浜町デイサービスセンター", "url": "https://www.kaigokensaku.mhlw.go.jp/18/index.php?action_kouhyou_detail_004_kani=true&JigyosyoCd=1872100027-00&ServiceCd=110&Type=search", "url2": "http://www.mihamachoshakyo.com/" }, "geometry": { "type": "Point", "coordinates": [ 135.982634700000034, 35.627251900000026 ] } },
{ "type": "Feature", "properties": { "内容": "社会福祉法人高浜町社会福祉協議会指定訪問介護事業所【訪問介護】福井県大飯郡高浜町緑ヶ丘1-1-1高浜町社会福祉センター内　　指定訪問介護事業所", "url": "https://www.kaigokensaku.mhlw.go.jp/18/index.php?action_kouhyou_detail_004_kani=true&JigyosyoCd=1872300023-00&ServiceCd=110&Type=search", "url2": "ts722480@zeus.eonet.ne.jp" }, "geometry": { "type": "Point", "coordinates": [ 135.508076599999981, 35.4928915 ] } },
{ "type": "Feature", "properties": { "内容": "福井県大飯郡高浜町青１字宮ケ谷１号3番１【訪問介護】大飯郡高浜町青１字宮ケ谷１号3番１", "url": "https://www.kaigokensaku.mhlw.go.jp/18/index.php?action_kouhyou_detail_004_kani=true&JigyosyoCd=1872300155-00&ServiceCd=110&Type=search", "url2": null }, "geometry": { "type": "Point", "coordinates": [ 135.500190636307906, 35.482203310965211 ] } },
{ "type": "Feature", "properties": { "内容": "ヘルパーステーション　グっとサポート【訪問介護】福井県大飯郡高浜町薗部47-4", "url": "https://www.kaigokensaku.mhlw.go.jp/18/index.php?action_kouhyou_detail_004_kani=true&JigyosyoCd=1872300122-00&ServiceCd=110&Type=search", "url2": "http://goodsupport.rash.jp/" }, "geometry": { "type": "Point", "coordinates": [ 135.559397350497193, 35.486762771397281 ] } },
{ "type": "Feature", "properties": { "内容": "おおい町社会福祉協議会ヘルパーステーション【訪問介護】福井県大飯郡おおい町名田庄下６－１あっとほ～むいきいき館内", "url": "https://www.kaigokensaku.mhlw.go.jp/18/index.php?action_kouhyou_detail_004_kani=true&JigyosyoCd=1872300148-00&ServiceCd=110&Type=search", "url2": "http://ohi-shakyo.or.jp/" }, "geometry": { "type": "Point", "coordinates": [ 135.643975899999987, 35.4070517 ] } },
{ "type": "Feature", "properties": { "内容": "公益社団法人　若狭町シルバー人材センター【訪問介護】福井県三方上中郡若狭町中央１－１　シルバー交流プラザ", "url": "https://www.kaigokensaku.mhlw.go.jp/18/index.php?action_kouhyou_detail_004_kani=true&JigyosyoCd=1872400146-00&ServiceCd=110&Type=search", "url2": "http://www.sjc.ne.jp/mikata-f/" }, "geometry": { "type": "Point", "coordinates": [ 135.857211, 35.4618879 ] } },
{ "type": "Feature", "properties": { "内容": "ニチイケアセンター上中【訪問介護】福井県三方上中郡若狭町井ノ口26-5-19サンポートスリーム205号", "url": "https://www.kaigokensaku.mhlw.go.jp/18/index.php?action_kouhyou_detail_004_kani=true&JigyosyoCd=1872400310-00&ServiceCd=110&Type=search", "url2": "http://www.nichiigakkan.co.jp" }, "geometry": { "type": "Point", "coordinates": [ 135.849232699999988, 35.4636726 ] } },
{ "type": "Feature", "properties": { "内容": "ニチイケアセンターわかさ【訪問介護】三方上中郡若狭町北前川29-6-1", "url": "https://www.kaigokensaku.mhlw.go.jp/18/index.php?action_kouhyou_detail_004_kani=true&JigyosyoCd=1872400179-00&ServiceCd=110&Type=search", "url2": "http://www.nichiigakkan.co.jp/" }, "geometry": { "type": "Point", "coordinates": [ 135.907442800000013, 35.54868 ] } },
{ "type": "Feature", "properties": { "内容": "ホームヘルプサービス　いずみ【訪問介護】福井県三方上中郡若狭町井崎第４０号８０番地地域福祉センターいずみ内", "url": "https://www.kaigokensaku.mhlw.go.jp/18/index.php?action_kouhyou_detail_004_kani=true&JigyosyoCd=1872400062-00&ServiceCd=110&Type=search", "url2": "http://www.w-shakyo.or.jp/" }, "geometry": { "type": "Point", "coordinates": [ 135.894802799999979, 35.5154331 ] } },
{ "type": "Feature", "properties": { "内容": "訪問介護事業所　わらく【訪問介護】福井県三方上中郡若狭町有田11-20-10", "url": "https://www.kaigokensaku.mhlw.go.jp/18/index.php?action_kouhyou_detail_004_kani=true&JigyosyoCd=1872400278-00&ServiceCd=110&Type=search", "url2": "https://www.s-a-care.co.jp" }, "geometry": { "type": "Point", "coordinates": [ 135.867302099999961, 35.484760699999981 ] } },
{ "type": "Feature", "properties": { "内容": "訪問介護よすが【訪問介護】福井県三方上中郡若狭町鳥浜28番地54号の2", "url": "https://www.kaigokensaku.mhlw.go.jp/18/index.php?action_kouhyou_detail_004_kani=true&JigyosyoCd=1872400328-00&ServiceCd=110&Type=search", "url2": "https://enishi-en.co.jp" }, "geometry": { "type": "Point", "coordinates": [ 135.909071922090078, 35.553815950302535 ] } }
]
}
