{
"type": "FeatureCollection",
"name": "geo_18_認知症対応型共同生活介護",
"crs": { "type": "name", "properties": { "name": "urn:ogc:def:crs:OGC:1.3:CRS84" } },
"features": [
{ "type": "Feature", "properties": { "内容": "グループホーム　のどか【認知症対応型共同生活介護】福井市文京２丁目６－１０　２Ｆ", "url": "https://www.kaigokensaku.mhlw.go.jp/18/index.php?action_kouhyou_detail_004_kani=true&JigyosyoCd=1870101167-00&ServiceCd=320&Type=search", "url2": "http://www.fmatsubara.com/" }, "geometry": { "type": "Point", "coordinates": [ 136.218105, 36.0774707 ] } },
{ "type": "Feature", "properties": { "内容": "いちご和えの里【認知症対応型共同生活介護】福井県福井市勝見３丁目２０－１２いちごの森　１階", "url": "https://www.kaigokensaku.mhlw.go.jp/18/index.php?action_kouhyou_detail_004_kani=true&JigyosyoCd=1890100736-00&ServiceCd=320&Type=search", "url2": "http://kenkoukai.or.jp/daycare/aenosato.html" }, "geometry": { "type": "Point", "coordinates": [ 136.233765700000049, 36.0536217 ] } },
{ "type": "Feature", "properties": { "内容": "グループホーム　花むつ【認知症対応型共同生活介護】福井県福井市花堂中1丁目5-6", "url": "https://www.kaigokensaku.mhlw.go.jp/18/index.php?action_kouhyou_detail_004_kani=true&JigyosyoCd=1890100231-00&ServiceCd=320&Type=search", "url2": null }, "geometry": { "type": "Point", "coordinates": [ 136.2154727, 36.0389602 ] } },
{ "type": "Feature", "properties": { "内容": "すのうどろっぷhope【認知症対応型共同生活介護】福井市和田東１丁目2218番地", "url": "https://www.kaigokensaku.mhlw.go.jp/18/index.php?action_kouhyou_detail_004_kani=true&JigyosyoCd=1870100896-00&ServiceCd=320&Type=search", "url2": "http://snow-dp.co.jp/" }, "geometry": { "type": "Point", "coordinates": [ 136.2479899, 36.0520945 ] } },
{ "type": "Feature", "properties": { "内容": "冨永グループホーム【認知症対応型共同生活介護】西木田3-5-13", "url": "https://www.kaigokensaku.mhlw.go.jp/18/index.php?action_kouhyou_detail_004_kani=true&JigyosyoCd=1870100953-00&ServiceCd=320&Type=search", "url2": "http://www5b.biglobe.ne.jp/~tomihp/" }, "geometry": { "type": "Point", "coordinates": [ 136.21197559999996, 36.0541377 ] } },
{ "type": "Feature", "properties": { "内容": "グループホームうらら【認知症対応型共同生活介護】福井県福井市木田1丁目3308", "url": "https://www.kaigokensaku.mhlw.go.jp/18/index.php?action_kouhyou_detail_004_kani=true&JigyosyoCd=1870101431-00&ServiceCd=320&Type=search", "url2": "http://www.hikarigroup.jp/" }, "geometry": { "type": "Point", "coordinates": [ 136.226638699999967, 36.0470307 ] } },
{ "type": "Feature", "properties": { "内容": "グループホーム　桜手苑【認知症対応型共同生活介護】福井県福井市大手2-22-18", "url": "https://www.kaigokensaku.mhlw.go.jp/18/index.php?action_kouhyou_detail_004_kani=true&JigyosyoCd=1890100942-00&ServiceCd=320&Type=search", "url2": "http://ooteen.org" }, "geometry": { "type": "Point", "coordinates": [ 136.224184899999955, 36.0666833 ] } },
{ "type": "Feature", "properties": { "内容": "認知症対応型共同生活介護事業所　やよいの森【認知症対応型共同生活介護】福井県福井市門前1丁目120番地", "url": "https://www.kaigokensaku.mhlw.go.jp/18/index.php?action_kouhyou_detail_004_kani=true&JigyosyoCd=1890100769-00&ServiceCd=320&Type=search", "url2": "http://www.aijuen.com/" }, "geometry": { "type": "Point", "coordinates": [ 136.1970493, 36.0479661 ] } },
{ "type": "Feature", "properties": { "内容": "グループホーム和【認知症対応型共同生活介護】福井県福井市若杉町２５－１８－１", "url": "https://www.kaigokensaku.mhlw.go.jp/18/index.php?action_kouhyou_detail_004_kani=true&JigyosyoCd=1890100777-00&ServiceCd=320&Type=search", "url2": "https://www.yushinkai291.com/" }, "geometry": { "type": "Point", "coordinates": [ 136.183436699999987, 36.05942 ] } },
{ "type": "Feature", "properties": { "内容": "グループホームあたご【認知症対応型共同生活介護】福井県福井市足羽5丁目5番17号", "url": "https://www.kaigokensaku.mhlw.go.jp/18/index.php?action_kouhyou_detail_004_kani=true&JigyosyoCd=1890100835-00&ServiceCd=320&Type=search", "url2": null }, "geometry": { "type": "Point", "coordinates": [ 136.198284222090138, 36.057939010144885 ] } },
{ "type": "Feature", "properties": { "内容": "グループホーム　あさむつの森【認知症対応型共同生活介護】福井市引目町21-9-2", "url": "https://www.kaigokensaku.mhlw.go.jp/18/index.php?action_kouhyou_detail_004_kani=true&JigyosyoCd=1890100678-00&ServiceCd=320&Type=search", "url2": "http://www.asamutuen.jp/" }, "geometry": { "type": "Point", "coordinates": [ 136.19742240000005, 36.022397 ] } },
{ "type": "Feature", "properties": { "内容": "グループホーム　らくや【認知症対応型共同生活介護】福井市上野本町1丁目3912番地グループホームらくや", "url": "https://www.kaigokensaku.mhlw.go.jp/18/index.php?action_kouhyou_detail_004_kani=true&JigyosyoCd=1890100116-00&ServiceCd=320&Type=search", "url2": "https://www.koyokai-fukui.com/care/rakuya2.php" }, "geometry": { "type": "Point", "coordinates": [ 136.23542245581973, 36.110792114110097 ] } },
{ "type": "Feature", "properties": { "内容": "グループホーム美山【認知症対応型共同生活介護】福井県福井市美山町6-1", "url": "https://www.kaigokensaku.mhlw.go.jp/18/index.php?action_kouhyou_detail_004_kani=true&JigyosyoCd=1890100702-00&ServiceCd=320&Type=search", "url2": "http://www.asuwafukushikai.jp/gh-miyama/" }, "geometry": { "type": "Point", "coordinates": [ 136.361467871966482, 35.998911724210309 ] } },
{ "type": "Feature", "properties": { "内容": "グループホーム翠【認知症対応型共同生活介護】福井県福井市堅達町24-1", "url": "https://www.kaigokensaku.mhlw.go.jp/18/index.php?action_kouhyou_detail_004_kani=true&JigyosyoCd=1890100744-00&ServiceCd=320&Type=search", "url2": "http://www.sansuien.jp/" }, "geometry": { "type": "Point", "coordinates": [ 136.271151300000042, 36.0749736 ] } },
{ "type": "Feature", "properties": { "内容": "ほのかな家【認知症対応型共同生活介護】三郎丸２丁目812番地", "url": "https://www.kaigokensaku.mhlw.go.jp/18/index.php?action_kouhyou_detail_004_kani=true&JigyosyoCd=1890100926-00&ServiceCd=320&Type=search", "url2": "http://www.care-unit.com/" }, "geometry": { "type": "Point", "coordinates": [ 136.19030762076261, 36.077398394789043 ] } },
{ "type": "Feature", "properties": { "内容": "グループホーム匠サテライト【認知症対応型共同生活介護】福井市下六条町217番地9", "url": "https://www.kaigokensaku.mhlw.go.jp/18/index.php?action_kouhyou_detail_004_kani=true&JigyosyoCd=1890101254-00&ServiceCd=320&Type=search", "url2": "https://koseikaigroup.jp/" }, "geometry": { "type": "Point", "coordinates": [ 136.2343711, 36.0369358 ] } },
{ "type": "Feature", "properties": { "内容": "グループホーム翠Ⅱ【認知症対応型共同生活介護】福井県福井市堅達町24ー1", "url": "https://www.kaigokensaku.mhlw.go.jp/18/index.php?action_kouhyou_detail_004_kani=true&JigyosyoCd=1890101288-00&ServiceCd=320&Type=search", "url2": "http://www.sansuien.jp/" }, "geometry": { "type": "Point", "coordinates": [ 136.271221363229358, 36.074641502340775 ] } },
{ "type": "Feature", "properties": { "内容": "グループホームあさくら【認知症対応型共同生活介護】福井市下六条町18-37", "url": "https://www.kaigokensaku.mhlw.go.jp/18/index.php?action_kouhyou_detail_004_kani=true&JigyosyoCd=1890100280-00&ServiceCd=320&Type=search", "url2": "http://www.asakuraen.jp" }, "geometry": { "type": "Point", "coordinates": [ 136.228556, 36.0351851 ] } },
{ "type": "Feature", "properties": { "内容": "グループホーム田園【認知症対応型共同生活介護】福井県福井市本堂町５１字３８番地－１", "url": "https://www.kaigokensaku.mhlw.go.jp/18/index.php?action_kouhyou_detail_004_kani=true&JigyosyoCd=1890100298-00&ServiceCd=320&Type=search", "url2": "http://www.takaoen.jp" }, "geometry": { "type": "Point", "coordinates": [ 136.127337099999977, 36.056725 ] } },
{ "type": "Feature", "properties": { "内容": "グループホームあさくらの家東郷【認知症対応型共同生活介護】福井県福井市東郷二ヶ町6-2-1", "url": "https://www.kaigokensaku.mhlw.go.jp/18/index.php?action_kouhyou_detail_004_kani=true&JigyosyoCd=1890100306-00&ServiceCd=320&Type=search", "url2": "http://www.asakuraen.jp" }, "geometry": { "type": "Point", "coordinates": [ 136.265164262565605, 36.019267872722324 ] } },
{ "type": "Feature", "properties": { "内容": "グループホーム匠【認知症対応型共同生活介護】福井市灯明寺4丁目1706番地", "url": "https://www.kaigokensaku.mhlw.go.jp/18/index.php?action_kouhyou_detail_004_kani=true&JigyosyoCd=1890100355-00&ServiceCd=320&Type=search", "url2": "http://www.koseikaigroup.jp/welfare/syousai/takumi_group.html" }, "geometry": { "type": "Point", "coordinates": [ 136.20856230000004, 36.0966962 ] } },
{ "type": "Feature", "properties": { "内容": "グループホームあそうづ【認知症対応型共同生活介護】福井市浅水三ケ町1-29-2", "url": "https://www.kaigokensaku.mhlw.go.jp/18/index.php?action_kouhyou_detail_004_kani=true&JigyosyoCd=1890100363-00&ServiceCd=320&Type=search", "url2": "http://www.hakusankai.sakura.ne.jp/" }, "geometry": { "type": "Point", "coordinates": [ 136.204383900000039, 36.0043355 ] } },
{ "type": "Feature", "properties": { "内容": "グループホーム　宝珠の郷【認知症対応型共同生活介護】福井市内山梨子町3-46", "url": "https://www.kaigokensaku.mhlw.go.jp/18/index.php?action_kouhyou_detail_004_kani=true&JigyosyoCd=1890100413-00&ServiceCd=320&Type=search", "url2": "http://www.houjuen.org/" }, "geometry": { "type": "Point", "coordinates": [ 136.157381500000042, 36.1340038 ] } },
{ "type": "Feature", "properties": { "内容": "いちご月見の里【認知症対応型共同生活介護】福井市月見４丁目２０－４７", "url": "https://www.kaigokensaku.mhlw.go.jp/18/index.php?action_kouhyou_detail_004_kani=true&JigyosyoCd=1890100421-00&ServiceCd=320&Type=search", "url2": "http://www.kenkoukai.or.jp/carehouse/tsukiminosato" }, "geometry": { "type": "Point", "coordinates": [ 136.2045488, 36.0453777 ] } },
{ "type": "Feature", "properties": { "内容": "グループホームふじしま【認知症対応型共同生活介護】福井市高木中央３－１７０１", "url": "https://www.kaigokensaku.mhlw.go.jp/18/index.php?action_kouhyou_detail_004_kani=true&JigyosyoCd=1890100439-00&ServiceCd=320&Type=search", "url2": "http://www.fujishimaen.or.jp/" }, "geometry": { "type": "Point", "coordinates": [ 136.240304599722322, 36.092132009881169 ] } },
{ "type": "Feature", "properties": { "内容": "グループホーム楓【認知症対応型共同生活介護】福井市大宮4丁目13番1号", "url": "https://www.kaigokensaku.mhlw.go.jp/18/index.php?action_kouhyou_detail_004_kani=true&JigyosyoCd=1890100447-00&ServiceCd=320&Type=search", "url2": "http://www.meipurucare.com/" }, "geometry": { "type": "Point", "coordinates": [ 136.208108099999976, 36.0818725 ] } },
{ "type": "Feature", "properties": { "内容": "グループホーム楽ちんの家　笑楽【認知症対応型共同生活介護】福井県　福井市　大久保町1-61", "url": "https://www.kaigokensaku.mhlw.go.jp/18/index.php?action_kouhyou_detail_004_kani=true&JigyosyoCd=1870103262-00&ServiceCd=320&Type=search", "url2": "http://www.rakuchinnoie.com" }, "geometry": { "type": "Point", "coordinates": [ 136.3346305, 36.0201348 ] } },
{ "type": "Feature", "properties": { "内容": "みどりの森グループホーム【認知症対応型共同生活介護】福井市文京２丁目６－１０介護保険施設みどりの森　2・3階", "url": "https://www.kaigokensaku.mhlw.go.jp/18/index.php?action_kouhyou_detail_004_kani=true&JigyosyoCd=1870101175-00&ServiceCd=320&Type=search", "url2": "http://www.fmatsubara.com/" }, "geometry": { "type": "Point", "coordinates": [ 136.218105, 36.0774707 ] } },
{ "type": "Feature", "properties": { "内容": "グループホームけんとく【認知症対応型共同生活介護】福井県福井市乾徳４丁目４－１８", "url": "https://www.kaigokensaku.mhlw.go.jp/18/index.php?action_kouhyou_detail_004_kani=true&JigyosyoCd=1850180025-00&ServiceCd=320&Type=search", "url2": "https://www.otaki-hp.or.jp/group/grouphome-kentoku/" }, "geometry": { "type": "Point", "coordinates": [ 136.205728599999929, 36.0718936 ] } },
{ "type": "Feature", "properties": { "内容": "グループホーム　幸の家【認知症対応型共同生活介護】福井市免鳥町第２２号７０番地", "url": "https://www.kaigokensaku.mhlw.go.jp/18/index.php?action_kouhyou_detail_004_kani=true&JigyosyoCd=1890100199-00&ServiceCd=320&Type=search", "url2": "http://www.yuwaen.jp" }, "geometry": { "type": "Point", "coordinates": [ 136.075032700000065, 36.131427 ] } },
{ "type": "Feature", "properties": { "内容": "愛全園グループホーム【認知症対応型共同生活介護】福井市丸山町40-7", "url": "https://www.kaigokensaku.mhlw.go.jp/18/index.php?action_kouhyou_detail_004_kani=true&JigyosyoCd=1890100611-00&ServiceCd=320&Type=search", "url2": "http://www.asuwafukushikai.jp/" }, "geometry": { "type": "Point", "coordinates": [ 136.251477600000044, 36.0776558 ] } },
{ "type": "Feature", "properties": { "内容": "二の丸苑　グループホーム【認知症対応型共同生活介護】福井県福井市大手2丁目21-3", "url": "https://www.kaigokensaku.mhlw.go.jp/18/index.php?action_kouhyou_detail_004_kani=true&JigyosyoCd=1890100553-00&ServiceCd=320&Type=search", "url2": "http://shinseikai-f.org/" }, "geometry": { "type": "Point", "coordinates": [ 136.222882, 36.066617 ] } },
{ "type": "Feature", "properties": { "内容": "グループホーム　たぶのき【認知症対応型共同生活介護】大願寺3丁目3-6", "url": "https://www.kaigokensaku.mhlw.go.jp/18/index.php?action_kouhyou_detail_004_kani=true&JigyosyoCd=1890100637-00&ServiceCd=320&Type=search", "url2": "http://fukui-youi.com/" }, "geometry": { "type": "Point", "coordinates": [ 136.228086316532881, 36.081711774590147 ] } },
{ "type": "Feature", "properties": { "内容": "グループホーム　レインボー灯明寺【認知症対応型共同生活介護】福井県福井市灯明寺町５９－１２－１", "url": "https://www.kaigokensaku.mhlw.go.jp/18/index.php?action_kouhyou_detail_004_kani=true&JigyosyoCd=1890100652-00&ServiceCd=320&Type=search", "url2": "http://rainbow-kaigo.com" }, "geometry": { "type": "Point", "coordinates": [ 136.221822777246103, 36.090615978599509 ] } },
{ "type": "Feature", "properties": { "内容": "グループホーム　レインボー２１【認知症対応型共同生活介護】福井県福井市高木中央3丁目1601番地", "url": "https://www.kaigokensaku.mhlw.go.jp/18/index.php?action_kouhyou_detail_004_kani=true&JigyosyoCd=1870101118-00&ServiceCd=320&Type=search", "url2": "http://rainbow-kaigo.com" }, "geometry": { "type": "Point", "coordinates": [ 136.240123, 36.0911257 ] } },
{ "type": "Feature", "properties": { "内容": "グループホーム　ゆうなぎ【認知症対応型共同生活介護】福井県福井市鮎川町９１－３７", "url": "https://www.kaigokensaku.mhlw.go.jp/18/index.php?action_kouhyou_detail_004_kani=true&JigyosyoCd=1890100140-00&ServiceCd=320&Type=search", "url2": "http://green-i.jp" }, "geometry": { "type": "Point", "coordinates": [ 136.032837200000017, 36.0910731 ] } },
{ "type": "Feature", "properties": { "内容": "県民せいきょう　岡保きらめきグループホーム【認知症対応型共同生活介護】福井市曽万布町7字18番1", "url": "https://www.kaigokensaku.mhlw.go.jp/18/index.php?action_kouhyou_detail_004_kani=true&JigyosyoCd=1890100629-00&ServiceCd=320&Type=search", "url2": "http://www.fukui.coop/" }, "geometry": { "type": "Point", "coordinates": [ 136.262756099999933, 36.043043 ] } },
{ "type": "Feature", "properties": { "内容": "グループホームしみず【認知症対応型共同生活介護】福井市竹生町32-48", "url": "https://www.kaigokensaku.mhlw.go.jp/18/index.php?action_kouhyou_detail_004_kani=true&JigyosyoCd=1890100207-00&ServiceCd=320&Type=search", "url2": "http://www.jinnai-cs.co.jp" }, "geometry": { "type": "Point", "coordinates": [ 136.157115710450711, 36.048119341191587 ] } },
{ "type": "Feature", "properties": { "内容": "認知症対応型共同生活介護事業所　アイホームらくらく【認知症対応型共同生活介護】福井県敦賀市結城町１３番２４号", "url": "https://www.kaigokensaku.mhlw.go.jp/18/index.php?action_kouhyou_detail_004_kani=true&JigyosyoCd=1890200031-00&ServiceCd=320&Type=search", "url2": "https://ihome-csi.localinfo.jp/" }, "geometry": { "type": "Point", "coordinates": [ 136.06413950000001, 35.6550381 ] } },
{ "type": "Feature", "properties": { "内容": "敦賀ケアセンターかくだ「あずさ」【認知症対応型共同生活介護】福井県敦賀市新松島町8番30号", "url": "https://www.kaigokensaku.mhlw.go.jp/18/index.php?action_kouhyou_detail_004_kani=true&JigyosyoCd=1870200035-00&ServiceCd=320&Type=search", "url2": "http://kakuda4141.co.jp" }, "geometry": { "type": "Point", "coordinates": [ 136.054236580950942, 35.648421453282921 ] } },
{ "type": "Feature", "properties": { "内容": "敦賀ケアセンターかくだ「はるか」【認知症対応型共同生活介護】福井県敦賀市昭和町二丁目20番地16", "url": "https://www.kaigokensaku.mhlw.go.jp/18/index.php?action_kouhyou_detail_004_kani=true&JigyosyoCd=1870200159-00&ServiceCd=320&Type=search", "url2": "http://care-net.biz/18/kakuda/" }, "geometry": { "type": "Point", "coordinates": [ 136.05864889999998, 35.6396644 ] } },
{ "type": "Feature", "properties": { "内容": "グループホームつくし【認知症対応型共同生活介護】福井県敦賀市天筒町８－５５グループホームつくし", "url": "https://www.kaigokensaku.mhlw.go.jp/18/index.php?action_kouhyou_detail_004_kani=true&JigyosyoCd=1870200217-00&ServiceCd=320&Type=search", "url2": "http://www1.rcn.ne.jp/~kanawasakai/" }, "geometry": { "type": "Point", "coordinates": [ 136.07766, 35.6576328 ] } },
{ "type": "Feature", "properties": { "内容": "認知症対応型共同生活介護　グループホーム　ひなた【認知症対応型共同生活介護】福井県敦賀市衣掛町420番", "url": "https://www.kaigokensaku.mhlw.go.jp/18/index.php?action_kouhyou_detail_004_kani=true&JigyosyoCd=1890200205-00&ServiceCd=320&Type=search", "url2": null }, "geometry": { "type": "Point", "coordinates": [ 136.071915699999977, 35.6310238 ] } },
{ "type": "Feature", "properties": { "内容": "グループホーム　さと【認知症対応型共同生活介護】福井県敦賀市鋳物師町12－16－5", "url": "https://www.kaigokensaku.mhlw.go.jp/18/index.php?action_kouhyou_detail_004_kani=true&JigyosyoCd=1890200189-00&ServiceCd=320&Type=search", "url2": "http://www.fukushika.com" }, "geometry": { "type": "Point", "coordinates": [ 136.05400469999995, 35.6507244 ] } },
{ "type": "Feature", "properties": { "内容": "グループホームみつばち【認知症対応型共同生活介護】福井県敦賀市野坂２０－１", "url": "https://www.kaigokensaku.mhlw.go.jp/18/index.php?action_kouhyou_detail_004_kani=true&JigyosyoCd=1890200023-00&ServiceCd=320&Type=search", "url2": "mitsubachi-nosaka.jimdosite.com" }, "geometry": { "type": "Point", "coordinates": [ 136.0306746, 35.6169113 ] } },
{ "type": "Feature", "properties": { "内容": "グループホームどりぃむはうす【認知症対応型共同生活介護】福井県敦賀市長谷３６号３番地1", "url": "https://www.kaigokensaku.mhlw.go.jp/18/index.php?action_kouhyou_detail_004_kani=true&JigyosyoCd=1890200056-00&ServiceCd=320&Type=search", "url2": null }, "geometry": { "type": "Point", "coordinates": [ 136.040745600000037, 35.6128646 ] } },
{ "type": "Feature", "properties": { "内容": "和の家えがお【認知症対応型共同生活介護】福井県敦賀市公文名1号6番", "url": "https://www.kaigokensaku.mhlw.go.jp/18/index.php?action_kouhyou_detail_004_kani=true&JigyosyoCd=1890200148-00&ServiceCd=320&Type=search", "url2": "http://www.fukui-min-iren.com/iryouseikyou/" }, "geometry": { "type": "Point", "coordinates": [ 136.060157200000049, 35.623019 ] } },
{ "type": "Feature", "properties": { "内容": "県民せいきょう結城きらめきグループホーム【認知症対応型共同生活介護】福井県敦賀市結城町13番24号", "url": "https://www.kaigokensaku.mhlw.go.jp/18/index.php?action_kouhyou_detail_004_kani=true&JigyosyoCd=1890200296-00&ServiceCd=320&Type=search", "url2": "http://www.fukui.coop/" }, "geometry": { "type": "Point", "coordinates": [ 136.063987472014333, 35.655208948339862 ] } },
{ "type": "Feature", "properties": { "内容": "グループホーム　明峰夢【認知症対応型共同生活介護】福井県敦賀市津内町3丁目7-17グループホーム　明峰夢", "url": "https://www.kaigokensaku.mhlw.go.jp/18/index.php?action_kouhyou_detail_004_kani=true&JigyosyoCd=1890200130-00&ServiceCd=320&Type=search", "url2": "http://www.meihoukai.com/" }, "geometry": { "type": "Point", "coordinates": [ 136.069986200000017, 35.6481056 ] } },
{ "type": "Feature", "properties": { "内容": "グループホーム　あかり苑【認知症対応型共同生活介護】福井県敦賀市高野２－１－１", "url": "https://www.kaigokensaku.mhlw.go.jp/18/index.php?action_kouhyou_detail_004_kani=true&JigyosyoCd=1890200049-00&ServiceCd=320&Type=search", "url2": "https://kjinkai.jp/facility/akarien/group-home/" }, "geometry": { "type": "Point", "coordinates": [ 136.0873623, 35.635835 ] } },
{ "type": "Feature", "properties": { "内容": "グループホーム幸【認知症対応型共同生活介護】福井県敦賀市鋳物師町１９０４－１", "url": "https://www.kaigokensaku.mhlw.go.jp/18/index.php?action_kouhyou_detail_004_kani=true&JigyosyoCd=1890200098-00&ServiceCd=320&Type=search", "url2": "http://fukushika.com" }, "geometry": { "type": "Point", "coordinates": [ 136.052310499999976, 35.649955 ] } },
{ "type": "Feature", "properties": { "内容": "グループホーム　まんさく【認知症対応型共同生活介護】福井県敦賀市公文名５２号３－１", "url": "https://www.kaigokensaku.mhlw.go.jp/18/index.php?action_kouhyou_detail_004_kani=true&JigyosyoCd=1890200288-00&ServiceCd=320&Type=search", "url2": "https://kjinkai.jp/" }, "geometry": { "type": "Point", "coordinates": [ 136.051659300663744, 35.615321964465522 ] } },
{ "type": "Feature", "properties": { "内容": "グループホーム　ひまわりの郷【認知症対応型共同生活介護】福井県小浜市加茂2-52", "url": "https://www.kaigokensaku.mhlw.go.jp/18/index.php?action_kouhyou_detail_004_kani=true&JigyosyoCd=1890400011-00&ServiceCd=320&Type=search", "url2": "http://www.sekishin-himawari.or.jp/" }, "geometry": { "type": "Point", "coordinates": [ 135.8215993, 35.4924896 ] } },
{ "type": "Feature", "properties": { "内容": "グループホーム　おあしす【認知症対応型共同生活介護】福井県　小浜市　雲浜　1丁目　8番　8号", "url": "https://www.kaigokensaku.mhlw.go.jp/18/index.php?action_kouhyou_detail_004_kani=true&JigyosyoCd=1870400205-00&ServiceCd=320&Type=search", "url2": "http://homeoasis.jp/" }, "geometry": { "type": "Point", "coordinates": [ 135.750401900000043, 35.5094139 ] } },
{ "type": "Feature", "properties": { "内容": "グループホーム　一乗ハイム【認知症対応型共同生活介護】福井県大野市明倫町　6-8", "url": "https://www.kaigokensaku.mhlw.go.jp/18/index.php?action_kouhyou_detail_004_kani=true&JigyosyoCd=1890500059-00&ServiceCd=320&Type=search", "url2": null }, "geometry": { "type": "Point", "coordinates": [ 136.488369199999966, 35.9835802 ] } },
{ "type": "Feature", "properties": { "内容": "認知症対応型共同生活介護　グループホーム　くつろぎ【認知症対応型共同生活介護】福井県大野市中据　12-17", "url": "https://www.kaigokensaku.mhlw.go.jp/18/index.php?action_kouhyou_detail_004_kani=true&JigyosyoCd=1890500166-00&ServiceCd=320&Type=search", "url2": null }, "geometry": { "type": "Point", "coordinates": [ 136.509117939811716, 35.963537250507123 ] } },
{ "type": "Feature", "properties": { "内容": "県民せいきょう大野きらめきグループホーム【認知症対応型共同生活介護】福井県大野市天神町3番21号", "url": "https://www.kaigokensaku.mhlw.go.jp/18/index.php?action_kouhyou_detail_004_kani=true&JigyosyoCd=1890500208-00&ServiceCd=320&Type=search", "url2": "http://www.fukui.coop/" }, "geometry": { "type": "Point", "coordinates": [ 136.4885882, 35.9789773 ] } },
{ "type": "Feature", "properties": { "内容": "グループホーム　けいあい【認知症対応型共同生活介護】福井県大野市牛ヶ原154-1-1", "url": "https://www.kaigokensaku.mhlw.go.jp/18/index.php?action_kouhyou_detail_004_kani=true&JigyosyoCd=1870500137-00&ServiceCd=320&Type=search", "url2": null }, "geometry": { "type": "Point", "coordinates": [ 136.465544168647739, 35.993813884212685 ] } },
{ "type": "Feature", "properties": { "内容": "グループホームさくら日和【認知症対応型共同生活介護】福井県大野市中津川32-33", "url": "https://www.kaigokensaku.mhlw.go.jp/18/index.php?action_kouhyou_detail_004_kani=true&JigyosyoCd=1890500083-00&ServiceCd=320&Type=search", "url2": "http://koseikaigroup.jp" }, "geometry": { "type": "Point", "coordinates": [ 140.289014700000052, 36.1729748 ] } },
{ "type": "Feature", "properties": { "内容": "グループホームしずく【認知症対応型共同生活介護】福井県勝山市元町3丁目5-4", "url": "https://www.kaigokensaku.mhlw.go.jp/18/index.php?action_kouhyou_detail_004_kani=true&JigyosyoCd=1890600115-00&ServiceCd=320&Type=search", "url2": null }, "geometry": { "type": "Point", "coordinates": [ 136.504268157147237, 36.054327018043807 ] } },
{ "type": "Feature", "properties": { "内容": "グループホームはなみずき【認知症対応型共同生活介護】福井県勝山市立川町１丁目１１番２４号", "url": "https://www.kaigokensaku.mhlw.go.jp/18/index.php?action_kouhyou_detail_004_kani=true&JigyosyoCd=1890600024-00&ServiceCd=320&Type=search", "url2": "https://www.hanamizuki-katsuyama.jp/" }, "geometry": { "type": "Point", "coordinates": [ 136.499664899999971, 36.0544568 ] } },
{ "type": "Feature", "properties": { "内容": "愛の家グループホーム勝山荒土【認知症対応型共同生活介護】福井県勝山市荒土町新保10号１０９番地２", "url": "https://www.kaigokensaku.mhlw.go.jp/18/index.php?action_kouhyou_detail_004_kani=true&JigyosyoCd=1890600032-00&ServiceCd=320&Type=search", "url2": "http://www.mcsg.co.jp" }, "geometry": { "type": "Point", "coordinates": [ 136.482657499999959, 36.0731959 ] } },
{ "type": "Feature", "properties": { "内容": "愛の家グループホーム勝山野向【認知症対応型共同生活介護】福井県勝山市野向町深谷４２－３－２", "url": "https://www.kaigokensaku.mhlw.go.jp/18/index.php?action_kouhyou_detail_004_kani=true&JigyosyoCd=1890600040-00&ServiceCd=320&Type=search", "url2": "http://www.mcsg.co.jp/" }, "geometry": { "type": "Point", "coordinates": [ 136.503210299999978, 36.0923215 ] } },
{ "type": "Feature", "properties": { "内容": "ニチイケアセンター糺さくら【認知症対応型共同生活介護】福井県鯖江市糺町14-6", "url": "https://www.kaigokensaku.mhlw.go.jp/18/index.php?action_kouhyou_detail_004_kani=true&JigyosyoCd=1890700170-00&ServiceCd=320&Type=search", "url2": null }, "geometry": { "type": "Point", "coordinates": [ 136.1700128, 35.9748146 ] } },
{ "type": "Feature", "properties": { "内容": "グループホームおしどり【認知症対応型共同生活介護】福井県鯖江市別司町41-30", "url": "https://www.kaigokensaku.mhlw.go.jp/18/index.php?action_kouhyou_detail_004_kani=true&JigyosyoCd=1890700022-00&ServiceCd=320&Type=search", "url2": "http://www.touyoukai.or.jp" }, "geometry": { "type": "Point", "coordinates": [ 136.260332400000038, 35.947612 ] } },
{ "type": "Feature", "properties": { "内容": "きらめきの里鯖江【認知症対応型共同生活介護】福井県鯖江市小黒町3丁目1009番", "url": "https://www.kaigokensaku.mhlw.go.jp/18/index.php?action_kouhyou_detail_004_kani=true&JigyosyoCd=1890700139-00&ServiceCd=320&Type=search", "url2": "https://www.fukui.coop/kirameki-fukushikai/" }, "geometry": { "type": "Point", "coordinates": [ 136.173175242852807, 35.955734305500044 ] } },
{ "type": "Feature", "properties": { "内容": "グループホームさばえ【認知症対応型共同生活介護】鯖江市旭町4丁目９-１０介護医療院かがやき", "url": "https://www.kaigokensaku.mhlw.go.jp/18/index.php?action_kouhyou_detail_004_kani=true&JigyosyoCd=1870700026-00&ServiceCd=320&Type=search", "url2": "https://www.jujinkai.or.jp/zaitaku" }, "geometry": { "type": "Point", "coordinates": [ 136.188246710589624, 35.950097872013721 ] } },
{ "type": "Feature", "properties": { "内容": "エレガントセニールルーエ【認知症対応型共同生活介護】福井県鯖江市吉江町３１－７－１", "url": "https://www.kaigokensaku.mhlw.go.jp/18/index.php?action_kouhyou_detail_004_kani=true&JigyosyoCd=1890700121-00&ServiceCd=320&Type=search", "url2": null }, "geometry": { "type": "Point", "coordinates": [ 136.1682687, 35.9867846 ] } },
{ "type": "Feature", "properties": { "内容": "県民せいきょう鯖江きらめきグループホーム【認知症対応型共同生活介護】小黒町3丁目10-21", "url": "https://www.kaigokensaku.mhlw.go.jp/18/index.php?action_kouhyou_detail_004_kani=true&JigyosyoCd=1890700105-00&ServiceCd=320&Type=search", "url2": "http://www.fukui.coop/" }, "geometry": { "type": "Point", "coordinates": [ 136.173614303704881, 35.955722455026418 ] } },
{ "type": "Feature", "properties": { "内容": "グループホーム　つつじ【認知症対応型共同生活介護】福井県鯖江市水落町３丁目６－３３", "url": "https://www.kaigokensaku.mhlw.go.jp/18/index.php?action_kouhyou_detail_004_kani=true&JigyosyoCd=1890700048-00&ServiceCd=320&Type=search", "url2": "http://www.tutujien.or.jp/" }, "geometry": { "type": "Point", "coordinates": [ 136.181951900000058, 35.9667155 ] } },
{ "type": "Feature", "properties": { "内容": "グループホーム　とものいえ【認知症対応型共同生活介護】福井県あわら市二面2丁目302番地", "url": "https://www.kaigokensaku.mhlw.go.jp/18/index.php?action_kouhyou_detail_004_kani=true&JigyosyoCd=1890800061-00&ServiceCd=320&Type=search", "url2": "http://www.naruza.jp/" }, "geometry": { "type": "Point", "coordinates": [ 136.200612307405436, 36.227177519503584 ] } },
{ "type": "Feature", "properties": { "内容": "グループホーム　あわら聖徳園【認知症対応型共同生活介護】福井県あわら市田中々３－２５－７", "url": "https://www.kaigokensaku.mhlw.go.jp/18/index.php?action_kouhyou_detail_004_kani=true&JigyosyoCd=1890800012-00&ServiceCd=320&Type=search", "url2": "http://www.shotokuen.or.jp/" }, "geometry": { "type": "Point", "coordinates": [ 136.197489099999984, 36.2211843 ] } },
{ "type": "Feature", "properties": { "内容": "福井県民せいきょう　金津きらめき　グループホーム【認知症対応型共同生活介護】福井県あわら市大溝3丁目11番7号", "url": "https://www.kaigokensaku.mhlw.go.jp/18/index.php?action_kouhyou_detail_004_kani=true&JigyosyoCd=1890800087-00&ServiceCd=320&Type=search", "url2": "https://www.fukui.coop/care/shisetsu/kanazu-kirameki/" }, "geometry": { "type": "Point", "coordinates": [ 136.2255165, 36.2070906 ] } },
{ "type": "Feature", "properties": { "内容": "ウエルネス木村【認知症対応型共同生活介護】福井県あわら市自由ケ丘２－１５－２３", "url": "https://www.kaigokensaku.mhlw.go.jp/18/index.php?action_kouhyou_detail_004_kani=true&JigyosyoCd=1870800123-00&ServiceCd=320&Type=search", "url2": "http://www.s-fukushi.or.jp/wellness/" }, "geometry": { "type": "Point", "coordinates": [ 136.235882800000013, 36.2182995 ] } },
{ "type": "Feature", "properties": { "内容": "グループホームらいふ【認知症対応型共同生活介護】福井県越前市横根町12-4-1", "url": "https://www.kaigokensaku.mhlw.go.jp/18/index.php?action_kouhyou_detail_004_kani=true&JigyosyoCd=1890300252-00&ServiceCd=320&Type=search", "url2": "http://lifemore.ne.jp/" }, "geometry": { "type": "Point", "coordinates": [ 136.134594754329015, 35.909154025391175 ] } },
{ "type": "Feature", "properties": { "内容": "極ほっと倶楽部【認知症対応型共同生活介護】福井県越前市高木町111-2地域包括ケアセンター", "url": "https://www.kaigokensaku.mhlw.go.jp/18/index.php?action_kouhyou_detail_004_kani=true&JigyosyoCd=1890300153-00&ServiceCd=320&Type=search", "url2": "http://hotreha.com/" }, "geometry": { "type": "Point", "coordinates": [ 136.191646740034088, 35.918616666282496 ] } },
{ "type": "Feature", "properties": { "内容": "県民せいきょう丹南きらめきグループホーム【認知症対応型共同生活介護】家久町49-4-1", "url": "https://www.kaigokensaku.mhlw.go.jp/18/index.php?action_kouhyou_detail_004_kani=true&JigyosyoCd=1890300328-00&ServiceCd=320&Type=search", "url2": "https://www.fukui.coop/" }, "geometry": { "type": "Point", "coordinates": [ 136.166340363754273, 35.931428779876619 ] } },
{ "type": "Feature", "properties": { "内容": "グループホーム　藤の園【認知症対応型共同生活介護】福井県越前市北府３丁目１０番２１号", "url": "https://www.kaigokensaku.mhlw.go.jp/18/index.php?action_kouhyou_detail_004_kani=true&JigyosyoCd=1870300199-00&ServiceCd=320&Type=search", "url2": null }, "geometry": { "type": "Point", "coordinates": [ 136.1652411, 35.9129084 ] } },
{ "type": "Feature", "properties": { "内容": "アクティブケアーあいの樹【認知症対応型共同生活介護】福井県越前市小松１－５－４", "url": "https://www.kaigokensaku.mhlw.go.jp/18/index.php?action_kouhyou_detail_004_kani=true&JigyosyoCd=1870300280-00&ServiceCd=320&Type=search", "url2": "http://aiki-hp.jp/" }, "geometry": { "type": "Point", "coordinates": [ 136.155747799999972, 35.9041342 ] } },
{ "type": "Feature", "properties": { "内容": "ラポールわかたけ【認知症対応型共同生活介護】福井県越前市瓜生町33-15-1", "url": "https://www.kaigokensaku.mhlw.go.jp/18/index.php?action_kouhyou_detail_004_kani=true&JigyosyoCd=1870300314-00&ServiceCd=320&Type=search", "url2": "http://www.wakatake.ne.jp/" }, "geometry": { "type": "Point", "coordinates": [ 136.178509100000042, 35.9242241 ] } },
{ "type": "Feature", "properties": { "内容": "グループホームらくらく【認知症対応型共同生活介護】越前市稲寄町１２－８－５", "url": "https://www.kaigokensaku.mhlw.go.jp/18/index.php?action_kouhyou_detail_004_kani=true&JigyosyoCd=1870300330-00&ServiceCd=320&Type=search", "url2": "http://ichibankaigo.jp/" }, "geometry": { "type": "Point", "coordinates": [ 136.182864399999971, 35.9189194 ] } },
{ "type": "Feature", "properties": { "内容": "グループホーム　藤の都【認知症対応型共同生活介護】福井県越前市北府３丁目７番２５号", "url": "https://www.kaigokensaku.mhlw.go.jp/18/index.php?action_kouhyou_detail_004_kani=true&JigyosyoCd=1870300272-00&ServiceCd=320&Type=search", "url2": null }, "geometry": { "type": "Point", "coordinates": [ 136.163849600000049, 35.9131306 ] } },
{ "type": "Feature", "properties": { "内容": "認知症対応型共同生活介護　ゆうゆうの家（介護予防含む）【認知症対応型共同生活介護】福井県越前市粟田部町42-6-1", "url": "https://www.kaigokensaku.mhlw.go.jp/18/index.php?action_kouhyou_detail_004_kani=true&JigyosyoCd=1890300211-00&ServiceCd=320&Type=search", "url2": null }, "geometry": { "type": "Point", "coordinates": [ 136.239419538623082, 35.915107835960448 ] } },
{ "type": "Feature", "properties": { "内容": "グループホームまるおか【認知症対応型共同生活介護】福井県坂井市丸岡町八ヵ郷23号19番３", "url": "https://www.kaigokensaku.mhlw.go.jp/18/index.php?action_kouhyou_detail_004_kani=true&JigyosyoCd=1891700047-00&ServiceCd=320&Type=search", "url2": "http://www.life-sp.jp" }, "geometry": { "type": "Point", "coordinates": [ 136.279836599999953, 36.1553225 ] } },
{ "type": "Feature", "properties": { "内容": "認知症対応型共同生活介護グループホームみやざき【認知症対応型共同生活介護】坂井市三国町北本町2-2-6", "url": "https://www.kaigokensaku.mhlw.go.jp/18/index.php?action_kouhyou_detail_004_kani=true&JigyosyoCd=1891700104-00&ServiceCd=320&Type=search", "url2": "http://www.miyazaki-hp.com/" }, "geometry": { "type": "Point", "coordinates": [ 136.149079300000039, 36.2163367 ] } },
{ "type": "Feature", "properties": { "内容": "県民せいきょう坂井きらめきグループホーム【認知症対応型共同生活介護】坂井市坂井町大味56号", "url": "https://www.kaigokensaku.mhlw.go.jp/18/index.php?action_kouhyou_detail_004_kani=true&JigyosyoCd=1891700138-00&ServiceCd=320&Type=search", "url2": "https://www.fukui.coop/care/shisetsu/sakai-kirameki/" }, "geometry": { "type": "Point", "coordinates": [ 136.195449100000019, 36.1849659 ] } },
{ "type": "Feature", "properties": { "内容": "認知症対応型共同生活介護　潟池野【認知症対応型共同生活介護】坂井町下関42-4-2", "url": "https://www.kaigokensaku.mhlw.go.jp/18/index.php?action_kouhyou_detail_004_kani=true&JigyosyoCd=1891700153-00&ServiceCd=320&Type=search", "url2": "https://s-fukushi.or.jp/kataikeno/" }, "geometry": { "type": "Point", "coordinates": [ 136.228387200000043, 36.1908443 ] } },
{ "type": "Feature", "properties": { "内容": "グループホーム　しおんの里【認知症対応型共同生活介護】丸岡町安田新４－３－１", "url": "https://www.kaigokensaku.mhlw.go.jp/18/index.php?action_kouhyou_detail_004_kani=true&JigyosyoCd=1891700161-00&ServiceCd=320&Type=search", "url2": "https://sionnosato.p-kit.com" }, "geometry": { "type": "Point", "coordinates": [ 136.265489399999979, 36.1262784 ] } },
{ "type": "Feature", "properties": { "内容": "あかねの里【認知症対応型共同生活介護】福井県坂井市丸岡町羽崎31-11-3", "url": "https://www.kaigokensaku.mhlw.go.jp/18/index.php?action_kouhyou_detail_004_kani=true&JigyosyoCd=1871700272-00&ServiceCd=320&Type=search", "url2": "http://akanekai.net" }, "geometry": { "type": "Point", "coordinates": [ 136.262623500000018, 36.1151158 ] } },
{ "type": "Feature", "properties": { "内容": "グループホーム白楽荘　みくにの里【認知症対応型共同生活介護】福井県坂井市三国町梶49-18", "url": "https://www.kaigokensaku.mhlw.go.jp/18/index.php?action_kouhyou_detail_004_kani=true&JigyosyoCd=1871700132-00&ServiceCd=320&Type=search", "url2": "http://www.hakurakuso.com" }, "geometry": { "type": "Point", "coordinates": [ 136.154840993778976, 36.246853582451095 ] } },
{ "type": "Feature", "properties": { "内容": "グループホームさかい【認知症対応型共同生活介護】福井県坂井市坂井町折戸第１号５８番地", "url": "https://www.kaigokensaku.mhlw.go.jp/18/index.php?action_kouhyou_detail_004_kani=true&JigyosyoCd=1871700397-00&ServiceCd=320&Type=search", "url2": null }, "geometry": { "type": "Point", "coordinates": [ 136.170241199999964, 36.1713585 ] } },
{ "type": "Feature", "properties": { "内容": "グループホームゆり【認知症対応型共同生活介護】坂井市春江町本堂27-1-1", "url": "https://www.kaigokensaku.mhlw.go.jp/18/index.php?action_kouhyou_detail_004_kani=true&JigyosyoCd=1891700120-00&ServiceCd=320&Type=search", "url2": "http://sakairaiharukai.jimdo.com/" }, "geometry": { "type": "Point", "coordinates": [ 136.203898, 36.1387777 ] } },
{ "type": "Feature", "properties": { "内容": "春江ホームやわらぎ【認知症対応型共同生活介護】福井県坂井市春江町西長田15-43-4", "url": "https://www.kaigokensaku.mhlw.go.jp/18/index.php?action_kouhyou_detail_004_kani=true&JigyosyoCd=1891700245-00&ServiceCd=320&Type=search", "url2": "https://rokujyokoseikai.jp" }, "geometry": { "type": "Point", "coordinates": [ 136.209632199999987, 36.1533339 ] } },
{ "type": "Feature", "properties": { "内容": "グループホーム　かがやき荘【認知症対応型共同生活介護】福井県坂井市三国町陣ケ岡第13号3番地", "url": "https://www.kaigokensaku.mhlw.go.jp/18/index.php?action_kouhyou_detail_004_kani=true&JigyosyoCd=1891700187-00&ServiceCd=320&Type=search", "url2": "http://www.sumiresou.jp/index.php?id=76" }, "geometry": { "type": "Point", "coordinates": [ 136.137207747360208, 36.235143550515247 ] } },
{ "type": "Feature", "properties": { "内容": "グループホーム　はないろ【認知症対応型共同生活介護】福井県吉田郡永平寺町松岡薬師1丁目149番地", "url": "https://www.kaigokensaku.mhlw.go.jp/18/index.php?action_kouhyou_detail_004_kani=true&JigyosyoCd=1891600049-00&ServiceCd=320&Type=search", "url2": null }, "geometry": { "type": "Point", "coordinates": [ 136.305939273016349, 36.096192276175074 ] } },
{ "type": "Feature", "properties": { "内容": "グループホームなないろ【認知症対応型共同生活介護】福井県吉田郡永平寺町松岡薬師1－145", "url": "https://www.kaigokensaku.mhlw.go.jp/18/index.php?action_kouhyou_detail_004_kani=true&JigyosyoCd=1891600031-00&ServiceCd=320&Type=search", "url2": null }, "geometry": { "type": "Point", "coordinates": [ 136.30589016067529, 36.096237668352074 ] } },
{ "type": "Feature", "properties": { "内容": "グループホームなないろ【認知症対応型共同生活介護】福井県吉田郡永平寺町松岡薬師1丁目145番地", "url": "https://www.kaigokensaku.mhlw.go.jp/18/index.php?action_kouhyou_detail_004_kani=true&JigyosyoCd=1891600056-00&ServiceCd=320&Type=search", "url2": "https://care-fukui.com" }, "geometry": { "type": "Point", "coordinates": [ 136.3059321, 36.0961674 ] } },
{ "type": "Feature", "properties": { "内容": "グループホームはないろ【認知症対応型共同生活介護】福井県吉田郡永平寺町松岡薬師１丁目149番地", "url": "https://www.kaigokensaku.mhlw.go.jp/18/index.php?action_kouhyou_detail_004_kani=true&JigyosyoCd=1891600064-00&ServiceCd=320&Type=search", "url2": "https://care-fukui.com" }, "geometry": { "type": "Point", "coordinates": [ 136.3058749, 36.0967341 ] } },
{ "type": "Feature", "properties": { "内容": "グループホーム　りんごの木【認知症対応型共同生活介護】福井県吉田郡永平寺町松岡松ヶ原1-308", "url": "https://www.kaigokensaku.mhlw.go.jp/18/index.php?action_kouhyou_detail_004_kani=true&JigyosyoCd=1891600015-00&ServiceCd=320&Type=search", "url2": "https://www.ringoemori.com/" }, "geometry": { "type": "Point", "coordinates": [ 136.290249300000028, 36.0946725 ] } },
{ "type": "Feature", "properties": { "内容": "グループホーム　いけだ【認知症対応型共同生活介護】福井県今立郡池田町常安２２－５", "url": "https://www.kaigokensaku.mhlw.go.jp/18/index.php?action_kouhyou_detail_004_kani=true&JigyosyoCd=1891800011-00&ServiceCd=320&Type=search", "url2": null }, "geometry": { "type": "Point", "coordinates": [ 136.343196400000011, 35.8778463 ] } },
{ "type": "Feature", "properties": { "内容": "認知症高齢者グループホーム　こうの【認知症対応型共同生活介護】福井県南条郡南越前町河野２９－５－６２", "url": "https://www.kaigokensaku.mhlw.go.jp/18/index.php?action_kouhyou_detail_004_kani=true&JigyosyoCd=1891900027-00&ServiceCd=320&Type=search", "url2": "http://kouno-f.com/" }, "geometry": { "type": "Point", "coordinates": [ 136.082585699999981, 35.8222183 ] } },
{ "type": "Feature", "properties": { "内容": "ふれあい大地【認知症対応型共同生活介護】福井県南条郡南越前町今庄７７号１１番１", "url": "https://www.kaigokensaku.mhlw.go.jp/18/index.php?action_kouhyou_detail_004_kani=true&JigyosyoCd=1891900019-00&ServiceCd=320&Type=search", "url2": null }, "geometry": { "type": "Point", "coordinates": [ 136.198334799999969, 35.7801458 ] } },
{ "type": "Feature", "properties": { "内容": "アクティブケアー宮崎【認知症対応型共同生活介護】福井県丹生郡越前町小曽原３３－３４", "url": "https://www.kaigokensaku.mhlw.go.jp/18/index.php?action_kouhyou_detail_004_kani=true&JigyosyoCd=1872000409-00&ServiceCd=320&Type=search", "url2": "http://silver-h-miyazaki.jp" }, "geometry": { "type": "Point", "coordinates": [ 136.066392400000041, 35.9291563 ] } },
{ "type": "Feature", "properties": { "内容": "(㈱)ケアネット越前　グループホームのどか【認知症対応型共同生活介護】福井県丹生郡越前町厨７０－２０６－４木造平屋　１８室", "url": "https://www.kaigokensaku.mhlw.go.jp/18/index.php?action_kouhyou_detail_004_kani=true&JigyosyoCd=1892000025-00&ServiceCd=320&Type=search", "url2": null }, "geometry": { "type": "Point", "coordinates": [ 135.996111403704873, 35.912237377648829 ] } },
{ "type": "Feature", "properties": { "内容": "グループホームやすらぎ【認知症対応型共同生活介護】福井県丹生郡越前町織田102-81", "url": "https://www.kaigokensaku.mhlw.go.jp/18/index.php?action_kouhyou_detail_004_kani=true&JigyosyoCd=1872000276-00&ServiceCd=320&Type=search", "url2": "http://ota-yasuragikai.com" }, "geometry": { "type": "Point", "coordinates": [ 136.051505203047952, 35.958391517348517 ] } },
{ "type": "Feature", "properties": { "内容": "グループホーム　湖岳の郷【認知症対応型共同生活介護】福井県三方郡美浜町早瀬7－31－5", "url": "https://www.kaigokensaku.mhlw.go.jp/18/index.php?action_kouhyou_detail_004_kani=true&JigyosyoCd=1892100023-00&ServiceCd=320&Type=search", "url2": "http://kogakunosato.jp/" }, "geometry": { "type": "Point", "coordinates": [ 135.908161899999982, 35.6132923 ] } },
{ "type": "Feature", "properties": { "内容": "認知症対応型グループホーム五湖の郷【認知症対応型共同生活介護】福井県三方上中郡若狭町田井２４－２", "url": "https://www.kaigokensaku.mhlw.go.jp/18/index.php?action_kouhyou_detail_004_kani=true&JigyosyoCd=1892400027-00&ServiceCd=320&Type=search", "url2": "http://www.w-shakyo.or.jp/" }, "geometry": { "type": "Point", "coordinates": [ 135.867751799999951, 35.5581841 ] } }
]
}
