{
"type": "FeatureCollection",
"name": "geo_18_専修学校",
"crs": { "type": "name", "properties": { "name": "urn:ogc:def:crs:EPSG::6668" } },
"features": [
{ "type": "Feature", "properties": { "P29_001": "18201", "P29_002": "H118210000016", "P29_003": "16016", "P29_004": "福井県立看護専門学校", "P29_005": "福井県福井市四ッ井2-8-1", "P29_006": "2", "P29_007": "0", "P29_008": "00", "P29_009": null }, "geometry": { "type": "Point", "coordinates": [ 136.237859187229532, 36.069218790996281 ] } },
{ "type": "Feature", "properties": { "P29_001": "18204", "P29_002": "H118210000025", "P29_003": "16016", "P29_004": "公立若狭高等看護学院", "P29_005": "福井県小浜市大手町12-48", "P29_006": "3", "P29_007": "0", "P29_008": "00", "P29_009": null }, "geometry": { "type": "Point", "coordinates": [ 135.746317055286141, 35.494963852558278 ] } },
{ "type": "Feature", "properties": { "P29_001": "18201", "P29_002": "H118310000023", "P29_003": "16016", "P29_004": "専門学校デザイン・ラボフクイ", "P29_005": "福井県福井市春山2-5-3", "P29_006": "4", "P29_007": "0", "P29_008": "00", "P29_009": null }, "geometry": { "type": "Point", "coordinates": [ 136.213317476894616, 36.067573936849264 ] } },
{ "type": "Feature", "properties": { "P29_001": "18201", "P29_002": "H118310000032", "P29_003": "16016", "P29_004": "専門学校福井文化服装学院", "P29_005": "福井県福井市木田3-1313", "P29_006": "4", "P29_007": "0", "P29_008": "00", "P29_009": null }, "geometry": { "type": "Point", "coordinates": [ 136.223563823933745, 36.04157958007481 ] } },
{ "type": "Feature", "properties": { "P29_001": "18210", "P29_002": "H118310000041", "P29_003": "16016", "P29_004": "福井県理容美容専門学校", "P29_005": "福井県吉田郡永平寺町松岡兼定島34-3-2", "P29_006": "4", "P29_007": "0", "P29_008": "00", "P29_009": null }, "geometry": { "type": "Point", "coordinates": [ 136.284404787837047, 36.111174192734815 ] } },
{ "type": "Feature", "properties": { "P29_001": "18209", "P29_002": "H118310000050", "P29_003": "16016", "P29_004": "武生看護専門学校", "P29_005": "福井県越前市中央1-9-9", "P29_006": "4", "P29_007": "0", "P29_008": "00", "P29_009": null }, "geometry": { "type": "Point", "coordinates": [ 136.157241373124634, 35.900953069680654 ] } },
{ "type": "Feature", "properties": { "P29_001": "18322", "P29_002": "H118310000069", "P29_003": "16016", "P29_004": "天谷調理製菓専門学校", "P29_005": "福井県吉田郡永平寺町松岡兼定島34-3-10", "P29_006": "4", "P29_007": "0", "P29_008": "00", "P29_009": null }, "geometry": { "type": "Point", "coordinates": [ 136.284340430586155, 36.110584665594629 ] } },
{ "type": "Feature", "properties": { "P29_001": "18201", "P29_002": "H118310000078", "P29_003": "16016", "P29_004": "福井市医師会看護専門学校", "P29_005": "福井県福井市大願寺1-5-23", "P29_006": "4", "P29_007": "0", "P29_008": "00", "P29_009": null }, "geometry": { "type": "Point", "coordinates": [ 136.231008056734254, 36.081416349878765 ] } },
{ "type": "Feature", "properties": { "P29_001": "18201", "P29_002": "H118310000087", "P29_003": "16016", "P29_004": "大原簿記法律専門学校福井校", "P29_005": "福井県福井市大手2-9-1", "P29_006": "4", "P29_007": "0", "P29_008": "00", "P29_009": null }, "geometry": { "type": "Point", "coordinates": [ 136.222643596198509, 36.06369601091977 ] } },
{ "type": "Feature", "properties": { "P29_001": "18204", "P29_002": "H118310000096", "P29_003": "16016", "P29_004": "青池調理師専門学校", "P29_005": "福井県小浜市小浜広峰108", "P29_006": "4", "P29_007": "0", "P29_008": "00", "P29_009": null }, "geometry": { "type": "Point", "coordinates": [ 135.744052344785644, 35.498428587085371 ] } },
{ "type": "Feature", "properties": { "P29_001": "18201", "P29_002": "H118310000103", "P29_003": "16016", "P29_004": "福井歯科専門学校", "P29_005": "福井県福井市大願寺3-4-1", "P29_006": "4", "P29_007": "0", "P29_008": "00", "P29_009": null }, "geometry": { "type": "Point", "coordinates": [ 136.227682020402881, 36.082009354067374 ] } },
{ "type": "Feature", "properties": { "P29_001": "18201", "P29_002": "H118310000112", "P29_003": "16016", "P29_004": "福井ホテルトラベル専門学校", "P29_005": "福井県福井市大手2-9-1", "P29_006": "4", "P29_007": "0", "P29_008": "00", "P29_009": null }, "geometry": { "type": "Point", "coordinates": [ 136.228380214699342, 36.058800739709774 ] } },
{ "type": "Feature", "properties": { "P29_001": "18201", "P29_002": "H118310000121", "P29_003": "16016", "P29_004": "福井情報ＩＴクリエイター専門学校", "P29_005": "福井県福井市大手2-9-1", "P29_006": "4", "P29_007": "0", "P29_008": "00", "P29_009": null }, "geometry": { "type": "Point", "coordinates": [ 136.222708991469602, 36.063530470347445 ] } },
{ "type": "Feature", "properties": { "P29_001": "18201", "P29_002": "H118310000130", "P29_003": "16016", "P29_004": "大原スポーツ医療保育福祉専門学校", "P29_005": "福井県福井市大手2-9-1", "P29_006": "4", "P29_007": "0", "P29_008": "00", "P29_009": null }, "geometry": { "type": "Point", "coordinates": [ 136.222668508682744, 36.063576078464315 ] } },
{ "type": "Feature", "properties": { "P29_001": "18201", "P29_002": "H118310000149", "P29_003": "16016", "P29_004": "福井県医療福祉専門学校", "P29_005": "福井県福井市高木中央3-2018", "P29_006": "4", "P29_007": "0", "P29_008": "00", "P29_009": null }, "geometry": { "type": "Point", "coordinates": [ 136.240275001975107, 36.093428002435303 ] } },
{ "type": "Feature", "properties": { "P29_001": "18442", "P29_002": "H118310000158", "P29_003": "16016", "P29_004": "若狭医療福祉専門学校", "P29_005": "福井県三方郡美浜町大藪7-24-2", "P29_006": "4", "P29_007": "0", "P29_008": "00", "P29_009": null }, "geometry": { "type": "Point", "coordinates": [ 135.912474478318359, 35.592713875483412 ] } },
{ "type": "Feature", "properties": { "P29_001": "18210", "P29_002": "H118310000167", "P29_003": "16016", "P29_004": "国際ペット専門学校福井", "P29_005": "福井県坂井市丸岡町熊堂3-7-1-22", "P29_006": "4", "P29_007": "0", "P29_008": "00", "P29_009": null }, "geometry": { "type": "Point", "coordinates": [ 136.274862425886454, 36.109847849768009 ] } },
{ "type": "Feature", "properties": { "P29_001": "18201", "P29_002": "H118310000176", "P29_003": "16016", "P29_004": "福井製菓専門学校", "P29_005": "福井県福井市松本3-21-20", "P29_006": "4", "P29_007": "0", "P29_008": "00", "P29_009": null }, "geometry": { "type": "Point", "coordinates": [ 136.2253565931249, 36.074685131858999 ] } }
]
}
