{
"type": "FeatureCollection",
"name": "geo_18_中学校",
"crs": { "type": "name", "properties": { "name": "urn:ogc:def:crs:EPSG::6668" } },
"features": [
{ "type": "Feature", "properties": { "P29_001": "18201", "P29_002": "C118210000017", "P29_003": "16002", "P29_004": "福井市明倫中学校", "P29_005": "福井県福井市木田1-1360", "P29_006": "3", "P29_007": "1", "P29_008": "00", "P29_009": null }, "geometry": { "type": "Point", "coordinates": [ 136.2206054068144, 36.04905245727673 ] } },
{ "type": "Feature", "properties": { "P29_001": "18201", "P29_002": "C118210000026", "P29_003": "16002", "P29_004": "福井市光陽中学校", "P29_005": "福井県福井市光陽4-7-1", "P29_006": "3", "P29_007": "1", "P29_008": "00", "P29_009": null }, "geometry": { "type": "Point", "coordinates": [ 136.194691762996257, 36.066584942076211 ] } },
{ "type": "Feature", "properties": { "P29_001": "18201", "P29_002": "C118210000035", "P29_003": "16002", "P29_004": "福井市明道中学校", "P29_005": "福井県福井市文京2-5-1", "P29_006": "3", "P29_007": "1", "P29_008": "00", "P29_009": null }, "geometry": { "type": "Point", "coordinates": [ 136.217778943489151, 36.076451070217601 ] } },
{ "type": "Feature", "properties": { "P29_001": "18201", "P29_002": "C118210000044", "P29_003": "16002", "P29_004": "福井市進明中学校", "P29_005": "福井県福井市松本1-10-1", "P29_006": "3", "P29_007": "1", "P29_008": "00", "P29_009": null }, "geometry": { "type": "Point", "coordinates": [ 136.229524111346535, 36.072600406778221 ] } },
{ "type": "Feature", "properties": { "P29_001": "18201", "P29_002": "C118210000053", "P29_003": "16002", "P29_004": "福井市成和中学校", "P29_005": "福井県福井市城東3-10-1", "P29_006": "3", "P29_007": "1", "P29_008": "00", "P29_009": null }, "geometry": { "type": "Point", "coordinates": [ 136.238276237610449, 36.06165195447457 ] } },
{ "type": "Feature", "properties": { "P29_001": "18201", "P29_002": "C118210000062", "P29_003": "16002", "P29_004": "福井市安居中学校", "P29_005": "福井県福井市本堂町12-4", "P29_006": "3", "P29_007": "1", "P29_008": "00", "P29_009": null }, "geometry": { "type": "Point", "coordinates": [ 136.135833709804274, 36.058340434392605 ] } },
{ "type": "Feature", "properties": { "P29_001": "18201", "P29_002": "C118210000071", "P29_003": "16002", "P29_004": "福井市大安寺中学校", "P29_005": "福井県福井市岸水町16-25-1", "P29_006": "3", "P29_007": "1", "P29_008": "00", "P29_009": null }, "geometry": { "type": "Point", "coordinates": [ 136.17377829231549, 36.109524938193452 ] } },
{ "type": "Feature", "properties": { "P29_001": "18201", "P29_002": "C118210000080", "P29_003": "16002", "P29_004": "福井市至民中学校", "P29_005": "福井県福井市南江守町65-20", "P29_006": "3", "P29_007": "1", "P29_008": "00", "P29_009": null }, "geometry": { "type": "Point", "coordinates": [ 136.188283827768856, 36.025923851421666 ] } },
{ "type": "Feature", "properties": { "P29_001": "18201", "P29_002": "C118210000099", "P29_003": "16002", "P29_004": "福井市灯明寺中学校", "P29_005": "福井県福井市灯明寺3-3801", "P29_006": "3", "P29_007": "1", "P29_008": "00", "P29_009": null }, "geometry": { "type": "Point", "coordinates": [ 136.21392992669854, 36.097752667972856 ] } },
{ "type": "Feature", "properties": { "P29_001": "18201", "P29_002": "C118210000106", "P29_003": "16002", "P29_004": "福井市国見中学校", "P29_005": "福井県福井市鮎川町109-9-2", "P29_006": "3", "P29_007": "1", "P29_008": "00", "P29_009": null }, "geometry": { "type": "Point", "coordinates": [ 136.031302528291917, 36.085298106616634 ] } },
{ "type": "Feature", "properties": { "P29_001": "18201", "P29_002": "C118210000115", "P29_003": "16002", "P29_004": "福井市殿下中学校", "P29_005": "福井県福井市風尾町6-24", "P29_006": "3", "P29_007": "1", "P29_008": "00", "P29_009": null }, "geometry": { "type": "Point", "coordinates": [ 136.046832828947743, 36.036245607722414 ] } },
{ "type": "Feature", "properties": { "P29_001": "18201", "P29_002": "C118210000124", "P29_003": "16002", "P29_004": "福井市一光中学校", "P29_005": "福井県福井市下一光町6-34", "P29_006": "3", "P29_007": "9", "P29_008": "00", "P29_009": null }, "geometry": { "type": "Point", "coordinates": [ 136.069179219129865, 36.061946789157901 ] } },
{ "type": "Feature", "properties": { "P29_001": "18201", "P29_002": "C118210000133", "P29_003": "16002", "P29_004": "福井市足羽中学校", "P29_005": "福井県福井市今市町5-10", "P29_006": "3", "P29_007": "1", "P29_008": "00", "P29_009": null }, "geometry": { "type": "Point", "coordinates": [ 136.205694185315451, 36.006609416289386 ] } },
{ "type": "Feature", "properties": { "P29_001": "18201", "P29_002": "C118210000142", "P29_003": "16002", "P29_004": "福井市川西中学校", "P29_005": "福井県福井市水切町39-24", "P29_006": "3", "P29_007": "1", "P29_008": "00", "P29_009": null }, "geometry": { "type": "Point", "coordinates": [ 136.144545349706334, 36.143578408247478 ] } },
{ "type": "Feature", "properties": { "P29_001": "18201", "P29_002": "C118210000151", "P29_003": "16002", "P29_004": "福井市棗中学校", "P29_005": "福井県福井市石新保町12-32", "P29_006": "3", "P29_007": "1", "P29_008": "00", "P29_009": null }, "geometry": { "type": "Point", "coordinates": [ 136.109157108613459, 36.145141180652502 ] } },
{ "type": "Feature", "properties": { "P29_001": "18201", "P29_002": "C118210000160", "P29_003": "16002", "P29_004": "福井市棗中学校高須城分校", "P29_005": "福井県福井市高須町71-31", "P29_006": "3", "P29_007": "9", "P29_008": "00", "P29_009": null }, "geometry": { "type": "Point", "coordinates": [ 136.107071336205195, 36.11443395184466 ] } },
{ "type": "Feature", "properties": { "P29_001": "18201", "P29_002": "C118210000179", "P29_003": "16002", "P29_004": "福井市鷹巣中学校", "P29_005": "福井県福井市和布町3-6", "P29_006": "3", "P29_007": "1", "P29_008": "00", "P29_009": null }, "geometry": { "type": "Point", "coordinates": [ 136.065603220479204, 36.130820475053781 ] } },
{ "type": "Feature", "properties": { "P29_001": "18201", "P29_002": "C118210000188", "P29_003": "16002", "P29_004": "福井市森田中学校", "P29_005": "福井県福井市上野本町1-1077", "P29_006": "3", "P29_007": "1", "P29_008": "00", "P29_009": null }, "geometry": { "type": "Point", "coordinates": [ 136.237791789668847, 36.115712179608416 ] } },
{ "type": "Feature", "properties": { "P29_001": "18202", "P29_002": "C118210000197", "P29_003": "16002", "P29_004": "敦賀市立気比中学校", "P29_005": "福井県敦賀市清水町1-11-41", "P29_006": "3", "P29_007": "1", "P29_008": "00", "P29_009": null }, "geometry": { "type": "Point", "coordinates": [ 136.076369528296965, 35.650773747204077 ] } },
{ "type": "Feature", "properties": { "P29_001": "18202", "P29_002": "C118210000204", "P29_003": "16002", "P29_004": "敦賀市立松陵中学校", "P29_005": "福井県敦賀市松葉町1-1", "P29_006": "3", "P29_007": "1", "P29_008": "00", "P29_009": null }, "geometry": { "type": "Point", "coordinates": [ 136.049443562031769, 35.652509432121448 ] } },
{ "type": "Feature", "properties": { "P29_001": "18202", "P29_002": "C118210000222", "P29_003": "16002", "P29_004": "敦賀市立角鹿中学校", "P29_005": "福井県敦賀市角鹿町6-1", "P29_006": "3", "P29_007": "1", "P29_008": "00", "P29_009": null }, "geometry": { "type": "Point", "coordinates": [ 136.077469595180133, 35.654644432759078 ] } },
{ "type": "Feature", "properties": { "P29_001": "18202", "P29_002": "C118210000231", "P29_003": "16002", "P29_004": "敦賀市立粟野中学校", "P29_005": "福井県敦賀市金山78-1-1", "P29_006": "3", "P29_007": "1", "P29_008": "00", "P29_009": null }, "geometry": { "type": "Point", "coordinates": [ 136.048185007037034, 35.627897352103659 ] } },
{ "type": "Feature", "properties": { "P29_001": "18202", "P29_002": "C118210000240", "P29_003": "16002", "P29_004": "敦賀市立東浦中学校", "P29_005": "福井県敦賀市杉津19-12-1", "P29_006": "3", "P29_007": "1", "P29_008": "00", "P29_009": null }, "geometry": { "type": "Point", "coordinates": [ 136.100983004053063, 35.73772167309631 ] } },
{ "type": "Feature", "properties": { "P29_001": "18209", "P29_002": "C118210000259", "P29_003": "16002", "P29_004": "越前市武生第一中学校", "P29_005": "福井県越前市平出1-6-1", "P29_006": "3", "P29_007": "1", "P29_008": "00", "P29_009": null }, "geometry": { "type": "Point", "coordinates": [ 136.158511703284319, 35.908212034114911 ] } },
{ "type": "Feature", "properties": { "P29_001": "18209", "P29_002": "C118210000268", "P29_003": "16002", "P29_004": "越前市武生第二中学校", "P29_005": "福井県越前市妙法寺町42-15", "P29_006": "3", "P29_007": "1", "P29_008": "00", "P29_009": null }, "geometry": { "type": "Point", "coordinates": [ 136.160184689640175, 35.887144508363001 ] } },
{ "type": "Feature", "properties": { "P29_001": "18209", "P29_002": "C118210000277", "P29_003": "16002", "P29_004": "越前市武生第二中学校坂口分校", "P29_005": "福井県越前市湯谷町24-25", "P29_006": "3", "P29_007": "1", "P29_008": "00", "P29_009": null }, "geometry": { "type": "Point", "coordinates": [ 136.087118078087144, 35.858995346405898 ] } },
{ "type": "Feature", "properties": { "P29_001": "18209", "P29_002": "C118210000286", "P29_003": "16002", "P29_004": "越前市武生第三中学校", "P29_005": "福井県越前市村国2-3-56", "P29_006": "3", "P29_007": "1", "P29_008": "00", "P29_009": null }, "geometry": { "type": "Point", "coordinates": [ 136.175703700216445, 35.906026207732687 ] } },
{ "type": "Feature", "properties": { "P29_001": "18209", "P29_002": "C118210000295", "P29_003": "16002", "P29_004": "越前市武生第六中学校", "P29_005": "福井県越前市四郎丸町16-1", "P29_006": "3", "P29_007": "1", "P29_008": "00", "P29_009": null }, "geometry": { "type": "Point", "coordinates": [ 136.159243253390599, 35.865709197801642 ] } },
{ "type": "Feature", "properties": { "P29_001": "18209", "P29_002": "C118210000302", "P29_003": "16002", "P29_004": "越前市万葉中学校", "P29_005": "福井県越前市西尾町48-18", "P29_006": "3", "P29_007": "1", "P29_008": "00", "P29_009": null }, "geometry": { "type": "Point", "coordinates": [ 136.213555189336574, 35.892286103253021 ] } },
{ "type": "Feature", "properties": { "P29_001": "18209", "P29_002": "C118210000311", "P29_003": "16002", "P29_004": "越前市武生第五中学校", "P29_005": "福井県越前市都辺町36-73", "P29_006": "3", "P29_007": "1", "P29_008": "00", "P29_009": null }, "geometry": { "type": "Point", "coordinates": [ 136.056736232294355, 35.88844076471505 ] } },
{ "type": "Feature", "properties": { "P29_001": "18204", "P29_002": "C118210000320", "P29_003": "16002", "P29_004": "小浜市立小浜中学校", "P29_005": "福井県小浜市雲浜2-1-1", "P29_006": "3", "P29_007": "1", "P29_008": "00", "P29_009": null }, "geometry": { "type": "Point", "coordinates": [ 135.746091503301443, 35.507489504497933 ] } },
{ "type": "Feature", "properties": { "P29_001": "18204", "P29_002": "C118210000339", "P29_003": "16002", "P29_004": "小浜市立小浜第二中学校", "P29_005": "福井県小浜市後瀬町8-10", "P29_006": "3", "P29_007": "1", "P29_008": "00", "P29_009": null }, "geometry": { "type": "Point", "coordinates": [ 135.749387112964541, 35.494149167162945 ] } },
{ "type": "Feature", "properties": { "P29_001": "18205", "P29_002": "C118210000348", "P29_003": "16002", "P29_004": "大野市上庄中学校", "P29_005": "福井県大野市稲郷74-25", "P29_006": "3", "P29_007": "1", "P29_008": "00", "P29_009": null }, "geometry": { "type": "Point", "coordinates": [ 136.518197834827106, 35.94649675898382 ] } },
{ "type": "Feature", "properties": { "P29_001": "18205", "P29_002": "C118210000357", "P29_003": "16002", "P29_004": "大野市尚徳中学校", "P29_005": "福井県大野市土打45-9", "P29_006": "3", "P29_007": "1", "P29_008": "00", "P29_009": null }, "geometry": { "type": "Point", "coordinates": [ 136.543298360274946, 35.989719349387869 ] } },
{ "type": "Feature", "properties": { "P29_001": "18206", "P29_002": "C118210000366", "P29_003": "16002", "P29_004": "勝山市立勝山中部中学校", "P29_005": "福井県勝山市郡町1-3-34", "P29_006": "3", "P29_007": "1", "P29_008": "00", "P29_009": null }, "geometry": { "type": "Point", "coordinates": [ 136.500124998585278, 36.069695996159922 ] } },
{ "type": "Feature", "properties": { "P29_001": "18206", "P29_002": "C118210000375", "P29_003": "16002", "P29_004": "勝山市立勝山北部中学校", "P29_005": "福井県勝山市荒土町伊波21-2", "P29_006": "3", "P29_007": "1", "P29_008": "00", "P29_009": null }, "geometry": { "type": "Point", "coordinates": [ 136.464751330413776, 36.07826429635265 ] } },
{ "type": "Feature", "properties": { "P29_001": "18207", "P29_002": "C118210000384", "P29_003": "16002", "P29_004": "鯖江市鯖江中学校", "P29_005": "福井県鯖江市小黒町2-12-1", "P29_006": "3", "P29_007": "1", "P29_008": "00", "P29_009": null }, "geometry": { "type": "Point", "coordinates": [ 136.174360476872494, 35.952496252266933 ] } },
{ "type": "Feature", "properties": { "P29_001": "18207", "P29_002": "C118210000393", "P29_003": "16002", "P29_004": "鯖江市中央中学校", "P29_005": "福井県鯖江市三六町1-1-50", "P29_006": "3", "P29_007": "1", "P29_008": "00", "P29_009": null }, "geometry": { "type": "Point", "coordinates": [ 136.179853998684735, 35.969366999497218 ] } },
{ "type": "Feature", "properties": { "P29_001": "18201", "P29_002": "C118210000400", "P29_003": "16002", "P29_004": "福井市足羽第一中学校", "P29_005": "福井県福井市稲津町83-1", "P29_006": "3", "P29_007": "1", "P29_008": "00", "P29_009": null }, "geometry": { "type": "Point", "coordinates": [ 136.250480014849813, 36.021459379290214 ] } },
{ "type": "Feature", "properties": { "P29_001": "18201", "P29_002": "C118210000419", "P29_003": "16002", "P29_004": "福井市美山中学校", "P29_005": "福井県福井市美山町9-14", "P29_006": "3", "P29_007": "1", "P29_008": "00", "P29_009": null }, "geometry": { "type": "Point", "coordinates": [ 136.361963083798486, 35.998056547695931 ] } },
{ "type": "Feature", "properties": { "P29_001": "18322", "P29_002": "C118210000428", "P29_003": "16002", "P29_004": "松岡中学校", "P29_005": "福井県吉田郡永平寺町松岡吉野堺61-10-1", "P29_006": "3", "P29_007": "1", "P29_008": "00", "P29_009": null }, "geometry": { "type": "Point", "coordinates": [ 136.29986351980375, 36.086776741571356 ] } },
{ "type": "Feature", "properties": { "P29_001": "18322", "P29_002": "C118210000437", "P29_003": "16002", "P29_004": "永平寺中学校", "P29_005": "福井県吉田郡永平寺町東古市22-46", "P29_006": "3", "P29_007": "1", "P29_008": "00", "P29_009": null }, "geometry": { "type": "Point", "coordinates": [ 136.328476226987789, 36.099040818435007 ] } },
{ "type": "Feature", "properties": { "P29_001": "18322", "P29_002": "C118210000446", "P29_003": "16002", "P29_004": "上志比中学校", "P29_005": "福井県吉田郡永平寺町栗住波16-47", "P29_006": "3", "P29_007": "1", "P29_008": "00", "P29_009": null }, "geometry": { "type": "Point", "coordinates": [ 136.395714587190383, 36.0754144304817 ] } },
{ "type": "Feature", "properties": { "P29_001": "18210", "P29_002": "C118210000455", "P29_003": "16002", "P29_004": "坂井市立三国中学校", "P29_005": "福井県坂井市三国町錦1-7-3", "P29_006": "3", "P29_007": "1", "P29_008": "00", "P29_009": null }, "geometry": { "type": "Point", "coordinates": [ 136.154787217922177, 36.216221000536628 ] } },
{ "type": "Feature", "properties": { "P29_001": "18208", "P29_002": "C118210000464", "P29_003": "16002", "P29_004": "あわら市芦原中学校", "P29_005": "福井県あわら市舟津2-75", "P29_006": "3", "P29_007": "1", "P29_008": "00", "P29_009": null }, "geometry": { "type": "Point", "coordinates": [ 136.192366295871722, 36.23382954015225 ] } },
{ "type": "Feature", "properties": { "P29_001": "18208", "P29_002": "C118210000473", "P29_003": "16002", "P29_004": "あわら市金津中学校", "P29_005": "福井県あわら市市姫1-5-1", "P29_006": "3", "P29_007": "1", "P29_008": "00", "P29_009": null }, "geometry": { "type": "Point", "coordinates": [ 136.232396650383322, 36.210286455550303 ] } },
{ "type": "Feature", "properties": { "P29_001": "18210", "P29_002": "C118210000482", "P29_003": "16002", "P29_004": "坂井市立坂井中学校", "P29_005": "福井県坂井市坂井町上新庄28-21", "P29_006": "3", "P29_007": "1", "P29_008": "00", "P29_009": null }, "geometry": { "type": "Point", "coordinates": [ 136.227088078474623, 36.166222906746697 ] } },
{ "type": "Feature", "properties": { "P29_001": "18210", "P29_002": "C118210000491", "P29_003": "16002", "P29_004": "坂井市立丸岡中学校", "P29_005": "福井県坂井市丸岡町寅国5-15", "P29_006": "3", "P29_007": "1", "P29_008": "00", "P29_009": null }, "geometry": { "type": "Point", "coordinates": [ 136.270034741598977, 36.142850713787745 ] } },
{ "type": "Feature", "properties": { "P29_001": "18210", "P29_002": "C118210000507", "P29_003": "16002", "P29_004": "坂井市立春江中学校", "P29_005": "福井県坂井市春江町江留中15-15", "P29_006": "3", "P29_007": "1", "P29_008": "00", "P29_009": null }, "geometry": { "type": "Point", "coordinates": [ 136.213921757399817, 36.135773367936537 ] } },
{ "type": "Feature", "properties": { "P29_001": "18209", "P29_002": "C118210000516", "P29_003": "16002", "P29_004": "越前市南越中学校", "P29_005": "福井県越前市野岡町28-4", "P29_006": "3", "P29_007": "1", "P29_008": "00", "P29_009": null }, "geometry": { "type": "Point", "coordinates": [ 136.249562772784174, 35.926388926673219 ] } },
{ "type": "Feature", "properties": { "P29_001": "18423", "P29_002": "C118210000525", "P29_003": "16002", "P29_004": "越前町立宮崎中学校", "P29_005": "福井県丹生郡越前町樫津20-20", "P29_006": "3", "P29_007": "1", "P29_008": "00", "P29_009": null }, "geometry": { "type": "Point", "coordinates": [ 136.087602681283812, 35.937353840921602 ] } },
{ "type": "Feature", "properties": { "P29_001": "18201", "P29_002": "C118210000534", "P29_003": "16002", "P29_004": "福井市越廼中学校", "P29_005": "福井県福井市大味町29-83", "P29_006": "3", "P29_007": "1", "P29_008": "00", "P29_009": null }, "geometry": { "type": "Point", "coordinates": [ 136.01886531831633, 36.051035467871429 ] } },
{ "type": "Feature", "properties": { "P29_001": "18423", "P29_002": "C118210000543", "P29_003": "16002", "P29_004": "越前町立織田中学校", "P29_005": "福井県丹生郡越前町下河原37-2-10", "P29_006": "3", "P29_007": "1", "P29_008": "00", "P29_009": null }, "geometry": { "type": "Point", "coordinates": [ 136.054146003277054, 35.949088998000384 ] } },
{ "type": "Feature", "properties": { "P29_001": "18201", "P29_002": "C118210000552", "P29_003": "16002", "P29_004": "福井市清水中学校", "P29_005": "福井県福井市島寺町2-55", "P29_006": "3", "P29_007": "1", "P29_008": "00", "P29_009": null }, "geometry": { "type": "Point", "coordinates": [ 136.142666130439977, 36.024656223833418 ] } },
{ "type": "Feature", "properties": { "P29_001": "18501", "P29_002": "C118210000598", "P29_003": "16002", "P29_004": "若狭町立三方中学校", "P29_005": "福井県三方上中郡若狭町北前川48-10", "P29_006": "3", "P29_007": "1", "P29_008": "00", "P29_009": null }, "geometry": { "type": "Point", "coordinates": [ 135.912574730950155, 35.549972593373823 ] } },
{ "type": "Feature", "properties": { "P29_001": "18501", "P29_002": "C118210000605", "P29_003": "16002", "P29_004": "若狭町立上中中学校", "P29_005": "福井県三方上中郡若狭町井ノ口55-5-1", "P29_006": "3", "P29_007": "1", "P29_008": "00", "P29_009": null }, "geometry": { "type": "Point", "coordinates": [ 135.854623572262057, 35.460332100245225 ] } },
{ "type": "Feature", "properties": { "P29_001": "18483", "P29_002": "C118210000614", "P29_003": "16002", "P29_004": "名田庄中学校", "P29_005": "福井県大飯郡おおい町名田庄小倉2-9", "P29_006": "3", "P29_007": "1", "P29_008": "00", "P29_009": null }, "geometry": { "type": "Point", "coordinates": [ 135.665758559067456, 35.403037362400539 ] } },
{ "type": "Feature", "properties": { "P29_001": "18481", "P29_002": "C118210000623", "P29_003": "16002", "P29_004": "高浜中学校", "P29_005": "福井県大飯郡高浜町宮崎70-15", "P29_006": "3", "P29_007": "1", "P29_008": "00", "P29_009": null }, "geometry": { "type": "Point", "coordinates": [ 135.551959398099655, 35.489152036835065 ] } },
{ "type": "Feature", "properties": { "P29_001": "18481", "P29_002": "C118210000632", "P29_003": "16002", "P29_004": "内浦中学校", "P29_005": "福井県大飯郡高浜町山中107-30", "P29_006": "3", "P29_007": "1", "P29_008": "00", "P29_009": null }, "geometry": { "type": "Point", "coordinates": [ 135.466816042936188, 35.519315180330594 ] } },
{ "type": "Feature", "properties": { "P29_001": "18206", "P29_002": "C118210000641", "P29_003": "16002", "P29_004": "勝山市立勝山南部中学校", "P29_005": "福井県勝山市旭毛屋町3401", "P29_006": "3", "P29_007": "1", "P29_008": "00", "P29_009": null }, "geometry": { "type": "Point", "coordinates": [ 136.511348579581608, 36.047417506912197 ] } },
{ "type": "Feature", "properties": { "P29_001": "18205", "P29_002": "C118210000650", "P29_003": "16002", "P29_004": "大野市開成中学校", "P29_005": "福井県大野市新庄16-7", "P29_006": "3", "P29_007": "1", "P29_008": "00", "P29_009": null }, "geometry": { "type": "Point", "coordinates": [ 136.484612354267597, 35.976813429768512 ] } },
{ "type": "Feature", "properties": { "P29_001": "18205", "P29_002": "C118210000669", "P29_003": "16002", "P29_004": "大野市陽明中学校", "P29_005": "福井県大野市陽明町3-1514", "P29_006": "3", "P29_007": "1", "P29_008": "00", "P29_009": null }, "geometry": { "type": "Point", "coordinates": [ 136.498040228172925, 35.993436895639285 ] } },
{ "type": "Feature", "properties": { "P29_001": "18423", "P29_002": "C118210000678", "P29_003": "16002", "P29_004": "越前町立越前中学校", "P29_005": "福井県丹生郡越前町大樟14-19", "P29_006": "3", "P29_007": "1", "P29_008": "00", "P29_009": null }, "geometry": { "type": "Point", "coordinates": [ 135.997402756369382, 35.937720966390167 ] } },
{ "type": "Feature", "properties": { "P29_001": "18382", "P29_002": "C118210000687", "P29_003": "16002", "P29_004": "池田中学校", "P29_005": "福井県今立郡池田町稲荷20-14", "P29_006": "3", "P29_007": "1", "P29_008": "00", "P29_009": null }, "geometry": { "type": "Point", "coordinates": [ 136.340827074262819, 35.887613196608186 ] } },
{ "type": "Feature", "properties": { "P29_001": "18442", "P29_002": "C118210000696", "P29_003": "16002", "P29_004": "美浜中学校", "P29_005": "福井県三方郡美浜町麻生38-10", "P29_006": "3", "P29_007": "1", "P29_008": "00", "P29_009": null }, "geometry": { "type": "Point", "coordinates": [ 135.949641373428818, 35.60293100227549 ] } },
{ "type": "Feature", "properties": { "P29_001": "18483", "P29_002": "C118210000703", "P29_003": "16002", "P29_004": "大飯中学校", "P29_005": "福井県大飯郡おおい町野尻57-1", "P29_006": "3", "P29_007": "1", "P29_008": "00", "P29_009": null }, "geometry": { "type": "Point", "coordinates": [ 135.608449708258263, 35.461487482088401 ] } },
{ "type": "Feature", "properties": { "P29_001": "18201", "P29_002": "C118210000712", "P29_003": "16002", "P29_004": "福井市大東中学校", "P29_005": "福井県福井市北今泉町10-6-2", "P29_006": "3", "P29_007": "1", "P29_008": "00", "P29_009": null }, "geometry": { "type": "Point", "coordinates": [ 136.255557062384753, 36.073606733882755 ] } },
{ "type": "Feature", "properties": { "P29_001": "18207", "P29_002": "C118210000721", "P29_003": "16002", "P29_004": "鯖江市東陽中学校", "P29_005": "福井県鯖江市落井町32-7", "P29_006": "3", "P29_007": "1", "P29_008": "00", "P29_009": null }, "geometry": { "type": "Point", "coordinates": [ 136.229916399570612, 35.951407908541768 ] } },
{ "type": "Feature", "properties": { "P29_001": "18205", "P29_002": "C118210000730", "P29_003": "16002", "P29_004": "大野市和泉中学校", "P29_005": "福井県大野市朝日34-3", "P29_006": "3", "P29_007": "1", "P29_008": "00", "P29_009": null }, "geometry": { "type": "Point", "coordinates": [ 136.658377079453487, 35.902059621030446 ] } },
{ "type": "Feature", "properties": { "P29_001": "18201", "P29_002": "C118210000749", "P29_003": "16002", "P29_004": "福井市藤島中学校", "P29_005": "福井県福井市八ツ島町7-6", "P29_006": "3", "P29_007": "1", "P29_008": "00", "P29_009": null }, "geometry": { "type": "Point", "coordinates": [ 136.201211068135933, 36.085312181021514 ] } },
{ "type": "Feature", "properties": { "P29_001": "18201", "P29_002": "C118210000758", "P29_003": "16002", "P29_004": "福井市社中学校", "P29_005": "福井県福井市若杉4-1402", "P29_006": "3", "P29_007": "1", "P29_008": "00", "P29_009": null }, "geometry": { "type": "Point", "coordinates": [ 136.18436846925988, 36.055731498262965 ] } },
{ "type": "Feature", "properties": { "P29_001": "18210", "P29_002": "C118210000767", "P29_003": "16002", "P29_004": "坂井市立丸岡南中学校", "P29_005": "福井県坂井市丸岡町高瀬15-2", "P29_006": "3", "P29_007": "1", "P29_008": "00", "P29_009": null }, "geometry": { "type": "Point", "coordinates": [ 136.269544240495918, 36.125393931777566 ] } },
{ "type": "Feature", "properties": { "P29_001": "18423", "P29_002": "C118210000776", "P29_003": "16002", "P29_004": "越前町立朝日中学校", "P29_005": "福井県丹生郡越前町気比庄51-5-1", "P29_006": "3", "P29_007": "1", "P29_008": "00", "P29_009": null }, "geometry": { "type": "Point", "coordinates": [ 136.13362613191245, 35.979506585389117 ] } },
{ "type": "Feature", "properties": { "P29_001": "18201", "P29_002": "C118210000785", "P29_003": "16002", "P29_004": "福井県立高志中学校", "P29_005": "福井県福井市御幸2-25-8", "P29_006": "2", "P29_007": "1", "P29_008": "00", "P29_009": null }, "geometry": { "type": "Point", "coordinates": [ 136.232166568413788, 36.059506573536801 ] } },
{ "type": "Feature", "properties": { "P29_001": "18201", "P29_002": "C118210000794", "P29_003": "16002", "P29_004": "福井市杉坂中学校", "P29_005": "福井県福井市本折町第48-2", "P29_006": "3", "P29_007": "1", "P29_008": "00", "P29_009": null }, "geometry": { "type": "Point", "coordinates": [ 136.11347541612875, 36.034311624321894 ] } },
{ "type": "Feature", "properties": { "P29_001": "18404", "P29_002": "C118210000801", "P29_003": "16002", "P29_004": "南越前町立南越前中学校", "P29_005": "福井県南条郡南越前町東大道32-8", "P29_006": "3", "P29_007": "1", "P29_008": "00", "P29_009": null }, "geometry": { "type": "Point", "coordinates": [ 136.195875641580244, 35.834060435546213 ] } },
{ "type": "Feature", "properties": { "P29_001": "18202", "P29_002": "C118310000015", "P29_003": "16002", "P29_004": "敦賀気比高等学校付属中学校", "P29_005": "福井県敦賀市沓見164-1", "P29_006": "4", "P29_007": "1", "P29_008": "00", "P29_009": null }, "geometry": { "type": "Point", "coordinates": [ 136.031011802328408, 35.64468310407684 ] } },
{ "type": "Feature", "properties": { "P29_001": "18201", "P29_002": "C118310000024", "P29_003": "16002", "P29_004": "福井工業大学附属福井中学校", "P29_005": "福井県福井市学園3-6-1", "P29_006": "4", "P29_007": "1", "P29_008": "00", "P29_009": null }, "geometry": { "type": "Point", "coordinates": [ 136.194875917656475, 36.070220911401705 ] } },
{ "type": "Feature", "properties": { "P29_001": "18201", "P29_002": "C118310000033", "P29_003": "16002", "P29_004": "北陸中学校", "P29_005": "福井県福井市福井市文京1-8-1", "P29_006": "4", "P29_007": "1", "P29_008": "00", "P29_009": null }, "geometry": { "type": "Point", "coordinates": [ 136.219907137744741, 36.076265419144228 ] } },
{ "type": "Feature", "properties": { "P29_001": "18206", "P29_002": "C118310000042", "P29_003": "16002", "P29_004": "かつやま子どもの村中学校", "P29_005": "福井県勝山市北谷町河合5-3", "P29_006": "4", "P29_007": "1", "P29_008": "00", "P29_009": null }, "geometry": { "type": "Point", "coordinates": [ 136.562825262777068, 36.108124921015381 ] } }
]
}
