{
"type": "FeatureCollection",
"name": "geo_18_特別支援学校",
"crs": { "type": "name", "properties": { "name": "urn:ogc:def:crs:EPSG::6668" } },
"features": [
{ "type": "Feature", "properties": { "P29_001": "18201", "P29_002": "E118110000014", "P29_003": "16012", "P29_004": "福井大学教育学部附属特別支援学校", "P29_005": "福井県福井市八ツ島町1字3", "P29_006": "1", "P29_007": "0", "P29_008": "00", "P29_009": null }, "geometry": { "type": "Point", "coordinates": [ 136.198418633911558, 36.085659710967732 ] } },
{ "type": "Feature", "properties": { "P29_001": "18201", "P29_002": "E118210000012", "P29_003": "16012", "P29_004": "福井県立盲学校", "P29_005": "福井県福井市原目39-8", "P29_006": "2", "P29_007": "0", "P29_008": "00", "P29_009": null }, "geometry": { "type": "Point", "coordinates": [ 136.260381470944537, 36.073253761622453 ] } },
{ "type": "Feature", "properties": { "P29_001": "18201", "P29_002": "E118210000021", "P29_003": "16012", "P29_004": "福井県立ろう学校", "P29_005": "福井県福井市幾久町2-22", "P29_006": "2", "P29_007": "0", "P29_008": "00", "P29_009": null }, "geometry": { "type": "Point", "coordinates": [ 136.227406310246323, 36.089402166917601 ] } },
{ "type": "Feature", "properties": { "P29_001": "18201", "P29_002": "E118210000030", "P29_003": "16012", "P29_004": "福井県立福井特別支援学校", "P29_005": "福井県福井市光陽3-2-33", "P29_006": "2", "P29_007": "0", "P29_008": "00", "P29_009": null }, "geometry": { "type": "Point", "coordinates": [ 136.196712712529092, 36.067894205757362 ] } },
{ "type": "Feature", "properties": { "P29_001": "18201", "P29_002": "E118210000049", "P29_003": "16012", "P29_004": "福井県立福井南特別支援学校", "P29_005": "福井県福井市南居町82", "P29_006": "2", "P29_007": "0", "P29_008": "00", "P29_009": null }, "geometry": { "type": "Point", "coordinates": [ 136.171950370215654, 36.011926552080602 ] } },
{ "type": "Feature", "properties": { "P29_001": "18201", "P29_002": "E118210000058", "P29_003": "16012", "P29_004": "福井県立清水特別支援学校", "P29_005": "福井県福井市島寺町68-33-3", "P29_006": "2", "P29_007": "0", "P29_008": "00", "P29_009": null }, "geometry": { "type": "Point", "coordinates": [ 136.138013952291942, 36.019196483699233 ] } },
{ "type": "Feature", "properties": { "P29_001": "18210", "P29_002": "E118210000067", "P29_003": "16012", "P29_004": "福井県立嶺北特別支援学校", "P29_005": "福井県坂井市丸岡町熊堂3-36", "P29_006": "2", "P29_007": "0", "P29_008": "00", "P29_009": null }, "geometry": { "type": "Point", "coordinates": [ 136.270813789975477, 36.108386583908455 ] } },
{ "type": "Feature", "properties": { "P29_001": "18201", "P29_002": "E118210000076", "P29_003": "16012", "P29_004": "福井県立福井東特別支援学校", "P29_005": "福井県福井市四ッ井2-8-1", "P29_006": "2", "P29_007": "0", "P29_008": "01", "P29_009": null }, "geometry": { "type": "Point", "coordinates": [ 136.2370756170817, 36.069329076069423 ] } },
{ "type": "Feature", "properties": { "P29_001": "18442", "P29_002": "E118210000085", "P29_003": "16012", "P29_004": "福井県立嶺南東特別支援学校", "P29_005": "福井県三方郡美浜町気山106", "P29_006": "2", "P29_007": "0", "P29_008": "00", "P29_009": null }, "geometry": { "type": "Point", "coordinates": [ 135.913829359448414, 35.586762813794138 ] } },
{ "type": "Feature", "properties": { "P29_001": "18204", "P29_002": "E118210000094", "P29_003": "16012", "P29_004": "福井県立嶺南西特別支援学校", "P29_005": "福井県小浜市羽賀67-49-1", "P29_006": "2", "P29_007": "0", "P29_008": "00", "P29_009": null }, "geometry": { "type": "Point", "coordinates": [ 135.765881607217352, 35.512629510277755 ] } },
{ "type": "Feature", "properties": { "P29_001": "18209", "P29_002": "E118210000101", "P29_003": "16012", "P29_004": "福井県立南越特別支援学校", "P29_005": "福井県越前市上大坪町35-1-1", "P29_006": "2", "P29_007": "0", "P29_008": "00", "P29_009": null }, "geometry": { "type": "Point", "coordinates": [ 136.227543567469638, 35.880070537699204 ] } },
{ "type": "Feature", "properties": { "P29_001": "18206", "P29_002": "E118210000110", "P29_003": "16012", "P29_004": "福井県立奥越特別支援学校", "P29_005": "福井県勝山市昭和町3-1-69", "P29_006": "2", "P29_007": "0", "P29_008": "00", "P29_009": null }, "geometry": { "type": "Point", "coordinates": [ 136.507813878161869, 36.06192839832574 ] } },
{ "type": "Feature", "properties": { "P29_001": "18201", "P29_002": "E118210000076", "P29_003": "16012", "P29_004": "福井県立福井東特別支援学校", "P29_005": "福井県福井市月見2-4-1", "P29_006": "2", "P29_007": "0", "P29_008": "02", "P29_009": "月見分教室" }, "geometry": { "type": "Point", "coordinates": [ 136.212807021299454, 36.046704810592772 ] } }
]
}
