{
"type": "FeatureCollection",
"name": "geo_18_介護老人保健施設",
"crs": { "type": "name", "properties": { "name": "urn:ogc:def:crs:OGC:1.3:CRS84" } },
"features": [
{ "type": "Feature", "properties": { "内容": "介護老人保健施設　ひかりケアホーム【介護老人保健施設】福井市板垣5丁目201", "url2": "https://www.kaigokensaku.mhlw.go.jp/18/index.php?action_kouhyou_detail_004_kani=true&JigyosyoCd=1850180058-00&ServiceCd=520&Type=search" }, "geometry": { "type": "Point", "coordinates": [ 136.228041890104379, 36.044252696781001 ] } },
{ "type": "Feature", "properties": { "内容": "介護老人保健施設　ヴィラ岩井【介護老人保健施設】福井市日之出２丁目１３－２", "url2": "https://www.kaigokensaku.mhlw.go.jp/18/index.php?action_kouhyou_detail_004_kani=true&JigyosyoCd=1850180041-00&ServiceCd=520&Type=search" }, "geometry": { "type": "Point", "coordinates": [ 136.227340499999968, 36.0636228 ] } },
{ "type": "Feature", "properties": { "内容": "介護老人保健施設　アルマ千寿【介護老人保健施設】福井県福井市川合鷲塚町４９－５", "url2": "https://www.kaigokensaku.mhlw.go.jp/18/index.php?action_kouhyou_detail_004_kani=true&JigyosyoCd=1850180066-00&ServiceCd=520&Type=search" }, "geometry": { "type": "Point", "coordinates": [ 136.212777711422973, 36.113583920013312 ] } },
{ "type": "Feature", "properties": { "内容": "新田塚ハイツ【介護老人保健施設】福井市新田塚町５０６番地", "url2": "https://www.kaigokensaku.mhlw.go.jp/18/index.php?action_kouhyou_detail_004_kani=true&JigyosyoCd=1850180074-00&ServiceCd=520&Type=search" }, "geometry": { "type": "Point", "coordinates": [ 136.210186900000053, 36.0882389 ] } },
{ "type": "Feature", "properties": { "内容": "福井県済生会介護老人保健施設　ケアホームさいせい【介護老人保健施設】福井市和田中町徳万28", "url2": "https://www.kaigokensaku.mhlw.go.jp/18/index.php?action_kouhyou_detail_004_kani=true&JigyosyoCd=1850180082-00&ServiceCd=520&Type=search" }, "geometry": { "type": "Point", "coordinates": [ 136.2471018, 36.0410595 ] } },
{ "type": "Feature", "properties": { "内容": "介護老人保健施設　あじさい【介護老人保健施設】福井県福井市西下野町１５－１２", "url2": "https://www.kaigokensaku.mhlw.go.jp/18/index.php?action_kouhyou_detail_004_kani=true&JigyosyoCd=1850180090-00&ServiceCd=520&Type=search" }, "geometry": { "type": "Point", "coordinates": [ 136.16448349999996, 36.0653853 ] } },
{ "type": "Feature", "properties": { "内容": "介護療養型老人保健施設　さくら【介護老人保健施設】福井市花堂東2丁目408番地", "url2": "https://www.kaigokensaku.mhlw.go.jp/18/index.php?action_kouhyou_detail_004_kani=true&JigyosyoCd=1850180108-00&ServiceCd=520&Type=search" }, "geometry": { "type": "Point", "coordinates": [ 136.222817099999929, 36.041787 ] } },
{ "type": "Feature", "properties": { "内容": "ひかりケアホーム【介護老人保健施設】板垣５丁目２０１奥村病院・ひかりケアホーム", "url2": "https://www.kaigokensaku.mhlw.go.jp/18/index.php?action_kouhyou_detail_004_kani=true&JigyosyoCd=1850180116-00&ServiceCd=520&Type=search" }, "geometry": { "type": "Point", "coordinates": [ 136.2282103, 36.0442511 ] } },
{ "type": "Feature", "properties": { "内容": "介護老人保健施設　福井ケアセンター【介護老人保健施設】福井県福井市乾徳４丁目５番８号", "url2": "https://www.kaigokensaku.mhlw.go.jp/18/index.php?action_kouhyou_detail_004_kani=true&JigyosyoCd=1850180025-00&ServiceCd=520&Type=search" }, "geometry": { "type": "Point", "coordinates": [ 136.2050203, 36.0714381 ] } },
{ "type": "Feature", "properties": { "内容": "九頭竜長生苑【介護老人保健施設】福井県福井市寺前町２－２－２", "url2": "https://www.kaigokensaku.mhlw.go.jp/18/index.php?action_kouhyou_detail_004_kani=true&JigyosyoCd=1850180033-00&ServiceCd=520&Type=search" }, "geometry": { "type": "Point", "coordinates": [ 136.234229199999959, 36.1032184 ] } },
{ "type": "Feature", "properties": { "内容": "小規模サテライト型介護老人保健施設　「気比の風」【介護老人保健施設】福井県敦賀市津内町３丁目６－２１", "url2": "https://www.kaigokensaku.mhlw.go.jp/18/index.php?action_kouhyou_detail_004_kani=true&JigyosyoCd=1850280031-00&ServiceCd=520&Type=search" }, "geometry": { "type": "Point", "coordinates": [ 136.070055700000012, 35.6467752 ] } },
{ "type": "Feature", "properties": { "内容": "湯の里ナーシングホーム【介護老人保健施設】福井県敦賀市中８１号岩ケ鼻1-11", "url2": "https://www.kaigokensaku.mhlw.go.jp/18/index.php?action_kouhyou_detail_004_kani=true&JigyosyoCd=1850280007-00&ServiceCd=520&Type=search" }, "geometry": { "type": "Point", "coordinates": [ 136.087329246883883, 35.638428933380226 ] } },
{ "type": "Feature", "properties": { "内容": "ヒバリヒルズ【介護老人保健施設】福井県敦賀市ひばりヶ丘町249番地", "url2": "https://www.kaigokensaku.mhlw.go.jp/18/index.php?action_kouhyou_detail_004_kani=true&JigyosyoCd=1850280015-00&ServiceCd=520&Type=search" }, "geometry": { "type": "Point", "coordinates": [ 136.042853700000023, 35.6237883 ] } },
{ "type": "Feature", "properties": { "内容": "介護老人保健施設　リバーサイド気比の杜【介護老人保健施設】福井県敦賀市昭和町2-2801", "url2": "https://www.kaigokensaku.mhlw.go.jp/18/index.php?action_kouhyou_detail_004_kani=true&JigyosyoCd=1850280049-00&ServiceCd=520&Type=search" }, "geometry": { "type": "Point", "coordinates": [ 136.063556699999907, 35.6402478 ] } },
{ "type": "Feature", "properties": { "内容": "介護老人保健施設　リバーサイド気比の杜【介護老人保健施設】福井県敦賀市昭和町2-2801", "url2": "https://www.kaigokensaku.mhlw.go.jp/18/index.php?action_kouhyou_detail_004_kani=true&JigyosyoCd=1850280023-00&ServiceCd=520&Type=search" }, "geometry": { "type": "Point", "coordinates": [ 136.063556699999907, 35.6402478 ] } },
{ "type": "Feature", "properties": { "内容": "介護老人保健施設アクール若狭【介護老人保健施設】福井県小浜市大手町2-2", "url2": "https://www.kaigokensaku.mhlw.go.jp/18/index.php?action_kouhyou_detail_004_kani=true&JigyosyoCd=1850480011-00&ServiceCd=520&Type=search" }, "geometry": { "type": "Point", "coordinates": [ 135.74668, 35.4942738 ] } },
{ "type": "Feature", "properties": { "内容": "キラキラの町【介護老人保健施設】大野市要町１－１３", "url2": "https://www.kaigokensaku.mhlw.go.jp/18/index.php?action_kouhyou_detail_004_kani=true&JigyosyoCd=1850580018-00&ServiceCd=520&Type=search" }, "geometry": { "type": "Point", "coordinates": [ 136.489038599999958, 35.990482 ] } },
{ "type": "Feature", "properties": { "内容": "介護老人保健施設　鷲巣苑【介護老人保健施設】福井県勝山市北郷町坂東島第８号２番地", "url2": "https://www.kaigokensaku.mhlw.go.jp/18/index.php?action_kouhyou_detail_004_kani=true&JigyosyoCd=1850680016-00&ServiceCd=520&Type=search" }, "geometry": { "type": "Point", "coordinates": [ 136.424068799999986, 36.0810274 ] } },
{ "type": "Feature", "properties": { "内容": "福井勝山総合病院附属介護老人保健施設【介護老人保健施設】福井県勝山市長山町2-6-21", "url2": "https://www.kaigokensaku.mhlw.go.jp/18/index.php?action_kouhyou_detail_004_kani=true&JigyosyoCd=1850680032-00&ServiceCd=520&Type=search" }, "geometry": { "type": "Point", "coordinates": [ 136.506088800000043, 36.0708578 ] } },
{ "type": "Feature", "properties": { "内容": "鯖江ケアセンターみどり荘【介護老人保健施設】鯖江市中野町33-20-1", "url2": "https://www.kaigokensaku.mhlw.go.jp/18/index.php?action_kouhyou_detail_004_kani=true&JigyosyoCd=1850780022-00&ServiceCd=520&Type=search" }, "geometry": { "type": "Point", "coordinates": [ 136.2061218, 35.9475163 ] } },
{ "type": "Feature", "properties": { "内容": "神明ケアセンター【介護老人保健施設】福井県鯖江市幸町１丁目2-2", "url2": "https://www.kaigokensaku.mhlw.go.jp/18/index.php?action_kouhyou_detail_004_kani=true&JigyosyoCd=1850780030-00&ServiceCd=520&Type=search" }, "geometry": { "type": "Point", "coordinates": [ 136.1810822, 35.9731367 ] } },
{ "type": "Feature", "properties": { "内容": "リハビリセンター王山【介護老人保健施設】福井県鯖江市旭町１丁目3番22号", "url2": "https://www.kaigokensaku.mhlw.go.jp/18/index.php?action_kouhyou_detail_004_kani=true&JigyosyoCd=1850780014-00&ServiceCd=520&Type=search" }, "geometry": { "type": "Point", "coordinates": [ 136.188322882803277, 35.944230709445151 ] } },
{ "type": "Feature", "properties": { "内容": "加納老健【介護老人保健施設】あわら市花乃杜1-2-39", "url2": "https://www.kaigokensaku.mhlw.go.jp/18/index.php?action_kouhyou_detail_004_kani=true&JigyosyoCd=1850880038-00&ServiceCd=520&Type=search" }, "geometry": { "type": "Point", "coordinates": [ 136.224595099999988, 36.2160385 ] } },
{ "type": "Feature", "properties": { "内容": "介護老人保健施設　ナイスケア木村【介護老人保健施設】福井県あわら市市姫3-23-4", "url2": "https://www.kaigokensaku.mhlw.go.jp/18/index.php?action_kouhyou_detail_004_kani=true&JigyosyoCd=1850880012-00&ServiceCd=520&Type=search" }, "geometry": { "type": "Point", "coordinates": [ 136.22837, 36.2091948 ] } },
{ "type": "Feature", "properties": { "内容": "シルバーハイツ武生【介護老人保健施設】越前市中央2-9-40", "url2": "https://www.kaigokensaku.mhlw.go.jp/18/index.php?action_kouhyou_detail_004_kani=true&JigyosyoCd=1850380013-00&ServiceCd=520&Type=search" }, "geometry": { "type": "Point", "coordinates": [ 136.156442199999987, 35.9026927 ] } },
{ "type": "Feature", "properties": { "内容": "介護老人保健施設　シルバーケア藤【介護老人保健施設】福井県越前市北府三丁目５番１号", "url2": "https://www.kaigokensaku.mhlw.go.jp/18/index.php?action_kouhyou_detail_004_kani=true&JigyosyoCd=1850380021-00&ServiceCd=520&Type=search" }, "geometry": { "type": "Point", "coordinates": [ 136.164952299999982, 35.9109781 ] } },
{ "type": "Feature", "properties": { "内容": "介護老人保健施設ディーパあかね【介護老人保健施設】福井県坂井市丸岡町羽崎31-11-3", "url2": "https://www.kaigokensaku.mhlw.go.jp/18/index.php?action_kouhyou_detail_004_kani=true&JigyosyoCd=1851780013-00&ServiceCd=520&Type=search" }, "geometry": { "type": "Point", "coordinates": [ 136.262623500000018, 36.1151158 ] } },
{ "type": "Feature", "properties": { "内容": "坂井ケアセンター【介護老人保健施設】福井県坂井市坂井町折戸第１号５８番地", "url2": "https://www.kaigokensaku.mhlw.go.jp/18/index.php?action_kouhyou_detail_004_kani=true&JigyosyoCd=1851780021-00&ServiceCd=520&Type=search" }, "geometry": { "type": "Point", "coordinates": [ 136.169951521426356, 36.171583683372006 ] } },
{ "type": "Feature", "properties": { "内容": "介護老人保健施設　東尋坊ひまわりの丘【介護老人保健施設】福井県坂井市三国町陣ヶ岡16-13-18", "url2": "https://www.kaigokensaku.mhlw.go.jp/18/index.php?action_kouhyou_detail_004_kani=true&JigyosyoCd=1851780047-00&ServiceCd=520&Type=search" }, "geometry": { "type": "Point", "coordinates": [ 136.142114799999945, 36.2383927 ] } },
{ "type": "Feature", "properties": { "内容": "介護老人保健施設　ライフケアはるさか【介護老人保健施設】春江町中筋第100号77番地", "url2": "https://www.kaigokensaku.mhlw.go.jp/18/index.php?action_kouhyou_detail_004_kani=true&JigyosyoCd=1871700975-00&ServiceCd=520&Type=search" }, "geometry": { "type": "Point", "coordinates": [ 136.2361783, 36.1273938 ] } },
{ "type": "Feature", "properties": { "内容": "シルバーケア日野【介護老人保健施設】南条郡南越前町東大道33-10-1", "url2": "https://www.kaigokensaku.mhlw.go.jp/18/index.php?action_kouhyou_detail_004_kani=true&JigyosyoCd=1851980019-00&ServiceCd=520&Type=search" }, "geometry": { "type": "Point", "coordinates": [ 136.19421, 35.8336476 ] } },
{ "type": "Feature", "properties": { "内容": "今庄老人保健施設【介護老人保健施設】福井県南条郡南越前町今庄84-26", "url2": "https://www.kaigokensaku.mhlw.go.jp/18/index.php?action_kouhyou_detail_004_kani=true&JigyosyoCd=1851980035-00&ServiceCd=520&Type=search" }, "geometry": { "type": "Point", "coordinates": [ 136.200634700000023, 35.7724385 ] } },
{ "type": "Feature", "properties": { "内容": "独立行政法人　地域医療機能推進機構　若狭高浜病院附属介護老人保健施設【介護老人保健施設】大飯郡高浜町宮崎８７－１４－２", "url2": "https://www.kaigokensaku.mhlw.go.jp/18/index.php?action_kouhyou_detail_004_kani=true&JigyosyoCd=1852380011-00&ServiceCd=520&Type=search" }, "geometry": { "type": "Point", "coordinates": [ 135.546282099999985, 35.4887754 ] } },
{ "type": "Feature", "properties": { "内容": "介護老人保健施設　なごみ【介護老人保健施設】福井県大飯郡おおい町本郷第92号51番地1", "url2": "https://www.kaigokensaku.mhlw.go.jp/18/index.php?action_kouhyou_detail_004_kani=true&JigyosyoCd=1852380029-00&ServiceCd=520&Type=search" }, "geometry": { "type": "Point", "coordinates": [ 135.624178, 35.474744 ] } },
{ "type": "Feature", "properties": { "内容": "介護老人保健施設　ゆなみ【介護老人保健施設】福井県三方上中郡若狭町岩屋61-31", "url2": "https://www.kaigokensaku.mhlw.go.jp/18/index.php?action_kouhyou_detail_004_kani=true&JigyosyoCd=1852480019-00&ServiceCd=520&Type=search" }, "geometry": { "type": "Point", "coordinates": [ 135.894197299999973, 35.5147443 ] } }
]
}
