{
"type": "FeatureCollection",
"name": "geo_18_幼保連携型認定こども園",
"crs": { "type": "name", "properties": { "name": "urn:ogc:def:crs:EPSG::6668" } },
"features": [
{ "type": "Feature", "properties": { "P29_001": "18204", "P29_002": "A218210000010", "P29_003": "16013", "P29_004": "小浜市浜っ子こども園", "P29_005": "福井県小浜市川崎1-4-3", "P29_006": "3", "P29_007": "0", "P29_008": "00", "P29_009": null }, "geometry": { "type": "Point", "coordinates": [ 135.741542532068848, 35.499708584458496 ] } },
{ "type": "Feature", "properties": { "P29_001": "18207", "P29_002": "A218210000029", "P29_003": "16013", "P29_004": "鯖江市ゆたかこども園", "P29_005": "福井県鯖江市上野田町2-9", "P29_006": "3", "P29_007": "0", "P29_008": "00", "P29_009": null }, "geometry": { "type": "Point", "coordinates": [ 136.151443055625322, 35.942364165262426 ] } },
{ "type": "Feature", "properties": { "P29_001": "18382", "P29_002": "A218210000038", "P29_003": "16013", "P29_004": "池田町なかよしこども園", "P29_005": "福井県今立郡池田町山田20-16-1", "P29_006": "3", "P29_007": "0", "P29_008": "00", "P29_009": null }, "geometry": { "type": "Point", "coordinates": [ 136.339627514523983, 35.889050499846576 ] } },
{ "type": "Feature", "properties": { "P29_001": "18208", "P29_002": "A218210000047", "P29_003": "16013", "P29_004": "芦原こども園", "P29_005": "福井県あわら市国影13-13", "P29_006": "3", "P29_007": "0", "P29_008": "00", "P29_009": null }, "geometry": { "type": "Point", "coordinates": [ 136.203762864666146, 36.223909732289592 ] } },
{ "type": "Feature", "properties": { "P29_001": "18208", "P29_002": "A218210000056", "P29_003": "16013", "P29_004": "金津こども園", "P29_005": "福井県あわら市春宮3-24-20", "P29_006": "3", "P29_007": "0", "P29_008": "00", "P29_009": null }, "geometry": { "type": "Point", "coordinates": [ 136.229859881408714, 36.219519887130787 ] } },
{ "type": "Feature", "properties": { "P29_001": "18209", "P29_002": "A218210000065", "P29_003": "16013", "P29_004": "越前市認定こども園北日野", "P29_005": "福井県越前市矢放町16-4", "P29_006": "3", "P29_007": "0", "P29_008": "00", "P29_009": null }, "geometry": { "type": "Point", "coordinates": [ 136.1876538804284, 35.888855531424845 ] } },
{ "type": "Feature", "properties": { "P29_001": "18209", "P29_002": "A218210000074", "P29_003": "16013", "P29_004": "越前市認定こども園岡本", "P29_005": "福井県越前市岩本町5-26", "P29_006": "3", "P29_007": "0", "P29_008": "00", "P29_009": null }, "geometry": { "type": "Point", "coordinates": [ 136.245177075027613, 35.908423670947322 ] } },
{ "type": "Feature", "properties": { "P29_001": "18209", "P29_002": "A218210000083", "P29_003": "16013", "P29_004": "越前市認定こども園南中山", "P29_005": "福井県越前市中津山町41-13-2", "P29_006": "3", "P29_007": "0", "P29_008": "00", "P29_009": null }, "geometry": { "type": "Point", "coordinates": [ 136.245970539372962, 35.929583432993986 ] } },
{ "type": "Feature", "properties": { "P29_001": "18209", "P29_002": "A218210000092", "P29_003": "16013", "P29_004": "越前市認定こども園服間", "P29_005": "福井県越前市藤木町12-34", "P29_006": "3", "P29_007": "0", "P29_008": "00", "P29_009": null }, "geometry": { "type": "Point", "coordinates": [ 136.264068060739703, 35.935513966797096 ] } },
{ "type": "Feature", "properties": { "P29_001": "18209", "P29_002": "A218210000109", "P29_003": "16013", "P29_004": "越前市認定こども園北新庄", "P29_005": "福井県越前市北町38-6", "P29_006": "3", "P29_007": "0", "P29_008": "00", "P29_009": null }, "geometry": { "type": "Point", "coordinates": [ 136.209049408426836, 35.914042639638254 ] } },
{ "type": "Feature", "properties": { "P29_001": "18201", "P29_002": "A218210000118", "P29_003": "16013", "P29_004": "福井市六条こども園", "P29_005": "福井県福井市天王町21-1-1", "P29_006": "3", "P29_007": "0", "P29_008": "00", "P29_009": null }, "geometry": { "type": "Point", "coordinates": [ 136.234637829250914, 36.027145252597009 ] } },
{ "type": "Feature", "properties": { "P29_001": "18201", "P29_002": "A218210000127", "P29_003": "16013", "P29_004": "福井市文殊こども園", "P29_005": "福井県福井市太田町14-1", "P29_006": "3", "P29_007": "0", "P29_008": "00", "P29_009": null }, "geometry": { "type": "Point", "coordinates": [ 136.230248620138894, 36.011619270906017 ] } },
{ "type": "Feature", "properties": { "P29_001": "18210", "P29_002": "A218210000136", "P29_003": "16013", "P29_004": "坂井こども園", "P29_005": "福井県坂井市坂井町宮領第40-25-1", "P29_006": "3", "P29_007": "0", "P29_008": "00", "P29_009": null }, "geometry": { "type": "Point", "coordinates": [ 136.241216411776264, 36.165296078006278 ] } },
{ "type": "Feature", "properties": { "P29_001": "18404", "P29_002": "A218210000145", "P29_003": "16013", "P29_004": "南条こども園", "P29_005": "福井県南条郡南越前町東大道23-14-4", "P29_006": "3", "P29_007": "0", "P29_008": "00", "P29_009": null }, "geometry": { "type": "Point", "coordinates": [ 136.194015766290505, 35.836103427890009 ] } },
{ "type": "Feature", "properties": { "P29_001": "18201", "P29_002": "A218210000154", "P29_003": "16013", "P29_004": "福井市鶉こども園", "P29_005": "福井県福井市砂子坂町6字20", "P29_006": "3", "P29_007": "0", "P29_008": "00", "P29_009": null }, "geometry": { "type": "Point", "coordinates": [ 136.146079135326772, 36.143543082559994 ] } },
{ "type": "Feature", "properties": { "P29_001": "18201", "P29_002": "A218210000163", "P29_003": "16013", "P29_004": "福井市棗こども園", "P29_005": "福井県福井市石新保町第13-17", "P29_006": "3", "P29_007": "0", "P29_008": "00", "P29_009": null }, "geometry": { "type": "Point", "coordinates": [ 136.108172351535757, 36.14519546158693 ] } },
{ "type": "Feature", "properties": { "P29_001": "18201", "P29_002": "A218210000172", "P29_003": "16013", "P29_004": "福井市東藤島こども園", "P29_005": "福井県福井市藤島町46-13-1", "P29_006": "3", "P29_007": "0", "P29_008": "00", "P29_009": null }, "geometry": { "type": "Point", "coordinates": [ 136.271470438701215, 36.086484292877167 ] } },
{ "type": "Feature", "properties": { "P29_001": "18210", "P29_002": "A218210000181", "P29_003": "16013", "P29_004": "雄島こども園", "P29_005": "福井県坂井市三国町陣ヶ岡16-13-3", "P29_006": "3", "P29_007": "0", "P29_008": "00", "P29_009": null }, "geometry": { "type": "Point", "coordinates": [ 136.14132844006761, 36.238216302859605 ] } },
{ "type": "Feature", "properties": { "P29_001": "18483", "P29_002": "A218210000190", "P29_003": "16013", "P29_004": "名田庄こども園", "P29_005": "福井県大飯郡おおい町小倉16-10-4", "P29_006": "3", "P29_007": "0", "P29_008": "00", "P29_009": null }, "geometry": { "type": "Point", "coordinates": [ 135.674318171423636, 35.399010418047062 ] } },
{ "type": "Feature", "properties": { "P29_001": "18201", "P29_002": "A218210000207", "P29_003": "16013", "P29_004": "福井市麻生津こども園", "P29_005": "福井県福井市浅水二日町131字下河原18", "P29_006": "3", "P29_007": "0", "P29_008": "00", "P29_009": null }, "geometry": { "type": "Point", "coordinates": [ 136.196921668053477, 36.001701490029774 ] } },
{ "type": "Feature", "properties": { "P29_001": "18201", "P29_002": "A218210000216", "P29_003": "16013", "P29_004": "福井市東郷こども園", "P29_005": "福井県福井市東郷二ケ町第37-18", "P29_006": "3", "P29_007": "0", "P29_008": "00", "P29_009": null }, "geometry": { "type": "Point", "coordinates": [ 136.273012879830361, 36.015531616775519 ] } },
{ "type": "Feature", "properties": { "P29_001": "18207", "P29_002": "A218210000225", "P29_003": "16013", "P29_004": "鯖江市せきいんこども園", "P29_005": "福井県鯖江市日の出町6-37", "P29_006": "3", "P29_007": "0", "P29_008": "00", "P29_009": null }, "geometry": { "type": "Point", "coordinates": [ 136.185969174921468, 35.942512276476926 ] } },
{ "type": "Feature", "properties": { "P29_001": "18201", "P29_002": "A218210000234", "P29_003": "16013", "P29_004": "福井市みやまこども園", "P29_005": "福井県福井市境寺町36-3", "P29_006": "3", "P29_007": "0", "P29_008": "00", "P29_009": null }, "geometry": { "type": "Point", "coordinates": [ 136.364665823351913, 35.998319556341592 ] } },
{ "type": "Feature", "properties": { "P29_001": "18207", "P29_002": "A218210000243", "P29_003": "16013", "P29_004": "鯖江市しんとくこども園", "P29_005": "福井県鯖江市長泉寺町1-9-19", "P29_006": "3", "P29_007": "0", "P29_008": "00", "P29_009": null }, "geometry": { "type": "Point", "coordinates": [ 136.184394061468595, 35.953081892819277 ] } },
{ "type": "Feature", "properties": { "P29_001": "18481", "P29_002": "A218210000252", "P29_003": "16013", "P29_004": "高浜町立認定こども園ｃｏｃｏｋａｒａ", "P29_005": "福井県大飯郡高浜町薗部第40-1-1", "P29_006": "3", "P29_007": "0", "P29_008": "00", "P29_009": null }, "geometry": { "type": "Point", "coordinates": [ 135.560076231825292, 35.485827648593968 ] } },
{ "type": "Feature", "properties": { "P29_001": "18201", "P29_002": "A218310000018", "P29_003": "16013", "P29_004": "認定こども園福井佼成幼稚園", "P29_005": "福井県福井市春日3-1303", "P29_006": "4", "P29_007": "0", "P29_008": "00", "P29_009": null }, "geometry": { "type": "Point", "coordinates": [ 136.224289058928008, 36.051088630379297 ] } },
{ "type": "Feature", "properties": { "P29_001": "18201", "P29_002": "A218310000027", "P29_003": "16013", "P29_004": "認定こども園栄冠こども園", "P29_005": "福井県福井市大手3-15-16", "P29_006": "4", "P29_007": "0", "P29_008": "00", "P29_009": null }, "geometry": { "type": "Point", "coordinates": [ 136.218541354591764, 36.066665581438293 ] } },
{ "type": "Feature", "properties": { "P29_001": "18201", "P29_002": "A218310000036", "P29_003": "16013", "P29_004": "昭和認定こども園昭和幼稚園", "P29_005": "福井県福井市みのり1-29-1", "P29_006": "4", "P29_007": "0", "P29_008": "00", "P29_009": null }, "geometry": { "type": "Point", "coordinates": [ 136.216345268224586, 36.048068002412833 ] } },
{ "type": "Feature", "properties": { "P29_001": "18201", "P29_002": "A218310000045", "P29_003": "16013", "P29_004": "みどりこども園", "P29_005": "福井県福井市足羽1-22-1", "P29_006": "4", "P29_007": "0", "P29_008": "00", "P29_009": null }, "geometry": { "type": "Point", "coordinates": [ 136.207545995555904, 36.059343997190631 ] } },
{ "type": "Feature", "properties": { "P29_001": "18201", "P29_002": "A218310000054", "P29_003": "16013", "P29_004": "認定こども園梅圃幼稚園", "P29_005": "福井県福井市今市町46-23", "P29_006": "4", "P29_007": "0", "P29_008": "00", "P29_009": null }, "geometry": { "type": "Point", "coordinates": [ 136.201701945513122, 36.017327168686847 ] } },
{ "type": "Feature", "properties": { "P29_001": "18209", "P29_002": "A218310000063", "P29_003": "16013", "P29_004": "認定こども園あわたべ", "P29_005": "福井県越前市粟田部町46-2", "P29_006": "4", "P29_007": "0", "P29_008": "00", "P29_009": null }, "geometry": { "type": "Point", "coordinates": [ 136.240696001395918, 35.913321669672747 ] } },
{ "type": "Feature", "properties": { "P29_001": "18404", "P29_002": "A218310000072", "P29_003": "16013", "P29_004": "今庄なないろこども園", "P29_005": "福井県南条郡南越前町今庄28-10-2", "P29_006": "4", "P29_007": "0", "P29_008": "00", "P29_009": null }, "geometry": { "type": "Point", "coordinates": [ 136.198494704767654, 35.779410601619709 ] } },
{ "type": "Feature", "properties": { "P29_001": "18208", "P29_002": "A218310000081", "P29_003": "16013", "P29_004": "本荘こども園", "P29_005": "福井県あわら市下番7-1", "P29_006": "4", "P29_007": "0", "P29_008": "00", "P29_009": null }, "geometry": { "type": "Point", "coordinates": [ 136.195606062868279, 36.205773828472729 ] } },
{ "type": "Feature", "properties": { "P29_001": "18208", "P29_002": "A218310000090", "P29_003": "16013", "P29_004": "北潟こども園", "P29_005": "福井県あわら市北潟36-17-2", "P29_006": "4", "P29_007": "0", "P29_008": "00", "P29_009": null }, "geometry": { "type": "Point", "coordinates": [ 136.223332232290204, 36.261468532436687 ] } },
{ "type": "Feature", "properties": { "P29_001": "18208", "P29_002": "A218310000107", "P29_003": "16013", "P29_004": "伊井こども園", "P29_005": "福井県あわら市清間21-27-1", "P29_006": "4", "P29_007": "0", "P29_008": "00", "P29_009": null }, "geometry": { "type": "Point", "coordinates": [ 136.249000588064263, 36.196472132440931 ] } },
{ "type": "Feature", "properties": { "P29_001": "18208", "P29_002": "A218310000116", "P29_003": "16013", "P29_004": "細呂木こども園", "P29_005": "福井県あわら市滝63-25", "P29_006": "4", "P29_007": "0", "P29_008": "00", "P29_009": null }, "geometry": { "type": "Point", "coordinates": [ 136.254850585779792, 36.239872241111094 ] } },
{ "type": "Feature", "properties": { "P29_001": "18208", "P29_002": "A218310000125", "P29_003": "16013", "P29_004": "金津東こども園", "P29_005": "福井県あわら市中川17-18", "P29_006": "4", "P29_007": "0", "P29_008": "00", "P29_009": null }, "geometry": { "type": "Point", "coordinates": [ 136.270309997256845, 36.197715997457223 ] } },
{ "type": "Feature", "properties": { "P29_001": "18201", "P29_002": "A218310000134", "P29_003": "16013", "P29_004": "認定こども園新田塚幼稚園", "P29_005": "福井県福井市新田塚2-46-26", "P29_006": "4", "P29_007": "0", "P29_008": "00", "P29_009": null }, "geometry": { "type": "Point", "coordinates": [ 136.200206945104838, 36.089215863040074 ] } },
{ "type": "Feature", "properties": { "P29_001": "18201", "P29_002": "A218310000143", "P29_003": "16013", "P29_004": "いずみこども園", "P29_005": "福井県福井市若杉浜2-302", "P29_006": "4", "P29_007": "0", "P29_008": "00", "P29_009": null }, "geometry": { "type": "Point", "coordinates": [ 136.186900997445889, 36.062042942514317 ] } },
{ "type": "Feature", "properties": { "P29_001": "18201", "P29_002": "A218310000152", "P29_003": "16013", "P29_004": "幼保連携型認定こども園竹里", "P29_005": "福井県福井市成和1-303", "P29_006": "4", "P29_007": "0", "P29_008": "00", "P29_009": null }, "geometry": { "type": "Point", "coordinates": [ 136.244803004383556, 36.058609996468526 ] } },
{ "type": "Feature", "properties": { "P29_001": "18201", "P29_002": "A218310000161", "P29_003": "16013", "P29_004": "めぐみこども園", "P29_005": "福井県福井市久喜津町34-1", "P29_006": "4", "P29_007": "0", "P29_008": "00", "P29_009": null }, "geometry": { "type": "Point", "coordinates": [ 136.17959564996724, 36.056911213813116 ] } },
{ "type": "Feature", "properties": { "P29_001": "18201", "P29_002": "A218310000170", "P29_003": "16013", "P29_004": "青い鳥こども園", "P29_005": "福井県福井市中央2-7-23", "P29_006": "4", "P29_007": "0", "P29_008": "00", "P29_009": null }, "geometry": { "type": "Point", "coordinates": [ 136.218048242899243, 36.059342996144949 ] } },
{ "type": "Feature", "properties": { "P29_001": "18201", "P29_002": "A218310000189", "P29_003": "16013", "P29_004": "さくら認定こども園", "P29_005": "福井県福井市文京1-30-1", "P29_006": "4", "P29_007": "0", "P29_008": "00", "P29_009": null }, "geometry": { "type": "Point", "coordinates": [ 136.224363354101428, 36.078609935116269 ] } },
{ "type": "Feature", "properties": { "P29_001": "18201", "P29_002": "A218310000198", "P29_003": "16013", "P29_004": "足羽東こども園", "P29_005": "福井県福井市東大味町10-1-1", "P29_006": "4", "P29_007": "0", "P29_008": "00", "P29_009": null }, "geometry": { "type": "Point", "coordinates": [ 136.259002391453521, 35.995018967380446 ] } },
{ "type": "Feature", "properties": { "P29_001": "18201", "P29_002": "A218310000205", "P29_003": "16013", "P29_004": "幼保連携型認定こども園あさかぜ", "P29_005": "福井県福井市渕1-3211", "P29_006": "4", "P29_007": "0", "P29_008": "00", "P29_009": null }, "geometry": { "type": "Point", "coordinates": [ 136.191492051348803, 36.037802832071407 ] } },
{ "type": "Feature", "properties": { "P29_001": "18201", "P29_002": "A218310000214", "P29_003": "16013", "P29_004": "幼保連携型認定こども園三谷館", "P29_005": "福井県福井市中央2-12-15", "P29_006": "4", "P29_007": "0", "P29_008": "00", "P29_009": null }, "geometry": { "type": "Point", "coordinates": [ 136.219287177041679, 36.05707300419342 ] } },
{ "type": "Feature", "properties": { "P29_001": "18208", "P29_002": "A218310000223", "P29_003": "16013", "P29_004": "妙安寺こども園", "P29_005": "福井県あわら市市姫2-17-3", "P29_006": "4", "P29_007": "0", "P29_008": "00", "P29_009": null }, "geometry": { "type": "Point", "coordinates": [ 136.229605001477154, 36.213379999870035 ] } },
{ "type": "Feature", "properties": { "P29_001": "18208", "P29_002": "A218310000232", "P29_003": "16013", "P29_004": "白藤こども園", "P29_005": "福井県あわら市市姫1-13-17", "P29_006": "4", "P29_007": "0", "P29_008": "00", "P29_009": null }, "geometry": { "type": "Point", "coordinates": [ 136.23193847243175, 36.213460036227566 ] } },
{ "type": "Feature", "properties": { "P29_001": "18208", "P29_002": "A218310000241", "P29_003": "16013", "P29_004": "善久寺こども園", "P29_005": "福井県あわら市舟津3-23-2", "P29_006": "4", "P29_007": "0", "P29_008": "00", "P29_009": null }, "geometry": { "type": "Point", "coordinates": [ 136.190555146567306, 36.224774320432196 ] } },
{ "type": "Feature", "properties": { "P29_001": "18208", "P29_002": "A218310000250", "P29_003": "16013", "P29_004": "あわら敬愛こども園", "P29_005": "福井県あわら市田中々3-7-6", "P29_006": "4", "P29_007": "0", "P29_008": "00", "P29_009": null }, "geometry": { "type": "Point", "coordinates": [ 136.197126381315428, 36.221237195948831 ] } },
{ "type": "Feature", "properties": { "P29_001": "18208", "P29_002": "A218310000269", "P29_003": "16013", "P29_004": "いちひめこども園", "P29_005": "福井県あわら市市姫3-8-1", "P29_006": "4", "P29_007": "0", "P29_008": "00", "P29_009": null }, "geometry": { "type": "Point", "coordinates": [ 136.226769095595785, 36.210673764947074 ] } },
{ "type": "Feature", "properties": { "P29_001": "18209", "P29_002": "A218310000278", "P29_003": "16013", "P29_004": "安養寺こども園", "P29_005": "福井県越前市安養寺町89-29-1", "P29_006": "4", "P29_007": "0", "P29_008": "00", "P29_009": null }, "geometry": { "type": "Point", "coordinates": [ 136.07752599593357, 35.912070000408406 ] } },
{ "type": "Feature", "properties": { "P29_001": "18201", "P29_002": "A218310000287", "P29_003": "16013", "P29_004": "認定こども園エンゼル保育園", "P29_005": "福井県福井市西谷2-702", "P29_006": "4", "P29_007": "0", "P29_008": "00", "P29_009": null }, "geometry": { "type": "Point", "coordinates": [ 136.205210997231035, 36.038225002258244 ] } },
{ "type": "Feature", "properties": { "P29_001": "18201", "P29_002": "A218310000296", "P29_003": "16013", "P29_004": "しみずこども園", "P29_005": "福井県福井市風巻町28-5", "P29_006": "4", "P29_007": "0", "P29_008": "00", "P29_009": null }, "geometry": { "type": "Point", "coordinates": [ 136.148202010420931, 36.027546769505754 ] } },
{ "type": "Feature", "properties": { "P29_001": "18201", "P29_002": "A218310000303", "P29_003": "16013", "P29_004": "ひまわりこども園", "P29_005": "福井県福井市足羽3-2-28", "P29_006": "4", "P29_007": "0", "P29_008": "00", "P29_009": null }, "geometry": { "type": "Point", "coordinates": [ 136.204972767451295, 36.057030355898149 ] } },
{ "type": "Feature", "properties": { "P29_001": "18201", "P29_002": "A218310000312", "P29_003": "16013", "P29_004": "社中央第一こども園", "P29_005": "福井県福井市渕町4-1005", "P29_006": "4", "P29_007": "0", "P29_008": "00", "P29_009": null }, "geometry": { "type": "Point", "coordinates": [ 136.184640590439955, 36.045370138447602 ] } },
{ "type": "Feature", "properties": { "P29_001": "18201", "P29_002": "A218310000321", "P29_003": "16013", "P29_004": "和田こども園", "P29_005": "福井県福井市和田3-907", "P29_006": "4", "P29_007": "0", "P29_008": "00", "P29_009": null }, "geometry": { "type": "Point", "coordinates": [ 136.245673589287662, 36.04907310457795 ] } },
{ "type": "Feature", "properties": { "P29_001": "18201", "P29_002": "A218310000330", "P29_003": "16013", "P29_004": "玉ノ江こども園", "P29_005": "福井県福井市大島町柳504", "P29_006": "4", "P29_007": "0", "P29_008": "00", "P29_009": null }, "geometry": { "type": "Point", "coordinates": [ 136.207341121365914, 36.033739111067085 ] } },
{ "type": "Feature", "properties": { "P29_001": "18201", "P29_002": "A218310000349", "P29_003": "16013", "P29_004": "社中央第二こども園", "P29_005": "福井県福井市運動公園1-3903", "P29_006": "4", "P29_007": "0", "P29_008": "00", "P29_009": null }, "geometry": { "type": "Point", "coordinates": [ 136.179014769228388, 36.05012687209733 ] } },
{ "type": "Feature", "properties": { "P29_001": "18201", "P29_002": "A218310000358", "P29_003": "16013", "P29_004": "あさひこども園", "P29_005": "福井県福井市栂野町2-53", "P29_006": "4", "P29_007": "0", "P29_008": "00", "P29_009": null }, "geometry": { "type": "Point", "coordinates": [ 136.251437124305852, 36.03504885575213 ] } },
{ "type": "Feature", "properties": { "P29_001": "18201", "P29_002": "A218310000367", "P29_003": "16013", "P29_004": "みづこしこども園", "P29_005": "福井県福井市豊岡1-11-15", "P29_006": "4", "P29_007": "0", "P29_008": "00", "P29_009": null }, "geometry": { "type": "Point", "coordinates": [ 136.192894236647334, 36.069653320698471 ] } },
{ "type": "Feature", "properties": { "P29_001": "18201", "P29_002": "A218310000376", "P29_003": "16013", "P29_004": "認定こども園花園", "P29_005": "福井県福井市松本1-36-15", "P29_006": "4", "P29_007": "0", "P29_008": "00", "P29_009": null }, "geometry": { "type": "Point", "coordinates": [ 136.231906765687995, 36.075625702500048 ] } },
{ "type": "Feature", "properties": { "P29_001": "18201", "P29_002": "A218310000385", "P29_003": "16013", "P29_004": "えばたこども園", "P29_005": "福井県福井市江端町12-9", "P29_006": "4", "P29_007": "0", "P29_008": "00", "P29_009": null }, "geometry": { "type": "Point", "coordinates": [ 136.213752175434735, 36.026400278754956 ] } },
{ "type": "Feature", "properties": { "P29_001": "18201", "P29_002": "A218310000394", "P29_003": "16013", "P29_004": "三心わくわく認定こども園", "P29_005": "福井県福井市高木中央2-3815", "P29_006": "4", "P29_007": "0", "P29_008": "00", "P29_009": null }, "geometry": { "type": "Point", "coordinates": [ 136.232619878591493, 36.089836080602453 ] } },
{ "type": "Feature", "properties": { "P29_001": "18201", "P29_002": "A218310000401", "P29_003": "16013", "P29_004": "杉の木台こども園", "P29_005": "福井県福井市中野1-2105", "P29_006": "4", "P29_007": "0", "P29_008": "00", "P29_009": null }, "geometry": { "type": "Point", "coordinates": [ 136.186385645953663, 36.000480631056888 ] } },
{ "type": "Feature", "properties": { "P29_001": "18201", "P29_002": "A218310000410", "P29_003": "16013", "P29_004": "認定こども園鷹巣ひかり", "P29_005": "福井県福井市西二ツ屋町9-8", "P29_006": "4", "P29_007": "0", "P29_008": "00", "P29_009": null }, "geometry": { "type": "Point", "coordinates": [ 136.079777168095262, 36.135645849776409 ] } },
{ "type": "Feature", "properties": { "P29_001": "18201", "P29_002": "A218310000429", "P29_003": "16013", "P29_004": "清水台こども園", "P29_005": "福井県福井市グリーンハイツ1-128", "P29_006": "4", "P29_007": "0", "P29_008": "00", "P29_009": null }, "geometry": { "type": "Point", "coordinates": [ 136.158346174654639, 36.045526429701603 ] } },
{ "type": "Feature", "properties": { "P29_001": "18201", "P29_002": "A218310000438", "P29_003": "16013", "P29_004": "やわらぎ木田認定こども園", "P29_005": "福井県福井市木田2-1701", "P29_006": "4", "P29_007": "0", "P29_008": "00", "P29_009": null }, "geometry": { "type": "Point", "coordinates": [ 136.225330236532358, 36.045334676785892 ] } },
{ "type": "Feature", "properties": { "P29_001": "18201", "P29_002": "A218310000447", "P29_003": "16013", "P29_004": "三心えんざん認定こども園", "P29_005": "福井県福井市今泉町25-16-1", "P29_006": "4", "P29_007": "0", "P29_008": "00", "P29_009": null }, "geometry": { "type": "Point", "coordinates": [ 136.253715996093689, 36.067748998020839 ] } },
{ "type": "Feature", "properties": { "P29_001": "18201", "P29_002": "A218310000456", "P29_003": "16013", "P29_004": "認定こども園木の実", "P29_005": "福井県福井市北四ツ居1-30-15", "P29_006": "4", "P29_007": "0", "P29_008": "00", "P29_009": null }, "geometry": { "type": "Point", "coordinates": [ 136.24745728757253, 36.064682959477189 ] } },
{ "type": "Feature", "properties": { "P29_001": "18201", "P29_002": "A218310000465", "P29_003": "16013", "P29_004": "千寿たんぽぽこども園", "P29_005": "福井県福井市栗森2-2701", "P29_006": "4", "P29_007": "0", "P29_008": "00", "P29_009": null }, "geometry": { "type": "Point", "coordinates": [ 136.238596946665524, 36.117069194884188 ] } },
{ "type": "Feature", "properties": { "P29_001": "18202", "P29_002": "A218310000474", "P29_003": "16013", "P29_004": "さみどり保育園", "P29_005": "福井県敦賀市本町1-7-7", "P29_006": "4", "P29_007": "0", "P29_008": "00", "P29_009": null }, "geometry": { "type": "Point", "coordinates": [ 136.073457004869397, 35.651501996987939 ] } },
{ "type": "Feature", "properties": { "P29_001": "18202", "P29_002": "A218310000483", "P29_003": "16013", "P29_004": "新和さみどり保育園", "P29_005": "福井県敦賀市新和町1-6-7", "P29_006": "4", "P29_007": "0", "P29_008": "00", "P29_009": null }, "geometry": { "type": "Point", "coordinates": [ 136.056145822613189, 35.630174623017297 ] } },
{ "type": "Feature", "properties": { "P29_001": "18206", "P29_002": "A218310000492", "P29_003": "16013", "P29_004": "しろきこども園", "P29_005": "福井県勝山市芳野町2-3-19", "P29_006": "4", "P29_007": "0", "P29_008": "00", "P29_009": null }, "geometry": { "type": "Point", "coordinates": [ 136.502189876071895, 36.069362165868093 ] } },
{ "type": "Feature", "properties": { "P29_001": "18207", "P29_002": "A218310000508", "P29_003": "16013", "P29_004": "あおいこども園", "P29_005": "福井県鯖江市神明町4-1-7", "P29_006": "4", "P29_007": "0", "P29_008": "00", "P29_009": null }, "geometry": { "type": "Point", "coordinates": [ 136.187036764977989, 35.977990029557617 ] } },
{ "type": "Feature", "properties": { "P29_001": "18209", "P29_002": "A218310000517", "P29_003": "16013", "P29_004": "認定こども園里山ほのか学園", "P29_005": "福井県越前市氷坂町14-2-1", "P29_006": "4", "P29_007": "0", "P29_008": "00", "P29_009": null }, "geometry": { "type": "Point", "coordinates": [ 136.150103303545933, 35.924904055116116 ] } },
{ "type": "Feature", "properties": { "P29_001": "18209", "P29_002": "A218310000526", "P29_003": "16013", "P29_004": "浪花認定こども園", "P29_005": "福井県越前市府中3-5-12", "P29_006": "4", "P29_007": "0", "P29_008": "00", "P29_009": null }, "geometry": { "type": "Point", "coordinates": [ 136.168988003055432, 35.907320003478056 ] } },
{ "type": "Feature", "properties": { "P29_001": "18209", "P29_002": "A218310000535", "P29_003": "16013", "P29_004": "認定東こども園", "P29_005": "福井県越前市堀川町3-14", "P29_006": "4", "P29_007": "0", "P29_008": "00", "P29_009": null }, "geometry": { "type": "Point", "coordinates": [ 136.172626172089736, 35.900445229743326 ] } },
{ "type": "Feature", "properties": { "P29_001": "18209", "P29_002": "A218310000544", "P29_003": "16013", "P29_004": "わかたけ認定こども園", "P29_005": "福井県越前市高森町18-7-2", "P29_006": "4", "P29_007": "0", "P29_008": "00", "P29_009": null }, "geometry": { "type": "Point", "coordinates": [ 136.14607488181926, 35.905701862134592 ] } },
{ "type": "Feature", "properties": { "P29_001": "18209", "P29_002": "A218310000553", "P29_003": "16013", "P29_004": "神山認定こども園", "P29_005": "福井県越前市広瀬町132-3-1", "P29_006": "4", "P29_007": "0", "P29_008": "00", "P29_009": null }, "geometry": { "type": "Point", "coordinates": [ 136.142211779902027, 35.889716398492283 ] } },
{ "type": "Feature", "properties": { "P29_001": "18483", "P29_002": "A218310000562", "P29_003": "16013", "P29_004": "本郷こども園", "P29_005": "福井県大飯郡おおい町本郷110-5", "P29_006": "4", "P29_007": "0", "P29_008": "00", "P29_009": null }, "geometry": { "type": "Point", "coordinates": [ 135.621394527391203, 35.476732848100376 ] } },
{ "type": "Feature", "properties": { "P29_001": "18483", "P29_002": "A218310000571", "P29_003": "16013", "P29_004": "大島認定こども園", "P29_005": "福井県大飯郡おおい町大島60-26", "P29_006": "4", "P29_007": "0", "P29_008": "00", "P29_009": null }, "geometry": { "type": "Point", "coordinates": [ 135.647092174867225, 35.528035419219215 ] } },
{ "type": "Feature", "properties": { "P29_001": "18201", "P29_002": "A218310000580", "P29_003": "16013", "P29_004": "鹿苑こども園", "P29_005": "福井県福井市みのり2-3-44", "P29_006": "4", "P29_007": "0", "P29_008": "00", "P29_009": null }, "geometry": { "type": "Point", "coordinates": [ 136.213575356692985, 36.050942159187279 ] } },
{ "type": "Feature", "properties": { "P29_001": "18201", "P29_002": "A218310000599", "P29_003": "16013", "P29_004": "文京こども園", "P29_005": "福井県福井市文京4-9-14", "P29_006": "4", "P29_007": "0", "P29_008": "00", "P29_009": null }, "geometry": { "type": "Point", "coordinates": [ 136.209277471986951, 36.075985108604563 ] } },
{ "type": "Feature", "properties": { "P29_001": "18201", "P29_002": "A218310000606", "P29_003": "16013", "P29_004": "経田こども園", "P29_005": "福井県福井市二の宮3-6-18", "P29_006": "4", "P29_007": "0", "P29_008": "00", "P29_009": null }, "geometry": { "type": "Point", "coordinates": [ 136.216336648875398, 36.083742635731191 ] } },
{ "type": "Feature", "properties": { "P29_001": "18201", "P29_002": "A218310000615", "P29_003": "16013", "P29_004": "はちまんこども園", "P29_005": "福井県福井市月見4-18-4", "P29_006": "4", "P29_007": "0", "P29_008": "00", "P29_009": null }, "geometry": { "type": "Point", "coordinates": [ 136.20771817216081, 36.04604727979757 ] } },
{ "type": "Feature", "properties": { "P29_001": "18201", "P29_002": "A218310000624", "P29_003": "16013", "P29_004": "あさむつこども園", "P29_005": "福井県福井市下荒井町第4-76", "P29_006": "4", "P29_007": "0", "P29_008": "00", "P29_009": null }, "geometry": { "type": "Point", "coordinates": [ 136.206949003663169, 36.027879004795643 ] } },
{ "type": "Feature", "properties": { "P29_001": "18201", "P29_002": "A218310000633", "P29_003": "16013", "P29_004": "認定こども園暁幼稚園", "P29_005": "福井県福井市久喜津町第64-25-1", "P29_006": "4", "P29_007": "0", "P29_008": "00", "P29_009": null }, "geometry": { "type": "Point", "coordinates": [ 136.177251415278789, 36.050024600679755 ] } },
{ "type": "Feature", "properties": { "P29_001": "18201", "P29_002": "A218310000642", "P29_003": "16013", "P29_004": "認定こども園城之橋幼稚園", "P29_005": "福井県福井市日之出3-3-30", "P29_006": "4", "P29_007": "0", "P29_008": "00", "P29_009": null }, "geometry": { "type": "Point", "coordinates": [ 136.228992644558446, 36.061820458351619 ] } },
{ "type": "Feature", "properties": { "P29_001": "18201", "P29_002": "A218310000651", "P29_003": "16013", "P29_004": "認定こども園花園幼稚園", "P29_005": "福井県福井市文京5-25-21", "P29_006": "4", "P29_007": "0", "P29_008": "00", "P29_009": null }, "geometry": { "type": "Point", "coordinates": [ 136.203291004662589, 36.079120001826382 ] } },
{ "type": "Feature", "properties": { "P29_001": "18205", "P29_002": "A218310000660", "P29_003": "16013", "P29_004": "誓念寺こども園", "P29_005": "福井県大野市中荒井町2-824", "P29_006": "4", "P29_007": "0", "P29_008": "00", "P29_009": null }, "geometry": { "type": "Point", "coordinates": [ 136.493573003726368, 35.987826002585429 ] } },
{ "type": "Feature", "properties": { "P29_001": "18205", "P29_002": "A218310000679", "P29_003": "16013", "P29_004": "誓念寺中野こども園", "P29_005": "福井県大野市東中野2-603", "P29_006": "4", "P29_007": "0", "P29_008": "00", "P29_009": null }, "geometry": { "type": "Point", "coordinates": [ 136.497198003539864, 35.995100001734095 ] } },
{ "type": "Feature", "properties": { "P29_001": "18206", "P29_002": "A218310000688", "P29_003": "16013", "P29_004": "きたこども園", "P29_005": "福井県勝山市沢町2-3-22", "P29_006": "4", "P29_007": "0", "P29_008": "00", "P29_009": null }, "geometry": { "type": "Point", "coordinates": [ 136.50152894610369, 36.064156703821446 ] } },
{ "type": "Feature", "properties": { "P29_001": "18201", "P29_002": "A218310000697", "P29_003": "16013", "P29_004": "ゆりかご認定こども園", "P29_005": "福井県福井市灯明寺3-2515", "P29_006": "4", "P29_007": "0", "P29_008": "00", "P29_009": null }, "geometry": { "type": "Point", "coordinates": [ 136.212634947593187, 36.096368633710789 ] } },
{ "type": "Feature", "properties": { "P29_001": "18201", "P29_002": "A218310000704", "P29_003": "16013", "P29_004": "岡保こども園", "P29_005": "福井県福井市河水町18-10", "P29_006": "4", "P29_007": "0", "P29_008": "00", "P29_009": null }, "geometry": { "type": "Point", "coordinates": [ 136.273285530376427, 36.051009145627013 ] } },
{ "type": "Feature", "properties": { "P29_001": "18201", "P29_002": "A218310000713", "P29_003": "16013", "P29_004": "日光こども園", "P29_005": "福井県福井市日光2-22-20", "P29_006": "4", "P29_007": "0", "P29_008": "00", "P29_009": null }, "geometry": { "type": "Point", "coordinates": [ 136.198216534748781, 36.07206135555591 ] } },
{ "type": "Feature", "properties": { "P29_001": "18201", "P29_002": "A218310000722", "P29_003": "16013", "P29_004": "ゆきんこ光陽こども園", "P29_005": "福井県福井市光陽2-23-25", "P29_006": "4", "P29_007": "0", "P29_008": "00", "P29_009": null }, "geometry": { "type": "Point", "coordinates": [ 136.201522707573361, 36.064608701150497 ] } },
{ "type": "Feature", "properties": { "P29_001": "18201", "P29_002": "A218310000731", "P29_003": "16013", "P29_004": "ふじしま認定こども園", "P29_005": "福井県福井市四ツ井1-7-11", "P29_006": "4", "P29_007": "0", "P29_008": "00", "P29_009": null }, "geometry": { "type": "Point", "coordinates": [ 136.235947999224948, 36.066513350325458 ] } },
{ "type": "Feature", "properties": { "P29_001": "18201", "P29_002": "A218310000740", "P29_003": "16013", "P29_004": "中藤東こども園", "P29_005": "福井県福井市高柳3-3206", "P29_006": "4", "P29_007": "0", "P29_008": "00", "P29_009": null }, "geometry": { "type": "Point", "coordinates": [ 136.24040100584952, 36.098002000151702 ] } },
{ "type": "Feature", "properties": { "P29_001": "18201", "P29_002": "A218310000759", "P29_003": "16013", "P29_004": "認定こども園聖三一幼稚園", "P29_005": "福井県福井市宝永2-5-7", "P29_006": "4", "P29_007": "0", "P29_008": "00", "P29_009": null }, "geometry": { "type": "Point", "coordinates": [ 136.22636087858038, 36.068998563228909 ] } },
{ "type": "Feature", "properties": { "P29_001": "18201", "P29_002": "A218310000768", "P29_003": "16013", "P29_004": "認定こども園光の子", "P29_005": "福井県福井市日光2-9-7", "P29_006": "4", "P29_007": "0", "P29_008": "00", "P29_009": null }, "geometry": { "type": "Point", "coordinates": [ 136.201425888410654, 36.07313493410502 ] } },
{ "type": "Feature", "properties": { "P29_001": "18201", "P29_002": "A218310000777", "P29_003": "16013", "P29_004": "藤島幼稚園", "P29_005": "福井県福井市経田2-512", "P29_006": "4", "P29_007": "0", "P29_008": "00", "P29_009": null }, "geometry": { "type": "Point", "coordinates": [ 136.217239755829326, 36.088889276786837 ] } },
{ "type": "Feature", "properties": { "P29_001": "18202", "P29_002": "A218310000786", "P29_003": "16013", "P29_004": "第二早翠幼稚園", "P29_005": "福井県敦賀市市野々町1-110", "P29_006": "4", "P29_007": "0", "P29_008": "00", "P29_009": null }, "geometry": { "type": "Point", "coordinates": [ 136.05516605457214, 35.63231629155004 ] } },
{ "type": "Feature", "properties": { "P29_001": "18205", "P29_002": "A218310000795", "P29_003": "16013", "P29_004": "認定こども園いなやまこども園", "P29_005": "福井県大野市篠座94-39", "P29_006": "4", "P29_007": "0", "P29_008": "00", "P29_009": null }, "geometry": { "type": "Point", "coordinates": [ 136.497159955015832, 35.971073619049399 ] } },
{ "type": "Feature", "properties": { "P29_001": "18205", "P29_002": "A218310000802", "P29_003": "16013", "P29_004": "認定こども園いなほこども園", "P29_005": "福井県大野市春日2-16-5", "P29_006": "4", "P29_007": "0", "P29_008": "00", "P29_009": null }, "geometry": { "type": "Point", "coordinates": [ 136.494962116900382, 35.973469219316556 ] } },
{ "type": "Feature", "properties": { "P29_001": "18206", "P29_002": "A218310000811", "P29_003": "16013", "P29_004": "上野こども園", "P29_005": "福井県勝山市荒土町別所33-58-1", "P29_006": "4", "P29_007": "0", "P29_008": "00", "P29_009": null }, "geometry": { "type": "Point", "coordinates": [ 136.475302921326715, 36.083827685220548 ] } },
{ "type": "Feature", "properties": { "P29_001": "18209", "P29_002": "A218310000820", "P29_003": "16013", "P29_004": "味真野保育園", "P29_005": "福井県越前市上大坪町28-3", "P29_006": "4", "P29_007": "0", "P29_008": "00", "P29_009": null }, "geometry": { "type": "Point", "coordinates": [ 136.22674514033514, 35.885922999349056 ] } },
{ "type": "Feature", "properties": { "P29_001": "18210", "P29_002": "A218310000839", "P29_003": "16013", "P29_004": "認定こども園三国ひかり", "P29_005": "福井県坂井市三国町楽円53-3", "P29_006": "4", "P29_007": "0", "P29_008": "00", "P29_009": null }, "geometry": { "type": "Point", "coordinates": [ 136.159665109317643, 36.203366388748336 ] } },
{ "type": "Feature", "properties": { "P29_001": "18201", "P29_002": "A218310000848", "P29_003": "16013", "P29_004": "新田塚こども園", "P29_005": "福井県福井市新田塚1-42-1", "P29_006": "4", "P29_007": "0", "P29_008": "00", "P29_009": null }, "geometry": { "type": "Point", "coordinates": [ 136.205568193454326, 36.092796642058538 ] } },
{ "type": "Feature", "properties": { "P29_001": "18201", "P29_002": "A218310000857", "P29_003": "16013", "P29_004": "めいりんこども園", "P29_005": "福井県福井市花堂東2-210", "P29_006": "4", "P29_007": "0", "P29_008": "00", "P29_009": null }, "geometry": { "type": "Point", "coordinates": [ 136.222784582835288, 36.042871777527857 ] } },
{ "type": "Feature", "properties": { "P29_001": "18201", "P29_002": "A218310000866", "P29_003": "16013", "P29_004": "認定こども園　エンゼル幼稚園", "P29_005": "福井県福井市加茂河原3-12-9", "P29_006": "4", "P29_007": "0", "P29_008": "00", "P29_009": null }, "geometry": { "type": "Point", "coordinates": [ 136.190627060345435, 36.062764390987027 ] } },
{ "type": "Feature", "properties": { "P29_001": "18201", "P29_002": "A218310000875", "P29_003": "16013", "P29_004": "藤島幼稚園分園（通称：ふじしまこどもの森）", "P29_005": "福井県福井市新田塚町1104", "P29_006": "4", "P29_007": "0", "P29_008": "00", "P29_009": null }, "geometry": { "type": "Point", "coordinates": [ 136.215224709895153, 36.088557559965317 ] } },
{ "type": "Feature", "properties": { "P29_001": "18205", "P29_002": "A218310000884", "P29_003": "16013", "P29_004": "開成こども園", "P29_005": "福井県大野市新庄5字15-2", "P29_006": "4", "P29_007": "0", "P29_008": "00", "P29_009": null }, "geometry": { "type": "Point", "coordinates": [ 136.489769996603826, 35.974684318068356 ] } },
{ "type": "Feature", "properties": { "P29_001": "18205", "P29_002": "A218310000893", "P29_003": "16013", "P29_004": "認定こども園　篠座こども園", "P29_005": "福井県大野市篠座74-32", "P29_006": "4", "P29_007": "0", "P29_008": "00", "P29_009": null }, "geometry": { "type": "Point", "coordinates": [ 136.499865954937007, 35.963387674302616 ] } },
{ "type": "Feature", "properties": { "P29_001": "18206", "P29_002": "A218310000900", "P29_003": "16013", "P29_004": "南こども園", "P29_005": "福井県勝山市元町2-7-28", "P29_006": "4", "P29_007": "0", "P29_008": "00", "P29_009": null }, "geometry": { "type": "Point", "coordinates": [ 136.503240886623672, 36.056160030054585 ] } },
{ "type": "Feature", "properties": { "P29_001": "18206", "P29_002": "A218310000919", "P29_003": "16013", "P29_004": "ケイテーこども園", "P29_005": "福井県勝山市元町1-8-17", "P29_006": "4", "P29_007": "0", "P29_008": "00", "P29_009": null }, "geometry": { "type": "Point", "coordinates": [ 136.501613941213321, 36.06084113646012 ] } },
{ "type": "Feature", "properties": { "P29_001": "18206", "P29_002": "A218310000928", "P29_003": "16013", "P29_004": "中央こども園", "P29_005": "福井県勝山市栄町2-7-6", "P29_006": "4", "P29_007": "0", "P29_008": "00", "P29_009": null }, "geometry": { "type": "Point", "coordinates": [ 136.494192412608328, 36.062195937500299 ] } },
{ "type": "Feature", "properties": { "P29_001": "18206", "P29_002": "A218310000937", "P29_003": "16013", "P29_004": "まつぶんこども園", "P29_005": "福井県勝山市旭町1-1-56", "P29_006": "4", "P29_007": "0", "P29_008": "00", "P29_009": null }, "geometry": { "type": "Point", "coordinates": [ 136.505469987593074, 36.056993832627406 ] } },
{ "type": "Feature", "properties": { "P29_001": "18209", "P29_002": "A218310000946", "P29_003": "16013", "P29_004": "二葉保育園", "P29_005": "福井県越前市五分市町第3-6-1", "P29_006": "4", "P29_007": "0", "P29_008": "00", "P29_009": null }, "geometry": { "type": "Point", "coordinates": [ 136.227782238758209, 35.891309312593471 ] } },
{ "type": "Feature", "properties": { "P29_001": "18423", "P29_002": "A218310000955", "P29_003": "16013", "P29_004": "はぎのこども園", "P29_005": "福井県丹生郡越前町細野第73-2-2", "P29_006": "4", "P29_007": "0", "P29_008": "00", "P29_009": null }, "geometry": { "type": "Point", "coordinates": [ 136.062798587551725, 35.975782884856876 ] } },
{ "type": "Feature", "properties": { "P29_001": "18483", "P29_002": "A218310000964", "P29_003": "16013", "P29_004": "佐分利保育園", "P29_005": "福井県大飯郡おおい町石山第20-14", "P29_006": "4", "P29_007": "0", "P29_008": "00", "P29_009": null }, "geometry": { "type": "Point", "coordinates": [ 135.561997763815526, 35.45048624184799 ] } },
{ "type": "Feature", "properties": { "P29_001": "18201", "P29_002": "A218310000973", "P29_003": "16013", "P29_004": "尾上幼稚園", "P29_005": "福井県福井市松本4-9-21", "P29_006": "4", "P29_007": "0", "P29_008": "00", "P29_009": null }, "geometry": { "type": "Point", "coordinates": [ 136.22084905988703, 36.07283001394768 ] } },
{ "type": "Feature", "properties": { "P29_001": "18205", "P29_002": "A218310000982", "P29_003": "16013", "P29_004": "上庄こども園", "P29_005": "福井県大野市稲郷43-5", "P29_006": "4", "P29_007": "0", "P29_008": "00", "P29_009": null }, "geometry": { "type": "Point", "coordinates": [ 136.522994242532405, 35.948892538280155 ] } },
{ "type": "Feature", "properties": { "P29_001": "18205", "P29_002": "A218310000991", "P29_003": "16013", "P29_004": "亀山こども園", "P29_005": "福井県大野市水落町3-35", "P29_006": "4", "P29_007": "0", "P29_008": "00", "P29_009": null }, "geometry": { "type": "Point", "coordinates": [ 136.485819704089124, 35.989666103674004 ] } },
{ "type": "Feature", "properties": { "P29_001": "18207", "P29_002": "A218310001008", "P29_003": "16013", "P29_004": "幼保連携型認定こども園しんよこえ", "P29_005": "福井県鯖江市新横江1-3-13", "P29_006": "4", "P29_007": "0", "P29_008": "00", "P29_009": null }, "geometry": { "type": "Point", "coordinates": [ 136.195911999503153, 35.941868999865655 ] } },
{ "type": "Feature", "properties": { "P29_001": "18209", "P29_002": "A218310001017", "P29_003": "16013", "P29_004": "認定西こども園", "P29_005": "福井県越前市新保町32-10", "P29_006": "4", "P29_007": "0", "P29_008": "00", "P29_009": null }, "geometry": { "type": "Point", "coordinates": [ 136.151835239088996, 35.907324666531721 ] } },
{ "type": "Feature", "properties": { "P29_001": "18210", "P29_002": "A218310001026", "P29_003": "16013", "P29_004": "わっかこども園", "P29_005": "福井県坂井市丸岡町愛宕9-1", "P29_006": "4", "P29_007": "0", "P29_008": "00", "P29_009": null }, "geometry": { "type": "Point", "coordinates": [ 136.277595948319004, 36.149451086066598 ] } },
{ "type": "Feature", "properties": { "P29_001": "18210", "P29_002": "A218310001035", "P29_003": "16013", "P29_004": "幼保連携型認定こども園大関保育園", "P29_005": "福井県坂井市坂井町大味27-14", "P29_006": "4", "P29_007": "0", "P29_008": "00", "P29_009": null }, "geometry": { "type": "Point", "coordinates": [ 136.206959812705747, 36.187279511325976 ] } },
{ "type": "Feature", "properties": { "P29_001": "18423", "P29_002": "A218310001044", "P29_003": "16013", "P29_004": "幼保連携型認定こども園西徳寺保育園", "P29_005": "福井県丹生郡越前町厨13-37", "P29_006": "4", "P29_007": "0", "P29_008": "00", "P29_009": null }, "geometry": { "type": "Point", "coordinates": [ 135.99998811927594, 35.928639402329289 ] } },
{ "type": "Feature", "properties": { "P29_001": "18481", "P29_002": "A218310001053", "P29_003": "16013", "P29_004": "高浜キッズこども園", "P29_005": "福井県大飯郡高浜町立石15-18", "P29_006": "4", "P29_007": "0", "P29_008": "00", "P29_009": null }, "geometry": { "type": "Point", "coordinates": [ 135.541861995091494, 35.48742126726922 ] } },
{ "type": "Feature", "properties": { "P29_001": "18204", "P29_002": "A218310001062", "P29_003": "16013", "P29_004": "認定こども園そらのとりこども園", "P29_005": "福井県小浜市和久里33-6", "P29_006": "4", "P29_007": "0", "P29_008": "00", "P29_009": null }, "geometry": { "type": "Point", "coordinates": [ 135.759401542888497, 35.485299458250594 ] } },
{ "type": "Feature", "properties": { "P29_001": "18209", "P29_002": "A218310001071", "P29_003": "16013", "P29_004": "愛星認定こども園", "P29_005": "福井県越前市白崎町33-2-1", "P29_006": "4", "P29_007": "0", "P29_008": "00", "P29_009": null }, "geometry": { "type": "Point", "coordinates": [ 136.146843110969883, 35.864235810621743 ] } },
{ "type": "Feature", "properties": { "P29_001": "18209", "P29_002": "A218310001080", "P29_003": "16013", "P29_004": "たんぽぽ認定こども園", "P29_005": "福井県越前市常久町101", "P29_006": "4", "P29_007": "0", "P29_008": "00", "P29_009": null }, "geometry": { "type": "Point", "coordinates": [ 136.162099576038088, 35.8854869247415 ] } },
{ "type": "Feature", "properties": { "P29_001": "18210", "P29_002": "A218310001099", "P29_003": "16013", "P29_004": "三国松涛こども園", "P29_005": "福井県坂井市三国町運動公園2-15-15", "P29_006": "4", "P29_007": "0", "P29_008": "00", "P29_009": null }, "geometry": { "type": "Point", "coordinates": [ 136.151442818396163, 36.228069528233029 ] } },
{ "type": "Feature", "properties": { "P29_001": "18210", "P29_002": "A218310001106", "P29_003": "16013", "P29_004": "まごころ認定こども園", "P29_005": "福井県坂井市丸岡町長崎8字流田5-3", "P29_006": "4", "P29_007": "0", "P29_008": "00", "P29_009": null }, "geometry": { "type": "Point", "coordinates": [ 136.250729477072611, 36.14251184443318 ] } },
{ "type": "Feature", "properties": { "P29_001": "18210", "P29_002": "A218310001115", "P29_003": "16013", "P29_004": "いと勢認定こども園", "P29_005": "福井県坂井市春江町江留下高道67", "P29_006": "4", "P29_007": "0", "P29_008": "00", "P29_009": null }, "geometry": { "type": "Point", "coordinates": [ 136.217791874834575, 36.130333419307895 ] } },
{ "type": "Feature", "properties": { "P29_001": "18210", "P29_002": "A218310001124", "P29_003": "16013", "P29_004": "坂井松涛こども園", "P29_005": "福井県坂井市坂井町長畑14-1-1", "P29_006": "4", "P29_007": "0", "P29_008": "00", "P29_009": null }, "geometry": { "type": "Point", "coordinates": [ 136.237210351889104, 36.166135419790528 ] } },
{ "type": "Feature", "properties": { "P29_001": "18423", "P29_002": "A218310001133", "P29_003": "16013", "P29_004": "認定こども園たいら保育園", "P29_005": "福井県丹生郡越前町下河原5-7", "P29_006": "4", "P29_007": "0", "P29_008": "00", "P29_009": null }, "geometry": { "type": "Point", "coordinates": [ 136.055225696658624, 35.949927838259001 ] } },
{ "type": "Feature", "properties": { "P29_001": "18204", "P29_002": "A218310001142", "P29_003": "16013", "P29_004": "聖ルカ幼稚園", "P29_005": "福井県小浜市千種2-9-22", "P29_006": "4", "P29_007": "0", "P29_008": "00", "P29_009": null }, "geometry": { "type": "Point", "coordinates": [ 135.747978825779171, 35.501754906830669 ] } },
{ "type": "Feature", "properties": { "P29_001": "18209", "P29_002": "A218310001151", "P29_003": "16013", "P29_004": "そよかぜ認定こども園", "P29_005": "福井県越前市高木町12字綾織町7-1外", "P29_006": "4", "P29_007": "0", "P29_008": "00", "P29_009": null }, "geometry": { "type": "Point", "coordinates": [ 136.190534808921427, 35.928165959055619 ] } },
{ "type": "Feature", "properties": { "P29_001": "18210", "P29_002": "A218310001160", "P29_003": "16013", "P29_004": "よつばこども園", "P29_005": "福井県坂井市丸岡町磯部福庄第24-18", "P29_006": "4", "P29_007": "0", "P29_008": "00", "P29_009": null }, "geometry": { "type": "Point", "coordinates": [ 136.266125359749395, 36.116544630556525 ] } },
{ "type": "Feature", "properties": { "P29_001": "18210", "P29_002": "A218310001179", "P29_003": "16013", "P29_004": "もみじ認定こども園", "P29_005": "福井県坂井市丸岡町板倉45字島道9", "P29_006": "4", "P29_007": "0", "P29_008": "00", "P29_009": null }, "geometry": { "type": "Point", "coordinates": [ 136.284145352791711, 36.128256109961448 ] } },
{ "type": "Feature", "properties": { "P29_001": "18210", "P29_002": "A218310001188", "P29_003": "16013", "P29_004": "すずらんこども園", "P29_005": "福井県坂井市坂井町高柳第117-11-2", "P29_006": "4", "P29_007": "0", "P29_008": "00", "P29_009": null }, "geometry": { "type": "Point", "coordinates": [ 136.170696994251017, 36.183528166589063 ] } },
{ "type": "Feature", "properties": { "P29_001": "18423", "P29_002": "A218310001197", "P29_003": "16013", "P29_004": "四ヶ浦こども園", "P29_005": "福井県丹生郡越前町梅浦60字鷺崎町15-3", "P29_006": "4", "P29_007": "0", "P29_008": "00", "P29_009": null }, "geometry": { "type": "Point", "coordinates": [ 135.984289890175432, 35.952583752923282 ] } },
{ "type": "Feature", "properties": { "P29_001": "18423", "P29_002": "A218310001204", "P29_003": "16013", "P29_004": "認定こども園あさがお保育園", "P29_005": "福井県丹生郡越前町内郡4-13-2", "P29_006": "4", "P29_007": "0", "P29_008": "00", "P29_009": null }, "geometry": { "type": "Point", "coordinates": [ 136.122785574334927, 35.973882545443615 ] } },
{ "type": "Feature", "properties": { "P29_001": "18201", "P29_002": "A218310001213", "P29_003": "16013", "P29_004": "認定こども園常葉幼稚園", "P29_005": "福井県福井市花月1-2-26", "P29_006": "4", "P29_007": "0", "P29_008": "00", "P29_009": null }, "geometry": { "type": "Point", "coordinates": [ 136.211428832415692, 36.069278673231004 ] } },
{ "type": "Feature", "properties": { "P29_001": "18201", "P29_002": "A218310001222", "P29_003": "16013", "P29_004": "なのはなこども園", "P29_005": "福井県福井市下森田藤巻町201", "P29_006": "4", "P29_007": "0", "P29_008": "00", "P29_009": null }, "geometry": { "type": "Point", "coordinates": [ 136.229015161612182, 36.110287341278564 ] } },
{ "type": "Feature", "properties": { "P29_001": "18201", "P29_002": "A218310001231", "P29_003": "16013", "P29_004": "認定こども園ひばり", "P29_005": "福井県福井市石森2-210", "P29_006": "4", "P29_007": "0", "P29_008": "00", "P29_009": null }, "geometry": { "type": "Point", "coordinates": [ 136.231770602214652, 36.118560722446333 ] } },
{ "type": "Feature", "properties": { "P29_001": "18201", "P29_002": "A218310001240", "P29_003": "16013", "P29_004": "森田さくらこども園", "P29_005": "福井県福井市上野本町4-2408", "P29_006": "4", "P29_007": "0", "P29_008": "00", "P29_009": null }, "geometry": { "type": "Point", "coordinates": [ 136.247139165897551, 36.113379047213563 ] } },
{ "type": "Feature", "properties": { "P29_001": "18322", "P29_002": "A218310001259", "P29_003": "16013", "P29_004": "みどり葉こども園", "P29_005": "福井県吉田郡永平寺町松岡木ノ下3-301", "P29_006": "4", "P29_007": "0", "P29_008": "00", "P29_009": null }, "geometry": { "type": "Point", "coordinates": [ 136.293586387371505, 36.093768090097917 ] } }
]
}
