{
"type": "FeatureCollection",
"name": "geo_18_4",
"crs": { "type": "name", "properties": { "name": "urn:ogc:def:crs:OGC:1.3:CRS84" } },
"features": [
{ "type": "Feature", "properties": { "ID": 184510000310, "正式名称": "母乳ケアＢａｂｙ’ｓ　ｂｒｅａｔｈ", "機関区分": 4, "都道府県コード": 18, "市区町村コード": 210, "所在地": "福井県坂井市三国町宿一丁目七の三十三", "緯度": 36.220041, "経度": 136.141722, "url": "https://www.iryou.teikyouseido.mhlw.go.jp/znk-web/juminkanja/S2430/initialize?prefCd=18&kikanCd=510000310&kikanKbn=4", "url2": null, "内容": "母乳ケアＢａｂｙ’ｓ　ｂｒｅａｔｈ【4:助産院】福井県坂井市三国町宿一丁目七の三十三" }, "geometry": { "type": "Point", "coordinates": [ 136.141722, 36.220041 ] } },
{ "type": "Feature", "properties": { "ID": 1845180000030, "正式名称": "母乳相談室マミークラブ", "機関区分": 4, "都道府県コード": 18, "市区町村コード": 201, "所在地": "福井県福井市和布町１５－８１－１", "緯度": 36.128144, "経度": 136.064736, "url": "https://www.iryou.teikyouseido.mhlw.go.jp/znk-web/juminkanja/S2430/initialize?prefCd=18&kikanCd=5180000030&kikanKbn=4", "url2": null, "内容": "母乳相談室マミークラブ【4:助産院】福井県福井市和布町１５－８１－１" }, "geometry": { "type": "Point", "coordinates": [ 136.064736, 36.128144 ] } },
{ "type": "Feature", "properties": { "ID": 1845180000050, "正式名称": "三嶋母乳と育児の相談室Ｍａｎｍａ", "機関区分": 4, "都道府県コード": 18, "市区町村コード": 201, "所在地": "福井県福井市飯塚町１３－１１６", "緯度": 36.064061, "経度": 136.183736, "url": "https://www.iryou.teikyouseido.mhlw.go.jp/znk-web/juminkanja/S2430/initialize?prefCd=18&kikanCd=5180000050&kikanKbn=4", "url2": null, "内容": "三嶋母乳と育児の相談室Ｍａｎｍａ【4:助産院】福井県福井市飯塚町１３－１１６" }, "geometry": { "type": "Point", "coordinates": [ 136.183736, 36.064061 ] } },
{ "type": "Feature", "properties": { "ID": 1845180000060, "正式名称": "西村助産院　まなかい母乳育児相談室", "機関区分": 4, "都道府県コード": 18, "市区町村コード": 201, "所在地": "福井県福井市板垣一丁目５０８　ハクレイハイムＢ号室", "緯度": 36.049978, "経度": 136.229274, "url": "https://www.iryou.teikyouseido.mhlw.go.jp/znk-web/juminkanja/S2430/initialize?prefCd=18&kikanCd=5180000060&kikanKbn=4", "url2": "https://nishimura-oketani.jimdofree.com/", "内容": "西村助産院　まなかい母乳育児相談室【4:助産院】福井県福井市板垣一丁目５０８　ハクレイハイムＢ号室" }, "geometry": { "type": "Point", "coordinates": [ 136.229274, 36.049978 ] } },
{ "type": "Feature", "properties": { "ID": 1845180000070, "正式名称": "かたおか助産所", "機関区分": 4, "都道府県コード": 18, "市区町村コード": 201, "所在地": "福井県福井市若杉１－２１０３", "緯度": 36.059339, "経度": 136.189819, "url": "https://www.iryou.teikyouseido.mhlw.go.jp/znk-web/juminkanja/S2430/initialize?prefCd=18&kikanCd=5180000070&kikanKbn=4", "url2": null, "内容": "かたおか助産所【4:助産院】福井県福井市若杉１－２１０３" }, "geometry": { "type": "Point", "coordinates": [ 136.189819, 36.059339 ] } },
{ "type": "Feature", "properties": { "ID": 1845180000080, "正式名称": "千秋助産所", "機関区分": 4, "都道府県コード": 18, "市区町村コード": 201, "所在地": "福井県福井市春日町２４９－４", "緯度": 36.051256, "経度": 136.221792, "url": "https://www.iryou.teikyouseido.mhlw.go.jp/znk-web/juminkanja/S2430/initialize?prefCd=18&kikanCd=5180000080&kikanKbn=4", "url2": null, "内容": "千秋助産所【4:助産院】福井県福井市春日町２４９－４" }, "geometry": { "type": "Point", "coordinates": [ 136.221792, 36.051256 ] } },
{ "type": "Feature", "properties": { "ID": 1845180000110, "正式名称": "なばたけ助産院", "機関区分": 4, "都道府県コード": 18, "市区町村コード": 210, "所在地": "福井県坂井市坂井町若宮４３－１２", "緯度": 36.154617, "経度": 136.237292, "url": "https://www.iryou.teikyouseido.mhlw.go.jp/znk-web/juminkanja/S2430/initialize?prefCd=18&kikanCd=5180000110&kikanKbn=4", "url2": null, "内容": "なばたけ助産院【4:助産院】福井県坂井市坂井町若宮４３－１２" }, "geometry": { "type": "Point", "coordinates": [ 136.237292, 36.154617 ] } },
{ "type": "Feature", "properties": { "ID": 1845180000120, "正式名称": "よしだ助産院　母乳育児相談室", "機関区分": 4, "都道府県コード": 18, "市区町村コード": 207, "所在地": "福井県鯖江市住吉町３丁目５番１５号", "緯度": 35.940684, "経度": 136.177104, "url": "https://www.iryou.teikyouseido.mhlw.go.jp/znk-web/juminkanja/S2430/initialize?prefCd=18&kikanCd=5180000120&kikanKbn=4", "url2": "http://www4.ttn.ne.jp/~yo-san", "内容": "よしだ助産院　母乳育児相談室【4:助産院】福井県鯖江市住吉町３丁目５番１５号" }, "geometry": { "type": "Point", "coordinates": [ 136.177104, 35.940684 ] } },
{ "type": "Feature", "properties": { "ID": 1845180000130, "正式名称": "お産の家ささした助産所", "機関区分": 4, "都道府県コード": 18, "市区町村コード": 209, "所在地": "福井県越前市堀川町７－５", "緯度": 35.898339, "経度": 136.172764, "url": "https://www.iryou.teikyouseido.mhlw.go.jp/znk-web/juminkanja/S2430/initialize?prefCd=18&kikanCd=5180000130&kikanKbn=4", "url2": null, "内容": "お産の家ささした助産所【4:助産院】福井県越前市堀川町７－５" }, "geometry": { "type": "Point", "coordinates": [ 136.172764, 35.898339 ] } },
{ "type": "Feature", "properties": { "ID": 1845180000170, "正式名称": "塚本助産所", "機関区分": 4, "都道府県コード": 18, "市区町村コード": 202, "所在地": "福井県敦賀市昭和町２丁目２２－１５", "緯度": 35.641367, "経度": 136.059542, "url": "https://www.iryou.teikyouseido.mhlw.go.jp/znk-web/juminkanja/S2430/initialize?prefCd=18&kikanCd=5180000170&kikanKbn=4", "url2": null, "内容": "塚本助産所【4:助産院】福井県敦賀市昭和町２丁目２２－１５" }, "geometry": { "type": "Point", "coordinates": [ 136.059542, 35.641367 ] } },
{ "type": "Feature", "properties": { "ID": 1845180000230, "正式名称": "やむろ助産所", "機関区分": 4, "都道府県コード": 18, "市区町村コード": 204, "所在地": "福井県小浜市湊１３－１５", "緯度": 35.511061, "経度": 135.752097, "url": "https://www.iryou.teikyouseido.mhlw.go.jp/znk-web/juminkanja/S2430/initialize?prefCd=18&kikanCd=5180000230&kikanKbn=4", "url2": null, "内容": "やむろ助産所【4:助産院】福井県小浜市湊１３－１５" }, "geometry": { "type": "Point", "coordinates": [ 135.752097, 35.511061 ] } },
{ "type": "Feature", "properties": { "ID": 1845180000260, "正式名称": "だいどう助産院", "機関区分": 4, "都道府県コード": 18, "市区町村コード": 204, "所在地": "福井県小浜市下田４０－６", "緯度": 35.428589, "経度": 135.670264, "url": "https://www.iryou.teikyouseido.mhlw.go.jp/znk-web/juminkanja/S2430/initialize?prefCd=18&kikanCd=5180000260&kikanKbn=4", "url2": null, "内容": "だいどう助産院【4:助産院】福井県小浜市下田４０－６" }, "geometry": { "type": "Point", "coordinates": [ 135.670264, 35.428589 ] } },
{ "type": "Feature", "properties": { "ID": 1845180000270, "正式名称": "北村助産所", "機関区分": 4, "都道府県コード": 18, "市区町村コード": 501, "所在地": "福井県三方上中郡若狭町下野木２１－１５", "緯度": 35.484561, "経度": 135.806347, "url": "https://www.iryou.teikyouseido.mhlw.go.jp/znk-web/juminkanja/S2430/initialize?prefCd=18&kikanCd=5180000270&kikanKbn=4", "url2": null, "内容": "北村助産所【4:助産院】福井県三方上中郡若狭町下野木２１－１５" }, "geometry": { "type": "Point", "coordinates": [ 135.806347, 35.484561 ] } },
{ "type": "Feature", "properties": { "ID": 1845180500590, "正式名称": "高橋助産院", "機関区分": 4, "都道府県コード": 18, "市区町村コード": 202, "所在地": "福井県敦賀市新和町２丁目３－２", "緯度": 35.628319, "経度": 136.055922, "url": "https://www.iryou.teikyouseido.mhlw.go.jp/znk-web/juminkanja/S2430/initialize?prefCd=18&kikanCd=5180500590&kikanKbn=4", "url2": null, "内容": "高橋助産院【4:助産院】福井県敦賀市新和町２丁目３－２" }, "geometry": { "type": "Point", "coordinates": [ 136.055922, 35.628319 ] } },
{ "type": "Feature", "properties": { "ID": 1845180501890, "正式名称": "ハッピー♥ベビー　母乳育児相談室", "機関区分": 4, "都道府県コード": 18, "市区町村コード": 210, "所在地": "福井県坂井市春江町江留下相田１５－２", "緯度": 36.127935, "経度": 136.218619, "url": "https://www.iryou.teikyouseido.mhlw.go.jp/znk-web/juminkanja/S2430/initialize?prefCd=18&kikanCd=5180501890&kikanKbn=4", "url2": null, "内容": "ハッピー♥ベビー　母乳育児相談室【4:助産院】福井県坂井市春江町江留下相田１５－２" }, "geometry": { "type": "Point", "coordinates": [ 136.218619, 36.127935 ] } },
{ "type": "Feature", "properties": { "ID": 1845180502560, "正式名称": "助産師ハルキママ母乳育児相談室", "機関区分": 4, "都道府県コード": 18, "市区町村コード": 210, "所在地": "福井県坂井市春江町藤鷲塚１８－４", "緯度": 36.144416, "経度": 136.21451, "url": "https://www.iryou.teikyouseido.mhlw.go.jp/znk-web/juminkanja/S2430/initialize?prefCd=18&kikanCd=5180502560&kikanKbn=4", "url2": null, "内容": "助産師ハルキママ母乳育児相談室【4:助産院】福井県坂井市春江町藤鷲塚１８－４" }, "geometry": { "type": "Point", "coordinates": [ 136.21451, 36.144416 ] } },
{ "type": "Feature", "properties": { "ID": 1845180502600, "正式名称": "うまじ助産所", "機関区分": 4, "都道府県コード": 18, "市区町村コード": 501, "所在地": "福井県三方上中郡若狭町岩屋４２－４", "緯度": 35.508672, "経度": 135.897528, "url": "https://www.iryou.teikyouseido.mhlw.go.jp/znk-web/juminkanja/S2430/initialize?prefCd=18&kikanCd=5180502600&kikanKbn=4", "url2": "https://umaji-josanjo.amebaownd.com/", "内容": "うまじ助産所【4:助産院】福井県三方上中郡若狭町岩屋４２－４" }, "geometry": { "type": "Point", "coordinates": [ 135.897528, 35.508672 ] } },
{ "type": "Feature", "properties": { "ID": 1845180503710, "正式名称": "宮前出張助産所", "機関区分": 4, "都道府県コード": 18, "市区町村コード": 201, "所在地": "福井県福井市太田町１５－１６", "緯度": 36.010878, "経度": 136.229681, "url": "https://www.iryou.teikyouseido.mhlw.go.jp/znk-web/juminkanja/S2430/initialize?prefCd=18&kikanCd=5180503710&kikanKbn=4", "url2": null, "内容": "宮前出張助産所【4:助産院】福井県福井市太田町１５－１６" }, "geometry": { "type": "Point", "coordinates": [ 136.229681, 36.010878 ] } },
{ "type": "Feature", "properties": { "ID": 1845180503840, "正式名称": "やく助産院", "機関区分": 4, "都道府県コード": 18, "市区町村コード": 481, "所在地": "福井県大飯郡高浜町東三松５－４６－６", "緯度": 35.490938, "経度": 135.525444, "url": "https://www.iryou.teikyouseido.mhlw.go.jp/znk-web/juminkanja/S2430/initialize?prefCd=18&kikanCd=5180503840&kikanKbn=4", "url2": null, "内容": "やく助産院【4:助産院】福井県大飯郡高浜町東三松５－４６－６" }, "geometry": { "type": "Point", "coordinates": [ 135.525444, 35.490938 ] } },
{ "type": "Feature", "properties": { "ID": 1845180504180, "正式名称": "小林助産所", "機関区分": 4, "都道府県コード": 18, "市区町村コード": 201, "所在地": "福井県福井市新保２丁目１７１６－２", "緯度": 36.079944, "経度": 136.249956, "url": "https://www.iryou.teikyouseido.mhlw.go.jp/znk-web/juminkanja/S2430/initialize?prefCd=18&kikanCd=5180504180&kikanKbn=4", "url2": null, "内容": "小林助産所【4:助産院】福井県福井市新保２丁目１７１６－２" }, "geometry": { "type": "Point", "coordinates": [ 136.249956, 36.079944 ] } },
{ "type": "Feature", "properties": { "ID": 1845180504680, "正式名称": "みらい助産院", "機関区分": 4, "都道府県コード": 18, "市区町村コード": 423, "所在地": "福井県丹生郡越前町広野２－２３", "緯度": 35.947167, "経度": 136.092347, "url": "https://www.iryou.teikyouseido.mhlw.go.jp/znk-web/juminkanja/S2430/initialize?prefCd=18&kikanCd=5180504680&kikanKbn=4", "url2": "mirai-josanin.com", "内容": "みらい助産院【4:助産院】福井県丹生郡越前町広野２－２３" }, "geometry": { "type": "Point", "coordinates": [ 136.092347, 35.947167 ] } },
{ "type": "Feature", "properties": { "ID": 1845180504690, "正式名称": "のじま助産院", "機関区分": 4, "都道府県コード": 18, "市区町村コード": 209, "所在地": "福井県越前市北町２７－２９", "緯度": 35.908767, "経度": 136.204719, "url": "https://www.iryou.teikyouseido.mhlw.go.jp/znk-web/juminkanja/S2430/initialize?prefCd=18&kikanCd=5180504690&kikanKbn=4", "url2": null, "内容": "のじま助産院【4:助産院】福井県越前市北町２７－２９" }, "geometry": { "type": "Point", "coordinates": [ 136.204719, 35.908767 ] } },
{ "type": "Feature", "properties": { "ID": 1845185024001, "正式名称": "みちる助産院", "機関区分": 4, "都道府県コード": 18, "市区町村コード": 202, "所在地": "福井県敦賀市松葉町２３－１２", "緯度": 35.651694, "経度": 136.045575, "url": "https://www.iryou.teikyouseido.mhlw.go.jp/znk-web/juminkanja/S2430/initialize?prefCd=18&kikanCd=5185024001&kikanKbn=4", "url2": null, "内容": "みちる助産院【4:助産院】福井県敦賀市松葉町２３－１２" }, "geometry": { "type": "Point", "coordinates": [ 136.045575, 35.651694 ] } }
]
}
