{
"type": "FeatureCollection",
"name": "geo_18_特定施設入居者生活介護（有料老人ホーム）",
"crs": { "type": "name", "properties": { "name": "urn:ogc:def:crs:OGC:1.3:CRS84" } },
"features": [
{ "type": "Feature", "properties": { "内容": "県民せいきょうサービス付き高齢者向け住宅江守きらめき（特定施設）【特定施設入居者生活介護（有料老人ホーム）】福井県福井市江守中町2号12番地", "url2": "https://www.kaigokensaku.mhlw.go.jp/18/index.php?action_kouhyou_detail_004_kani=true&JigyosyoCd=1870103353-00&ServiceCd=331&Type=search" }, "geometry": { "type": "Point", "coordinates": [ 136.198977099999979, 36.0371981 ] } },
{ "type": "Feature", "properties": { "内容": "特定有料老人ホームリバティーハウスあさくら【特定施設入居者生活介護（有料老人ホーム）】福井市下六条町18字35番1", "url2": "https://www.kaigokensaku.mhlw.go.jp/18/index.php?action_kouhyou_detail_004_kani=true&JigyosyoCd=1870100201-00&ServiceCd=331&Type=search" }, "geometry": { "type": "Point", "coordinates": [ 136.229025399999955, 36.0352629 ] } },
{ "type": "Feature", "properties": { "内容": "有料老人ホームあんしん村【特定施設入居者生活介護（有料老人ホーム）】福井市北四ツ居２丁目７－１７", "url2": "https://www.kaigokensaku.mhlw.go.jp/18/index.php?action_kouhyou_detail_004_kani=true&JigyosyoCd=1870101472-00&ServiceCd=331&Type=search" }, "geometry": { "type": "Point", "coordinates": [ 136.245480899999961, 36.066454 ] } },
{ "type": "Feature", "properties": { "内容": "たんぽぽ介護付有料老人ホーム【特定施設入居者生活介護（有料老人ホーム）】福井県大野市鍬掛第2号16番地", "url2": "https://www.kaigokensaku.mhlw.go.jp/18/index.php?action_kouhyou_detail_004_kani=true&JigyosyoCd=1870500558-00&ServiceCd=331&Type=search" }, "geometry": { "type": "Point", "coordinates": [ 136.48035579748381, 35.976074639009262 ] } },
{ "type": "Feature", "properties": { "内容": "あさひけやハイツ九頭竜【特定施設入居者生活介護（有料老人ホーム）】福井県勝山市旭町３－１０７－２", "url2": "https://www.kaigokensaku.mhlw.go.jp/18/index.php?action_kouhyou_detail_004_kani=true&JigyosyoCd=1870600218-00&ServiceCd=331&Type=search" }, "geometry": { "type": "Point", "coordinates": [ 136.514163198174657, 36.049892972257069 ] } },
{ "type": "Feature", "properties": { "内容": "ケアハイツ芦原【特定施設入居者生活介護（有料老人ホーム）】福井県あわら市横垣18－11", "url2": "https://www.kaigokensaku.mhlw.go.jp/18/index.php?action_kouhyou_detail_004_kani=true&JigyosyoCd=1870800024-00&ServiceCd=331&Type=search" }, "geometry": { "type": "Point", "coordinates": [ 136.214443, 36.2240261 ] } },
{ "type": "Feature", "properties": { "内容": "有料老人ホーム　サンライフ小野谷【特定施設入居者生活介護（有料老人ホーム）】福井県越前市蓬莱町６－２４", "url2": "https://www.kaigokensaku.mhlw.go.jp/18/index.php?action_kouhyou_detail_004_kani=true&JigyosyoCd=1870300751-00&ServiceCd=331&Type=search" }, "geometry": { "type": "Point", "coordinates": [ 136.166927399999963, 35.9022764 ] } },
{ "type": "Feature", "properties": { "内容": "ロイヤルほっとクラブ【特定施設入居者生活介護（有料老人ホーム）】福井県越前市高木町55-11-18ほっとライフサポートセンター", "url2": "https://www.kaigokensaku.mhlw.go.jp/18/index.php?action_kouhyou_detail_004_kani=true&JigyosyoCd=1870300645-00&ServiceCd=331&Type=search" }, "geometry": { "type": "Point", "coordinates": [ 136.192093900000032, 35.9190196 ] } },
{ "type": "Feature", "properties": { "内容": "介護付有料老人ホームあいしくら【特定施設入居者生活介護（有料老人ホーム）】福井県越前市今宿町第３号１２番地の１", "url2": "https://www.kaigokensaku.mhlw.go.jp/18/index.php?action_kouhyou_detail_004_kani=true&JigyosyoCd=1870301122-00&ServiceCd=331&Type=search" }, "geometry": { "type": "Point", "coordinates": [ 136.169782412303164, 35.865835496685285 ] } },
{ "type": "Feature", "properties": { "内容": "特定非営利活動法人ケアホームいっぷく　しらやま山荘【特定施設入居者生活介護（有料老人ホーム）】越前市黒川町第１１４号６１番地の１", "url2": "https://www.kaigokensaku.mhlw.go.jp/18/index.php?action_kouhyou_detail_004_kani=true&JigyosyoCd=1870300744-00&ServiceCd=331&Type=search" }, "geometry": { "type": "Point", "coordinates": [ 136.069299499999943, 35.8816815 ] } },
{ "type": "Feature", "properties": { "内容": "吾亦紅【特定施設入居者生活介護（有料老人ホーム）】坂井市丸岡町羽崎31-5", "url2": "https://www.kaigokensaku.mhlw.go.jp/18/index.php?action_kouhyou_detail_004_kani=true&JigyosyoCd=1871700645-00&ServiceCd=331&Type=search" }, "geometry": { "type": "Point", "coordinates": [ 136.263381699999968, 36.1147659 ] } },
{ "type": "Feature", "properties": { "内容": "東尋坊ロイヤルハイツ【特定施設入居者生活介護（有料老人ホーム）】福井県坂井市三国町陣ヶ岡35-1-8", "url2": "https://www.kaigokensaku.mhlw.go.jp/18/index.php?action_kouhyou_detail_004_kani=true&JigyosyoCd=1871700959-00&ServiceCd=331&Type=search" }, "geometry": { "type": "Point", "coordinates": [ 136.135541034918219, 36.234898984472977 ] } },
{ "type": "Feature", "properties": { "内容": "株式会社　等愛会【特定施設入居者生活介護（有料老人ホーム）】福井県三方上中郡若狭町上吉田1-25-1", "url2": "https://www.kaigokensaku.mhlw.go.jp/18/index.php?action_kouhyou_detail_004_kani=true&JigyosyoCd=1872400344-00&ServiceCd=331&Type=search" }, "geometry": { "type": "Point", "coordinates": [ 135.8695185, 35.462359 ] } }
]
}
