{
"type": "FeatureCollection",
"name": "geo_18_各種学校",
"crs": { "type": "name", "properties": { "name": "urn:ogc:def:crs:EPSG::6668" } },
"features": [
{ "type": "Feature", "properties": { "P29_001": "18202", "P29_002": "H218310000013", "P29_003": "16015", "P29_004": "奥田料理学院", "P29_005": "福井県敦賀市本町1-14-3", "P29_006": "4", "P29_007": "0", "P29_008": "00", "P29_009": null }, "geometry": { "type": "Point", "coordinates": [ 136.072035905495966, 35.652829134915635 ] } },
{ "type": "Feature", "properties": { "P29_001": "18201", "P29_002": "H218310000022", "P29_003": "16015", "P29_004": "福井自動車学校", "P29_005": "福井県福井市上北野1-23-15", "P29_006": "4", "P29_007": "0", "P29_008": "00", "P29_009": null }, "geometry": { "type": "Point", "coordinates": [ 136.249161588611344, 36.063308273919667 ] } },
{ "type": "Feature", "properties": { "P29_001": "18201", "P29_002": "H218310000031", "P29_003": "16015", "P29_004": "学校法人あおい学園ＡＯＩドライビングスクール福井校", "P29_005": "福井県福井市つくし野1-1001", "P29_006": "4", "P29_007": "0", "P29_008": "00", "P29_009": null }, "geometry": { "type": "Point", "coordinates": [ 136.216771970701643, 36.118585199750235 ] } },
{ "type": "Feature", "properties": { "P29_001": "18201", "P29_002": "H218310000040", "P29_003": "16015", "P29_004": "北陸自動車学校", "P29_005": "福井県福井市大土呂町17-38", "P29_006": "4", "P29_007": "0", "P29_008": "00", "P29_009": null }, "geometry": { "type": "Point", "coordinates": [ 136.215343734781584, 36.009387434249241 ] } },
{ "type": "Feature", "properties": { "P29_001": "18202", "P29_002": "H218310000059", "P29_003": "16015", "P29_004": "学校法人福井自動車学園敦賀自動車学校", "P29_005": "福井県敦賀市木崎54-23", "P29_006": "4", "P29_007": "0", "P29_008": "00", "P29_009": null }, "geometry": { "type": "Point", "coordinates": [ 136.038589538362629, 35.641617399191887 ] } },
{ "type": "Feature", "properties": { "P29_001": "18209", "P29_002": "H218310000068", "P29_003": "16015", "P29_004": "武生自動車学校", "P29_005": "福井県越前市八幡2-99-44", "P29_006": "4", "P29_007": "0", "P29_008": "00", "P29_009": null }, "geometry": { "type": "Point", "coordinates": [ 136.176138826749735, 35.916391221236466 ] } },
{ "type": "Feature", "properties": { "P29_001": "18204", "P29_002": "H218310000077", "P29_003": "16015", "P29_004": "小浜自動車学校", "P29_005": "福井県小浜市府中14-23", "P29_006": "4", "P29_007": "0", "P29_008": "00", "P29_009": null }, "geometry": { "type": "Point", "coordinates": [ 135.758559987830751, 35.491231151998086 ] } },
{ "type": "Feature", "properties": { "P29_001": "18205", "P29_002": "H218310000086", "P29_003": "16015", "P29_004": "大野自動車学校", "P29_005": "福井県大野市南新在家11-1", "P29_006": "4", "P29_007": "0", "P29_008": "00", "P29_009": null }, "geometry": { "type": "Point", "coordinates": [ 136.504749009196019, 36.005212057088521 ] } },
{ "type": "Feature", "properties": { "P29_001": "18206", "P29_002": "H218310000095", "P29_003": "16015", "P29_004": "学校法人あおい学園ＡＯＩドライビングスクール勝山校", "P29_005": "福井県勝山市上高島10-1-1", "P29_006": "4", "P29_007": "0", "P29_008": "00", "P29_009": null }, "geometry": { "type": "Point", "coordinates": [ 136.50607616300718, 36.042546014367439 ] } },
{ "type": "Feature", "properties": { "P29_001": "18210", "P29_002": "H218310000102", "P29_003": "16015", "P29_004": "サカイドライビングスクール", "P29_005": "福井県坂井市坂井町上兵庫40-1", "P29_006": "4", "P29_007": "0", "P29_008": "00", "P29_009": null }, "geometry": { "type": "Point", "coordinates": [ 136.222043742385694, 36.166604253367623 ] } },
{ "type": "Feature", "properties": { "P29_001": "18201", "P29_002": "H218310000111", "P29_003": "16015", "P29_004": "北陸朝鮮初中級学校", "P29_005": "福井県福井市南山町20-1", "P29_006": "4", "P29_007": "0", "P29_008": "00", "P29_009": null }, "geometry": { "type": "Point", "coordinates": [ 136.279574545079385, 36.010642166208754 ] } },
{ "type": "Feature", "properties": { "P29_001": "18202", "P29_002": "H218310000120", "P29_003": "16015", "P29_004": "学校法人あおい学園ＡＯＩドライビングスクール敦賀校", "P29_005": "福井県敦賀市金山28-1", "P29_006": "4", "P29_007": "0", "P29_008": "00", "P29_009": null }, "geometry": { "type": "Point", "coordinates": [ 136.028965455874243, 35.629203782527597 ] } }
]
}
