{
"type": "FeatureCollection",
"name": "geo_18_通所介護",
"crs": { "type": "name", "properties": { "name": "urn:ogc:def:crs:OGC:1.3:CRS84" } },
"features": [
{ "type": "Feature", "properties": { "内容": "くるみの森　福町【通所介護】福井市福新町509", "url": "https://www.kaigokensaku.mhlw.go.jp/18/index.php?action_kouhyou_detail_004_kani=true&JigyosyoCd=1870102371-00&ServiceCd=150&Type=search", "url2": null }, "geometry": { "type": "Point", "coordinates": [ 136.185605900000041, 36.0483575 ] } },
{ "type": "Feature", "properties": { "内容": "ポラリスデイサービスセンター成和【通所介護】福井県福井市和田東1丁目221サン・ボニール102", "url": "https://www.kaigokensaku.mhlw.go.jp/18/index.php?action_kouhyou_detail_004_kani=true&JigyosyoCd=1870102595-00&ServiceCd=150&Type=search", "url2": "http://www.aurorakai.com/" }, "geometry": { "type": "Point", "coordinates": [ 136.2461899, 36.0545831 ] } },
{ "type": "Feature", "properties": { "内容": "みのりデイサービスセンターほのか【通所介護】福井県福井市みのり１丁目5-16", "url": "https://www.kaigokensaku.mhlw.go.jp/18/index.php?action_kouhyou_detail_004_kani=true&JigyosyoCd=1870102124-00&ServiceCd=150&Type=search", "url2": "http://www.keishukai.com/" }, "geometry": { "type": "Point", "coordinates": [ 136.2172309, 36.0494802 ] } },
{ "type": "Feature", "properties": { "内容": "ゆうあいデイサービスセンター【通所介護】福井県福井市大願寺3丁目9－3", "url": "https://www.kaigokensaku.mhlw.go.jp/18/index.php?action_kouhyou_detail_004_kani=true&JigyosyoCd=1870100771-00&ServiceCd=150&Type=search", "url2": "http://fukui-youi.com/" }, "geometry": { "type": "Point", "coordinates": [ 136.228329300000041, 36.0843564 ] } },
{ "type": "Feature", "properties": { "内容": "愛寿苑　デイサービスセンター【通所介護】福井市加茂緑苑町402番地", "url": "https://www.kaigokensaku.mhlw.go.jp/18/index.php?action_kouhyou_detail_004_kani=true&JigyosyoCd=1870100391-00&ServiceCd=150&Type=search", "url2": "http://www.aijuen.com/" }, "geometry": { "type": "Point", "coordinates": [ 136.191610800000035, 36.0548513 ] } },
{ "type": "Feature", "properties": { "内容": "アルク【通所介護】福井市宝永4-3-1サクラNビル", "url": "https://www.kaigokensaku.mhlw.go.jp/18/index.php?action_kouhyou_detail_004_kani=true&JigyosyoCd=1870103999-00&ServiceCd=150&Type=search", "url2": "https://alcsport.com/" }, "geometry": { "type": "Point", "coordinates": [ 136.2189026, 36.0670944 ] } },
{ "type": "Feature", "properties": { "内容": "デイサービスいこい【通所介護】福井県福井市光陽2丁目21-3", "url": "https://www.kaigokensaku.mhlw.go.jp/18/index.php?action_kouhyou_detail_004_kani=true&JigyosyoCd=1870102421-00&ServiceCd=150&Type=search", "url2": "ikoi151@indigo.plala.or.jp" }, "geometry": { "type": "Point", "coordinates": [ 136.200568808598291, 36.064775599730645 ] } },
{ "type": "Feature", "properties": { "内容": "サンサン・ケアホームえばた【通所介護】福井県福井市江端町６－１４－２", "url": "https://www.kaigokensaku.mhlw.go.jp/18/index.php?action_kouhyou_detail_004_kani=true&JigyosyoCd=1870102405-00&ServiceCd=150&Type=search", "url2": null }, "geometry": { "type": "Point", "coordinates": [ 136.216009699999972, 36.0299439 ] } },
{ "type": "Feature", "properties": { "内容": "ニチイケアセンター成和【通所介護】福井県福井市城東2丁目14－1", "url": "https://www.kaigokensaku.mhlw.go.jp/18/index.php?action_kouhyou_detail_004_kani=true&JigyosyoCd=1870100656-00&ServiceCd=150&Type=search", "url2": "http://www.nichiigakkan.co.jp" }, "geometry": { "type": "Point", "coordinates": [ 136.236090099999956, 36.0618263 ] } },
{ "type": "Feature", "properties": { "内容": "ちいさなチカラ【通所介護】福井県福井市丸山1丁目801", "url": "https://www.kaigokensaku.mhlw.go.jp/18/index.php?action_kouhyou_detail_004_kani=true&JigyosyoCd=1870104120-00&ServiceCd=150&Type=search", "url2": null }, "geometry": { "type": "Point", "coordinates": [ 136.244287500000013, 36.07415 ] } },
{ "type": "Feature", "properties": { "内容": "花園デイサービスセンター【通所介護】福井県福井市松本1-36-15", "url": "https://www.kaigokensaku.mhlw.go.jp/18/index.php?action_kouhyou_detail_004_kani=true&JigyosyoCd=1870100268-00&ServiceCd=150&Type=search", "url2": "http://www.hanazono-f.com/" }, "geometry": { "type": "Point", "coordinates": [ 136.2319344, 36.0756549 ] } },
{ "type": "Feature", "properties": { "内容": "デイサービスセンターあい愛【通所介護】福井県福井市舟橋新1丁目106番地", "url": "https://www.kaigokensaku.mhlw.go.jp/18/index.php?action_kouhyou_detail_004_kani=true&JigyosyoCd=1870100029-00&ServiceCd=150&Type=search", "url2": "aiai@ja-fukuiken.or.jp" }, "geometry": { "type": "Point", "coordinates": [ 136.2125036, 36.0983516 ] } },
{ "type": "Feature", "properties": { "内容": "アスプラふじしまデイサービスセンター【通所介護】福井市高木中央３－１７０1", "url": "https://www.kaigokensaku.mhlw.go.jp/18/index.php?action_kouhyou_detail_004_kani=true&JigyosyoCd=1870100177-00&ServiceCd=150&Type=search", "url2": "http://www.fujishimaen.or.jp/" }, "geometry": { "type": "Point", "coordinates": [ 136.239788688360591, 36.092005917550999 ] } },
{ "type": "Feature", "properties": { "内容": "さくらが丘デイサ－ビスセンタ－【通所介護】福井県福井市本堂町５１字３３番地", "url": "https://www.kaigokensaku.mhlw.go.jp/18/index.php?action_kouhyou_detail_004_kani=true&JigyosyoCd=1870100185-00&ServiceCd=150&Type=search", "url2": "http://www.takaoen.jp/" }, "geometry": { "type": "Point", "coordinates": [ 136.126684399999931, 36.0564834 ] } },
{ "type": "Feature", "properties": { "内容": "あさむつ苑　ディサービスセンター【通所介護】福井市引目町第21号9番地の2", "url": "https://www.kaigokensaku.mhlw.go.jp/18/index.php?action_kouhyou_detail_004_kani=true&JigyosyoCd=1870100227-00&ServiceCd=150&Type=search", "url2": "http://www.asamutuen.jp/" }, "geometry": { "type": "Point", "coordinates": [ 136.19742240000005, 36.022397 ] } },
{ "type": "Feature", "properties": { "内容": "悠和園デイサービスセンター【通所介護】福井市免鳥町22-74", "url": "https://www.kaigokensaku.mhlw.go.jp/18/index.php?action_kouhyou_detail_004_kani=true&JigyosyoCd=1870100250-00&ServiceCd=150&Type=search", "url2": "http://www.yuwaen.jp" }, "geometry": { "type": "Point", "coordinates": [ 136.074891, 36.1309826 ] } },
{ "type": "Feature", "properties": { "内容": "宝珠苑デイサービスセンター【通所介護】福井市内山梨子町3-46", "url": "https://www.kaigokensaku.mhlw.go.jp/18/index.php?action_kouhyou_detail_004_kani=true&JigyosyoCd=1870100037-00&ServiceCd=150&Type=search", "url2": "http://www.houjuen.org/" }, "geometry": { "type": "Point", "coordinates": [ 136.157381500000042, 36.1340038 ] } },
{ "type": "Feature", "properties": { "内容": "たんぽぽ苑デイサービスセンター【通所介護】福井市石盛3丁目301番地", "url": "https://www.kaigokensaku.mhlw.go.jp/18/index.php?action_kouhyou_detail_004_kani=true&JigyosyoCd=1870100045-00&ServiceCd=150&Type=search", "url2": "https://www.tanpopoen-senjukai.com" }, "geometry": { "type": "Point", "coordinates": [ 136.236726011602229, 36.118560605633157 ] } },
{ "type": "Feature", "properties": { "内容": "足羽利生苑デイサービスセンター【通所介護】福井市栂野町20－7", "url": "https://www.kaigokensaku.mhlw.go.jp/18/index.php?action_kouhyou_detail_004_kani=true&JigyosyoCd=1870100052-00&ServiceCd=150&Type=search", "url2": "http://www.asuwafukushikai.jp/risyoen/" }, "geometry": { "type": "Point", "coordinates": [ 136.258015099999966, 36.0388432 ] } },
{ "type": "Feature", "properties": { "内容": "愛全園デイサービスセンター【通所介護】福井市丸山町40-7", "url": "https://www.kaigokensaku.mhlw.go.jp/18/index.php?action_kouhyou_detail_004_kani=true&JigyosyoCd=1870100060-00&ServiceCd=150&Type=search", "url2": "http://www.asuwafukushikai.jp/aizenen" }, "geometry": { "type": "Point", "coordinates": [ 136.251463699999931, 36.0776558 ] } },
{ "type": "Feature", "properties": { "内容": "新世紀らぼ【通所介護】栗森1丁目102番地", "url": "https://www.kaigokensaku.mhlw.go.jp/18/index.php?action_kouhyou_detail_004_kani=true&JigyosyoCd=1870100797-00&ServiceCd=150&Type=search", "url2": "https://www.big-advance.site/s/163/1455" }, "geometry": { "type": "Point", "coordinates": [ 136.2386007, 36.1164061 ] } },
{ "type": "Feature", "properties": { "内容": "デイサービスセンター　モアヤング【通所介護】福井県福井市和田中町東沖田３０番地の１", "url": "https://www.kaigokensaku.mhlw.go.jp/18/index.php?action_kouhyou_detail_004_kani=true&JigyosyoCd=1870100813-00&ServiceCd=150&Type=search", "url2": "https://www.moreyoung.jp/" }, "geometry": { "type": "Point", "coordinates": [ 136.246609799999987, 36.04720050000001 ] } },
{ "type": "Feature", "properties": { "内容": "医療法人清風会　吉田医院デイサービスセンター【通所介護】福井市順化１丁目８-１", "url": "https://www.kaigokensaku.mhlw.go.jp/18/index.php?action_kouhyou_detail_004_kani=true&JigyosyoCd=1870100938-00&ServiceCd=150&Type=search", "url2": "http://fukui-yoshidahospital.com/" }, "geometry": { "type": "Point", "coordinates": [ 136.2156804, 36.0639031 ] } },
{ "type": "Feature", "properties": { "内容": "県民せいきょう羽水きらめきデイサービス【通所介護】福井県福井市羽水1丁目107番地", "url": "https://www.kaigokensaku.mhlw.go.jp/18/index.php?action_kouhyou_detail_004_kani=true&JigyosyoCd=1870100946-00&ServiceCd=150&Type=search", "url2": "http://www.fukui.coop/" }, "geometry": { "type": "Point", "coordinates": [ 136.227266800000052, 36.042270299999984 ] } },
{ "type": "Feature", "properties": { "内容": "JA福井県デイサービスセンター　わかば【通所介護】福井県福井市渕4丁目606番地", "url": "https://www.kaigokensaku.mhlw.go.jp/18/index.php?action_kouhyou_detail_004_kani=true&JigyosyoCd=1870100987-00&ServiceCd=150&Type=search", "url2": "https://www.ja-fukuiken.or.jp" }, "geometry": { "type": "Point", "coordinates": [ 136.185664200000019, 36.0464855 ] } },
{ "type": "Feature", "properties": { "内容": "ツクイ福井文京【通所介護】福井市文京7-8-20", "url": "https://www.kaigokensaku.mhlw.go.jp/18/index.php?action_kouhyou_detail_004_kani=true&JigyosyoCd=1870101076-00&ServiceCd=150&Type=search", "url2": "http://www.tsukui.net" }, "geometry": { "type": "Point", "coordinates": [ 136.1955438, 36.0756682 ] } },
{ "type": "Feature", "properties": { "内容": "メイプルケア大宮デイサービスセンター【通所介護】福井県福井市大宮４丁目１３番１号", "url": "https://www.kaigokensaku.mhlw.go.jp/18/index.php?action_kouhyou_detail_004_kani=true&JigyosyoCd=1870101126-00&ServiceCd=150&Type=search", "url2": "http://www.meipurucare.com/" }, "geometry": { "type": "Point", "coordinates": [ 136.207936931877157, 36.081860693595345 ] } },
{ "type": "Feature", "properties": { "内容": "いちごデイセンター福井【通所介護】福井市米松１丁目14-15", "url": "https://www.kaigokensaku.mhlw.go.jp/18/index.php?action_kouhyou_detail_004_kani=true&JigyosyoCd=1870101159-00&ServiceCd=150&Type=search", "url2": "http://www.kenkoukai.or.jp/" }, "geometry": { "type": "Point", "coordinates": [ 136.241039499999943, 36.0670981 ] } },
{ "type": "Feature", "properties": { "内容": "あさくら苑デイサービスセンター【通所介護】福井市下六条町１８字３２番", "url": "https://www.kaigokensaku.mhlw.go.jp/18/index.php?action_kouhyou_detail_004_kani=true&JigyosyoCd=1870101209-00&ServiceCd=150&Type=search", "url2": "http://www.asakuraen.jp" }, "geometry": { "type": "Point", "coordinates": [ 136.229378099999963, 36.0351768 ] } },
{ "type": "Feature", "properties": { "内容": "いちごデイセンターみのり【通所介護】福井県福井市月見4丁目3-29", "url": "https://www.kaigokensaku.mhlw.go.jp/18/index.php?action_kouhyou_detail_004_kani=true&JigyosyoCd=1870101399-00&ServiceCd=150&Type=search", "url2": "http://www.kenkoukai.or.jp/" }, "geometry": { "type": "Point", "coordinates": [ 136.2035932, 36.0480384 ] } },
{ "type": "Feature", "properties": { "内容": "すみれ荘デイサービスセンター【通所介護】福井県福井市島寺町第83号1番地", "url": "https://www.kaigokensaku.mhlw.go.jp/18/index.php?action_kouhyou_detail_004_kani=true&JigyosyoCd=1870101597-00&ServiceCd=150&Type=search", "url2": "www.s-shinseikai.jp" }, "geometry": { "type": "Point", "coordinates": [ 136.14238649999993, 36.017407800000043 ] } },
{ "type": "Feature", "properties": { "内容": "HOME　TOWN　コスモス老人デイサービス事業所【通所介護】福井県福井市帆谷町１字外山３３", "url": "https://www.kaigokensaku.mhlw.go.jp/18/index.php?action_kouhyou_detail_004_kani=true&JigyosyoCd=1870101704-00&ServiceCd=150&Type=search", "url2": "http://www.ht-cosmos.or.jp" }, "geometry": { "type": "Point", "coordinates": [ 136.235892012580848, 36.007530571775185 ] } },
{ "type": "Feature", "properties": { "内容": "デイサービス六条リハビリセンター【通所介護】福井市下六条町２１７番地", "url": "https://www.kaigokensaku.mhlw.go.jp/18/index.php?action_kouhyou_detail_004_kani=true&JigyosyoCd=1870101787-00&ServiceCd=150&Type=search", "url2": "http://fukui-medix.com/" }, "geometry": { "type": "Point", "coordinates": [ 136.234072200000014, 36.0368627 ] } },
{ "type": "Feature", "properties": { "内容": "あさがおリハビリサポートセンター【通所介護】福井市新保町19字35番1", "url": "https://www.kaigokensaku.mhlw.go.jp/18/index.php?action_kouhyou_detail_004_kani=true&JigyosyoCd=1870101845-00&ServiceCd=150&Type=search", "url2": "http://fukui-medix.com/" }, "geometry": { "type": "Point", "coordinates": [ 136.258813199999963, 36.0851414 ] } },
{ "type": "Feature", "properties": { "内容": "うららデイサービス【通所介護】福井県福井市木田１丁目3308番地", "url": "https://www.kaigokensaku.mhlw.go.jp/18/index.php?action_kouhyou_detail_004_kani=true&JigyosyoCd=1870101878-00&ServiceCd=150&Type=search", "url2": "http://www.hikarigroup.jp" }, "geometry": { "type": "Point", "coordinates": [ 136.226638699999967, 36.0470307 ] } },
{ "type": "Feature", "properties": { "内容": "リハフィットほっとチャレンジ【通所介護】福井県福井市四ツ井2-1-10ほっと地域リハビリセンター福井", "url": "https://www.kaigokensaku.mhlw.go.jp/18/index.php?action_kouhyou_detail_004_kani=true&JigyosyoCd=1870101886-00&ServiceCd=150&Type=search", "url2": "http://www.hotreha.com" }, "geometry": { "type": "Point", "coordinates": [ 136.23511469999994, 36.0685004 ] } },
{ "type": "Feature", "properties": { "内容": "あすわリハビリサポートセンター【通所介護】福井市足羽4丁目4番12号", "url": "https://www.kaigokensaku.mhlw.go.jp/18/index.php?action_kouhyou_detail_004_kani=true&JigyosyoCd=1870101936-00&ServiceCd=150&Type=search", "url2": "http://fukui-medix.com/" }, "geometry": { "type": "Point", "coordinates": [ 136.200451599999951, 36.0569233 ] } },
{ "type": "Feature", "properties": { "内容": "トゥモローズホームリハビリセンター福井南【通所介護】福井県福井市花堂2-1-1トゥモローズホームリハビリセンター福井南", "url": "https://www.kaigokensaku.mhlw.go.jp/18/index.php?action_kouhyou_detail_004_kani=true&JigyosyoCd=1870103817-00&ServiceCd=150&Type=search", "url2": "tomorrows-reha.com" }, "geometry": { "type": "Point", "coordinates": [ 136.212143, 36.033392 ] } },
{ "type": "Feature", "properties": { "内容": "デイサービスセンター　東郷【通所介護】福井市東郷二ヶ町２７－１５－３リリーブ東郷", "url": "https://www.kaigokensaku.mhlw.go.jp/18/index.php?action_kouhyou_detail_004_kani=true&JigyosyoCd=1870102132-00&ServiceCd=150&Type=search", "url2": "http://www.monjuen.com" }, "geometry": { "type": "Point", "coordinates": [ 136.273188800000071, 36.0157497 ] } },
{ "type": "Feature", "properties": { "内容": "いなほリハビリサポートセンター【通所介護】福井市江端町20字20-24", "url": "https://www.kaigokensaku.mhlw.go.jp/18/index.php?action_kouhyou_detail_004_kani=true&JigyosyoCd=1870102546-00&ServiceCd=150&Type=search", "url2": "http://fukui-medix.com/" }, "geometry": { "type": "Point", "coordinates": [ 136.212410561082521, 36.025880395255101 ] } },
{ "type": "Feature", "properties": { "内容": "あたごデイサービス【通所介護】福井県福井市明里町９番２０号", "url": "https://www.kaigokensaku.mhlw.go.jp/18/index.php?action_kouhyou_detail_004_kani=true&JigyosyoCd=1870103478-00&ServiceCd=150&Type=search", "url2": null }, "geometry": { "type": "Point", "coordinates": [ 136.197495928835991, 36.060077107823773 ] } },
{ "type": "Feature", "properties": { "内容": "デイセンターすずかぜ【通所介護】福井県福井市文京２丁目16番９号", "url": "https://www.kaigokensaku.mhlw.go.jp/18/index.php?action_kouhyou_detail_004_kani=true&JigyosyoCd=1870103536-00&ServiceCd=150&Type=search", "url2": "http://www.fmatsubara.com" }, "geometry": { "type": "Point", "coordinates": [ 136.219108692061809, 36.079439655906114 ] } },
{ "type": "Feature", "properties": { "内容": "デイサービス　リハビリセンタートレフル【通所介護】福井市若杉１－２８０５", "url": "https://www.kaigokensaku.mhlw.go.jp/18/index.php?action_kouhyou_detail_004_kani=true&JigyosyoCd=1870102363-00&ServiceCd=150&Type=search", "url2": "http://www.tomorrows-reha.com" }, "geometry": { "type": "Point", "coordinates": [ 136.18885279999995, 36.0577537 ] } },
{ "type": "Feature", "properties": { "内容": "よつばリハビリサポートセンター【通所介護】福井市四ッ井1丁目13番23号", "url": "https://www.kaigokensaku.mhlw.go.jp/18/index.php?action_kouhyou_detail_004_kani=true&JigyosyoCd=1870102777-00&ServiceCd=150&Type=search", "url2": "yotuba@fukui-medix.com" }, "geometry": { "type": "Point", "coordinates": [ 136.236967600000071, 36.0648009 ] } },
{ "type": "Feature", "properties": { "内容": "デイサービスセンター　すずらん【通所介護】西開発3丁目306番地サービス付き高齢者向け住宅　すずらん", "url": "https://www.kaigokensaku.mhlw.go.jp/18/index.php?action_kouhyou_detail_004_kani=true&JigyosyoCd=1870103106-00&ServiceCd=150&Type=search", "url2": "http://suzuran01-f.com/" }, "geometry": { "type": "Point", "coordinates": [ 136.235587099999947, 36.0837152 ] } },
{ "type": "Feature", "properties": { "内容": "リハビリデイサービスわかすぎ【通所介護】福井県福井市若杉4丁目1602番地リハビリデイサービスわかすぎ", "url": "https://www.kaigokensaku.mhlw.go.jp/18/index.php?action_kouhyou_detail_004_kani=true&JigyosyoCd=1870103361-00&ServiceCd=150&Type=search", "url2": "http://www.arigatou-ltd.co.jp" }, "geometry": { "type": "Point", "coordinates": [ 136.185328099806242, 36.056576060859854 ] } },
{ "type": "Feature", "properties": { "内容": "ほっと地域リハビリセンター福井北【通所介護】福井県福井市大和田2丁目2101ほっと地域包括ケアセンター福井北", "url": "https://www.kaigokensaku.mhlw.go.jp/18/index.php?action_kouhyou_detail_004_kani=true&JigyosyoCd=1870103387-00&ServiceCd=150&Type=search", "url2": "http://www.hotreha.com" }, "geometry": { "type": "Point", "coordinates": [ 136.25344588283383, 36.098719447669282 ] } },
{ "type": "Feature", "properties": { "内容": "ツクイ福井森田【通所介護】石盛１丁目１６０２", "url": "https://www.kaigokensaku.mhlw.go.jp/18/index.php?action_kouhyou_detail_004_kani=true&JigyosyoCd=1870102280-00&ServiceCd=150&Type=search", "url2": "http://www.tsukui.net" }, "geometry": { "type": "Point", "coordinates": [ 136.23012360000007, 36.116372400000017 ] } },
{ "type": "Feature", "properties": { "内容": "株式会社ツクイ　ツクイ福井開発【通所介護】福井県福井市開発2丁目705番地ツクイ福井開発デイサービスセンター", "url": "https://www.kaigokensaku.mhlw.go.jp/18/index.php?action_kouhyou_detail_004_kani=true&JigyosyoCd=1870103171-00&ServiceCd=150&Type=search", "url2": "https://www.tsukui.net/search/2601/detail.html" }, "geometry": { "type": "Point", "coordinates": [ 136.239824394056768, 36.077369648420472 ] } },
{ "type": "Feature", "properties": { "内容": "デイフィットネス楽らく　渕店【通所介護】福井市渕3丁目134グランドコーポヤシロ1階", "url": "https://www.kaigokensaku.mhlw.go.jp/18/index.php?action_kouhyou_detail_004_kani=true&JigyosyoCd=1870102934-00&ServiceCd=150&Type=search", "url2": "http://www.df-rakuraku.com" }, "geometry": { "type": "Point", "coordinates": [ 136.186725199999955, 36.043908 ] } },
{ "type": "Feature", "properties": { "内容": "デイ・フィットネス　楽らく大宮店【通所介護】福井市大宮5丁目13番24号", "url": "https://www.kaigokensaku.mhlw.go.jp/18/index.php?action_kouhyou_detail_004_kani=true&JigyosyoCd=1870102397-00&ServiceCd=150&Type=search", "url2": "http://www.df-rakuraku.com" }, "geometry": { "type": "Point", "coordinates": [ 136.2020099, 36.0819674 ] } },
{ "type": "Feature", "properties": { "内容": "ツクイ福井舞屋【通所介護】舞屋町8-101", "url": "https://www.kaigokensaku.mhlw.go.jp/18/index.php?action_kouhyou_detail_004_kani=true&JigyosyoCd=1870102918-00&ServiceCd=150&Type=search", "url2": "http://www.tsukui.net/home-care/2559" }, "geometry": { "type": "Point", "coordinates": [ 136.2020966, 36.0330042 ] } },
{ "type": "Feature", "properties": { "内容": "仁愛ケアサポート通所介護事業所【通所介護】福井市乾徳4丁目4番7号", "url": "https://www.kaigokensaku.mhlw.go.jp/18/index.php?action_kouhyou_detail_004_kani=true&JigyosyoCd=1870101688-00&ServiceCd=150&Type=search", "url2": "http://www.jinai-cs.co.jp/" }, "geometry": { "type": "Point", "coordinates": [ 136.205609099999947, 36.0711715 ] } },
{ "type": "Feature", "properties": { "内容": "ﾃﾞｲｻｰﾋﾞｽきたえる～む福井文京【通所介護】福井県福井市文京6-22-9", "url": "https://www.kaigokensaku.mhlw.go.jp/18/index.php?action_kouhyou_detail_004_kani=true&JigyosyoCd=1870103635-00&ServiceCd=150&Type=search", "url2": "http://www.kitaeroom.com/" }, "geometry": { "type": "Point", "coordinates": [ 136.198561, 36.0762649 ] } },
{ "type": "Feature", "properties": { "内容": "ディサービスきたえる～む福井開発【通所介護】福井県福井市開発4丁目111タワーグランデCHA103", "url": "https://www.kaigokensaku.mhlw.go.jp/18/index.php?action_kouhyou_detail_004_kani=true&JigyosyoCd=1870103650-00&ServiceCd=150&Type=search", "url2": "http://kitaeroom.com/shop/post-92.shtml" }, "geometry": { "type": "Point", "coordinates": [ 136.237550400000032, 36.0815181 ] } },
{ "type": "Feature", "properties": { "内容": "社会福祉法人　足羽福祉会　カラフル【通所介護】福井県福井市林町62-3", "url": "https://www.kaigokensaku.mhlw.go.jp/18/index.php?action_kouhyou_detail_004_kani=true&JigyosyoCd=1870104054-00&ServiceCd=150&Type=search", "url2": "https://www.asuwafukushikai.jp/" }, "geometry": { "type": "Point", "coordinates": [ 136.2603302, 36.085662 ] } },
{ "type": "Feature", "properties": { "内容": "トゥモローズ　ホームリハビリセンター【通所介護】若杉１－２８０１", "url": "https://www.kaigokensaku.mhlw.go.jp/18/index.php?action_kouhyou_detail_004_kani=true&JigyosyoCd=1870102959-00&ServiceCd=150&Type=search", "url2": "http://www.tomorrows-reha.com/" }, "geometry": { "type": "Point", "coordinates": [ 136.189185172769157, 36.057817235245849 ] } },
{ "type": "Feature", "properties": { "内容": "やろっさリハビリ【通所介護】丸山1丁目1002", "url": "https://www.kaigokensaku.mhlw.go.jp/18/index.php?action_kouhyou_detail_004_kani=true&JigyosyoCd=1870102892-00&ServiceCd=150&Type=search", "url2": "yarossa.amebaownd.com" }, "geometry": { "type": "Point", "coordinates": [ 136.243027056195473, 36.074876460815275 ] } },
{ "type": "Feature", "properties": { "内容": "福井板垣ケアセンターそよ風【通所介護】福井県福井市下馬3丁目１０２", "url": "https://www.kaigokensaku.mhlw.go.jp/18/index.php?action_kouhyou_detail_004_kani=true&JigyosyoCd=1870104021-00&ServiceCd=150&Type=search", "url2": "https://www.unimat-rc.co.jp/" }, "geometry": { "type": "Point", "coordinates": [ 136.2340767, 36.0422341 ] } },
{ "type": "Feature", "properties": { "内容": "敦賀市社会福祉協議会地域リハビリセンター「あいあい」【通所介護】敦賀市東洋町４番1号敦賀市福祉総合センター「あいあいプラザ」内", "url": "https://www.kaigokensaku.mhlw.go.jp/18/index.php?action_kouhyou_detail_004_kani=true&JigyosyoCd=1870200027-00&ServiceCd=150&Type=search", "url2": "http://tsurugashishakyo.ec-net.jp/" }, "geometry": { "type": "Point", "coordinates": [ 136.06942703467098, 35.643824463996978 ] } },
{ "type": "Feature", "properties": { "内容": "エメラルドハウスデイサービスセンター【通所介護】福井県敦賀市中81号岩ケ鼻1番1", "url": "https://www.kaigokensaku.mhlw.go.jp/18/index.php?action_kouhyou_detail_004_kani=true&JigyosyoCd=1870200084-00&ServiceCd=150&Type=search", "url2": "http://emerald-house.or.jp" }, "geometry": { "type": "Point", "coordinates": [ 136.0885452, 35.645898 ] } },
{ "type": "Feature", "properties": { "内容": "敦賀ケアセンタ－かくだ【通所介護】福井県敦賀市昭和町二丁目20番地16", "url": "https://www.kaigokensaku.mhlw.go.jp/18/index.php?action_kouhyou_detail_004_kani=true&JigyosyoCd=1870200159-00&ServiceCd=150&Type=search", "url2": "https://kakuda4141.co.jp" }, "geometry": { "type": "Point", "coordinates": [ 136.05864889999998, 35.6396644 ] } },
{ "type": "Feature", "properties": { "内容": "敦賀市社会福祉協議会地域リハビリセンター「ぬくもりの里」【通所介護】敦賀市御名７０号１１番地２", "url": "https://www.kaigokensaku.mhlw.go.jp/18/index.php?action_kouhyou_detail_004_kani=true&JigyosyoCd=1870200209-00&ServiceCd=150&Type=search", "url2": "http://tsurugashishakyo.ec-net.jp/" }, "geometry": { "type": "Point", "coordinates": [ 136.047911399999947, 35.6088234 ] } },
{ "type": "Feature", "properties": { "内容": "つるが生協デイサービスてくてく【通所介護】福井県敦賀市公文名1号6番", "url": "https://www.kaigokensaku.mhlw.go.jp/18/index.php?action_kouhyou_detail_004_kani=true&JigyosyoCd=1870200241-00&ServiceCd=150&Type=search", "url2": "http://www.fukui-min-iren.com/iryouseikyou/" }, "geometry": { "type": "Point", "coordinates": [ 136.060044547221423, 35.623023360557369 ] } },
{ "type": "Feature", "properties": { "内容": "かくだデイサービスセンター「さくら」【通所介護】敦賀市中央町２－１０－３４", "url": "https://www.kaigokensaku.mhlw.go.jp/18/index.php?action_kouhyou_detail_004_kani=true&JigyosyoCd=1870200399-00&ServiceCd=150&Type=search", "url2": "https://kakuda4141.co.jp/" }, "geometry": { "type": "Point", "coordinates": [ 136.053971499999989, 35.6457081 ] } },
{ "type": "Feature", "properties": { "内容": "リハビリ特化型デイサービスR-style【通所介護】敦賀市白銀町10-15", "url": "https://www.kaigokensaku.mhlw.go.jp/18/index.php?action_kouhyou_detail_004_kani=true&JigyosyoCd=1870200415-00&ServiceCd=150&Type=search", "url2": "http://rehaplus.co.jp/" }, "geometry": { "type": "Point", "coordinates": [ 136.072513699999945, 35.6474391 ] } },
{ "type": "Feature", "properties": { "内容": "第３渓山荘あおぞらデイサービスセンター【通所介護】福井県敦賀市松島町２丁目６番３５号", "url": "https://www.kaigokensaku.mhlw.go.jp/18/index.php?action_kouhyou_detail_004_kani=true&JigyosyoCd=1870200589-00&ServiceCd=150&Type=search", "url2": "https://kjinkai.jp/" }, "geometry": { "type": "Point", "coordinates": [ 136.059287400000017, 35.6518883 ] } },
{ "type": "Feature", "properties": { "内容": "デイサービスセンター幸【通所介護】平和町1-23", "url": "https://www.kaigokensaku.mhlw.go.jp/18/index.php?action_kouhyou_detail_004_kani=true&JigyosyoCd=1870200712-00&ServiceCd=150&Type=search", "url2": "http://fukushika.com/" }, "geometry": { "type": "Point", "coordinates": [ 136.904115100000013, 34.9099808 ] } },
{ "type": "Feature", "properties": { "内容": "合同会社愛美【通所介護】福井県敦賀市公文名35号39番地の1", "url": "https://www.kaigokensaku.mhlw.go.jp/18/index.php?action_kouhyou_detail_004_kani=true&JigyosyoCd=1870200746-00&ServiceCd=150&Type=search", "url2": "tps://healing-mind-and-body-mikuni.jimdofree.com" }, "geometry": { "type": "Point", "coordinates": [ 136.0555894, 35.620381 ] } },
{ "type": "Feature", "properties": { "内容": "ほっと地域リハビリセンター敦賀【通所介護】福井県敦賀市沓見141-2-1", "url": "https://www.kaigokensaku.mhlw.go.jp/18/index.php?action_kouhyou_detail_004_kani=true&JigyosyoCd=1870200308-00&ServiceCd=150&Type=search", "url2": "http://www.hotreha.com" }, "geometry": { "type": "Point", "coordinates": [ 136.032163053113209, 35.644111471522081 ] } },
{ "type": "Feature", "properties": { "内容": "渓山荘デイサービスセンター【通所介護】福井県敦賀市中８１－１－５", "url": "https://www.kaigokensaku.mhlw.go.jp/18/index.php?action_kouhyou_detail_004_kani=true&JigyosyoCd=1870200019-00&ServiceCd=150&Type=search", "url2": "http://www.keizansou.or.jp" }, "geometry": { "type": "Point", "coordinates": [ 136.087853799999948, 35.6389014 ] } },
{ "type": "Feature", "properties": { "内容": "デイサービスこばやし【通所介護】福井県敦賀市ひばりケ丘町1108番", "url": "https://www.kaigokensaku.mhlw.go.jp/18/index.php?action_kouhyou_detail_004_kani=true&JigyosyoCd=1870200498-00&ServiceCd=150&Type=search", "url2": "http://care-koba.com/day/" }, "geometry": { "type": "Point", "coordinates": [ 136.041035329129016, 35.623194695663521 ] } },
{ "type": "Feature", "properties": { "内容": "第２渓山荘ぽっぽ　デイサービスセンター【通所介護】福井県敦賀市鉄輪町1丁目2番57", "url": "https://www.kaigokensaku.mhlw.go.jp/18/index.php?action_kouhyou_detail_004_kani=true&JigyosyoCd=1870200316-00&ServiceCd=150&Type=search", "url2": "https://kjinkai.jp/facility/poppo/" }, "geometry": { "type": "Point", "coordinates": [ 136.073968011486159, 35.643153432430474 ] } },
{ "type": "Feature", "properties": { "内容": "デイサービスあゆみ【通所介護】福井県小浜市大手町８番３３号", "url": "https://www.kaigokensaku.mhlw.go.jp/18/index.php?action_kouhyou_detail_004_kani=true&JigyosyoCd=1870400429-00&ServiceCd=150&Type=search", "url2": "http://www.ayumi-ote.com" }, "geometry": { "type": "Point", "coordinates": [ 135.746235599999977, 35.497279 ] } },
{ "type": "Feature", "properties": { "内容": "小浜市デイサービスセンター【通所介護】福井県小浜市遠敷84-3-4サン・サンホーム小浜", "url": "https://www.kaigokensaku.mhlw.go.jp/18/index.php?action_kouhyou_detail_004_kani=true&JigyosyoCd=1870400015-00&ServiceCd=150&Type=search", "url2": "http://www.obama-shakyo.or.jp/" }, "geometry": { "type": "Point", "coordinates": [ 135.781338799999958, 35.4849674 ] } },
{ "type": "Feature", "properties": { "内容": "若狭ハイツデイサービスセンター【通所介護】小浜市阿納尻第５９号９番地の１", "url": "https://www.kaigokensaku.mhlw.go.jp/18/index.php?action_kouhyou_detail_004_kani=true&JigyosyoCd=1870400049-00&ServiceCd=150&Type=search", "url2": "http://www.wakasa-fukushikai.com" }, "geometry": { "type": "Point", "coordinates": [ 135.762864900000068, 35.5295762 ] } },
{ "type": "Feature", "properties": { "内容": "デイサービスセンター　もみじの里【通所介護】福井県小浜市東勢11号3番", "url": "https://www.kaigokensaku.mhlw.go.jp/18/index.php?action_kouhyou_detail_004_kani=true&JigyosyoCd=1870400155-00&ServiceCd=150&Type=search", "url2": "http://www.momijist.jp/" }, "geometry": { "type": "Point", "coordinates": [ 135.720410099999981, 35.482683 ] } },
{ "type": "Feature", "properties": { "内容": "株式会社ライフサ－ビスデイサ－ビスセンタ－たぶの木【通所介護】小浜市山王前一丁目６－１０", "url": "https://www.kaigokensaku.mhlw.go.jp/18/index.php?action_kouhyou_detail_004_kani=true&JigyosyoCd=1870400189-00&ServiceCd=150&Type=search", "url2": "https://www.life-kaigo.jp/" }, "geometry": { "type": "Point", "coordinates": [ 135.753643300000022, 35.5113443 ] } },
{ "type": "Feature", "properties": { "内容": "JA福井県デイサービスセンターみのり【通所介護】小浜市遠敷8-1-1", "url": "https://www.kaigokensaku.mhlw.go.jp/18/index.php?action_kouhyou_detail_004_kani=true&JigyosyoCd=1870400239-00&ServiceCd=150&Type=search", "url2": null }, "geometry": { "type": "Point", "coordinates": [ 135.776764, 35.4899194 ] } },
{ "type": "Feature", "properties": { "内容": "ニチイケアセンター小浜【通所介護】小浜市南川町11-35", "url": "https://www.kaigokensaku.mhlw.go.jp/18/index.php?action_kouhyou_detail_004_kani=true&JigyosyoCd=1870400098-00&ServiceCd=150&Type=search", "url2": "http://www.nichiigakkan.co.jp" }, "geometry": { "type": "Point", "coordinates": [ 135.755523700000026, 35.4920769 ] } },
{ "type": "Feature", "properties": { "内容": "リリ・フィジオ【通所介護】福井県小浜市遠敷7丁目301AYATTO内", "url": "https://www.kaigokensaku.mhlw.go.jp/18/index.php?action_kouhyou_detail_004_kani=true&JigyosyoCd=1860490042-00&ServiceCd=150&Type=search", "url2": "http://rerephysio-sanaikai.jp" }, "geometry": { "type": "Point", "coordinates": [ 135.775907713847346, 35.485173250125946 ] } },
{ "type": "Feature", "properties": { "内容": "デイサービス　あお空【通所介護】福井県小浜市遠敷10丁目601番地1", "url": "https://www.kaigokensaku.mhlw.go.jp/18/index.php?action_kouhyou_detail_004_kani=true&JigyosyoCd=1870400288-00&ServiceCd=150&Type=search", "url2": null }, "geometry": { "type": "Point", "coordinates": [ 135.774939200000063, 35.4852366 ] } },
{ "type": "Feature", "properties": { "内容": "大野和光園デイサービスセンター【通所介護】福井県大野市篠座７９号１１番地", "url": "https://www.kaigokensaku.mhlw.go.jp/18/index.php?action_kouhyou_detail_004_kani=true&JigyosyoCd=1870500038-00&ServiceCd=150&Type=search", "url2": "www.ono-wakouen.jp" }, "geometry": { "type": "Point", "coordinates": [ 136.500851099999977, 35.9647917 ] } },
{ "type": "Feature", "properties": { "内容": "通所介護施設わかくさ【通所介護】福井県大野市月美町8-3", "url": "https://www.kaigokensaku.mhlw.go.jp/18/index.php?action_kouhyou_detail_004_kani=true&JigyosyoCd=1860590072-00&ServiceCd=150&Type=search", "url2": "https://rehaspot.com/" }, "geometry": { "type": "Point", "coordinates": [ 136.500435, 35.9848171 ] } },
{ "type": "Feature", "properties": { "内容": "一乗ハイツデイサービスセンター【通所介護】大野市牛ヶ原154-1-1", "url": "https://www.kaigokensaku.mhlw.go.jp/18/index.php?action_kouhyou_detail_004_kani=true&JigyosyoCd=1870500012-00&ServiceCd=150&Type=search", "url2": null }, "geometry": { "type": "Point", "coordinates": [ 136.465946499999973, 35.9937401 ] } },
{ "type": "Feature", "properties": { "内容": "聖和園デイサービスセンター【通所介護】大野市蕨生158-35", "url": "https://www.kaigokensaku.mhlw.go.jp/18/index.php?action_kouhyou_detail_004_kani=true&JigyosyoCd=1870500020-00&ServiceCd=150&Type=search", "url2": "http://www.saiseikai-seiwaen.jp/" }, "geometry": { "type": "Point", "coordinates": [ 136.546960200000058, 35.9819682 ] } },
{ "type": "Feature", "properties": { "内容": "大野市社会福祉協議会天神デイサービスセンター【通所介護】大野市天神町7番15号", "url": "https://www.kaigokensaku.mhlw.go.jp/18/index.php?action_kouhyou_detail_004_kani=true&JigyosyoCd=1870500061-00&ServiceCd=150&Type=search", "url2": "http://ono-shakyo.jp/" }, "geometry": { "type": "Point", "coordinates": [ 136.4884942, 35.977983900000019 ] } },
{ "type": "Feature", "properties": { "内容": "デイサービスさくらの家【通所介護】福井県大野市中津川32-33", "url": "https://www.kaigokensaku.mhlw.go.jp/18/index.php?action_kouhyou_detail_004_kani=true&JigyosyoCd=1870500145-00&ServiceCd=150&Type=search", "url2": "http://www.koseikaigroup.jp/hospital/" }, "geometry": { "type": "Point", "coordinates": [ 136.498698600000012, 36.0004586 ] } },
{ "type": "Feature", "properties": { "内容": "ほっと地域リハビリセンター大野【通所介護】福井県大野市月美町1005", "url": "https://www.kaigokensaku.mhlw.go.jp/18/index.php?action_kouhyou_detail_004_kani=true&JigyosyoCd=1870500392-00&ServiceCd=150&Type=search", "url2": "http://www.hotreha.com" }, "geometry": { "type": "Point", "coordinates": [ 136.500196764539538, 35.987200629420826 ] } },
{ "type": "Feature", "properties": { "内容": "デイサービス施設「パワーリハビリふぁいと」【通所介護】福井県大野市桜塚町905番地", "url": "https://www.kaigokensaku.mhlw.go.jp/18/index.php?action_kouhyou_detail_004_kani=true&JigyosyoCd=1870500335-00&ServiceCd=150&Type=search", "url2": "http://www.takeipowergym.com/about_gym.html" }, "geometry": { "type": "Point", "coordinates": [ 136.50175379999996, 35.9704882 ] } },
{ "type": "Feature", "properties": { "内容": "福井県農業協同デイサービスセンターテラルのほほえみ（令和2年4月1日　吸収合併）【通所介護】大野市中挾１丁目１４01", "url": "https://www.kaigokensaku.mhlw.go.jp/18/index.php?action_kouhyou_detail_004_kani=true&JigyosyoCd=1870500194-00&ServiceCd=150&Type=search", "url2": "http://www.jaterral.com/" }, "geometry": { "type": "Point", "coordinates": [ 136.504374857672133, 35.98582650498296 ] } },
{ "type": "Feature", "properties": { "内容": "さつき苑　デイサービスセンター【通所介護】福井県勝山市片瀬第15号22番地", "url": "https://www.kaigokensaku.mhlw.go.jp/18/index.php?action_kouhyou_detail_004_kani=true&JigyosyoCd=1870600010-00&ServiceCd=150&Type=search", "url2": "http://www.satsuki.or.jp/" }, "geometry": { "type": "Point", "coordinates": [ 136.521571399999971, 36.0487165 ] } },
{ "type": "Feature", "properties": { "内容": "ひなたぼっこデイサービスセンター【通所介護】福井県勝山市鹿谷町西光寺25字-9-1", "url": "https://www.kaigokensaku.mhlw.go.jp/18/index.php?action_kouhyou_detail_004_kani=true&JigyosyoCd=1870600085-00&ServiceCd=150&Type=search", "url2": null }, "geometry": { "type": "Point", "coordinates": [ 136.462732, 36.0576169 ] } },
{ "type": "Feature", "properties": { "内容": "さくら荘デイサービスセンター【通所介護】福井県勝山市芳野町２丁目１－１１さくら荘在宅サービス支援センター　さくらんぼ", "url": "https://www.kaigokensaku.mhlw.go.jp/18/index.php?action_kouhyou_detail_004_kani=true&JigyosyoCd=1870600127-00&ServiceCd=150&Type=search", "url2": "http://k-sakurasou.jp" }, "geometry": { "type": "Point", "coordinates": [ 136.499267300000042, 36.066972 ] } },
{ "type": "Feature", "properties": { "内容": "ディサービスセンター九頭竜【通所介護】福井県勝山市旭町3丁目107番２", "url": "https://www.kaigokensaku.mhlw.go.jp/18/index.php?action_kouhyou_detail_004_kani=true&JigyosyoCd=1870600044-00&ServiceCd=150&Type=search", "url2": "https://kuzuryuworkshop.com/" }, "geometry": { "type": "Point", "coordinates": [ 136.514265605621432, 36.049637652145762 ] } },
{ "type": "Feature", "properties": { "内容": "デイサービスセンターえがお【通所介護】福井県勝山市荒土町新保6－103番地", "url": "https://www.kaigokensaku.mhlw.go.jp/18/index.php?action_kouhyou_detail_004_kani=true&JigyosyoCd=1870600143-00&ServiceCd=150&Type=search", "url2": null }, "geometry": { "type": "Point", "coordinates": [ 136.478863300000057, 36.0751235 ] } },
{ "type": "Feature", "properties": { "内容": "デイサービスセンターわかば【通所介護】福井県勝山市昭和町１丁目１番２８号", "url": "https://www.kaigokensaku.mhlw.go.jp/18/index.php?action_kouhyou_detail_004_kani=true&JigyosyoCd=1870600101-00&ServiceCd=150&Type=search", "url2": null }, "geometry": { "type": "Point", "coordinates": [ 136.503539300000057, 36.0629615 ] } },
{ "type": "Feature", "properties": { "内容": "株式会社　永樹【通所介護】東鯖江4丁目8-2", "url": "https://www.kaigokensaku.mhlw.go.jp/18/index.php?action_kouhyou_detail_004_kani=true&JigyosyoCd=1870700596-00&ServiceCd=150&Type=search", "url2": "eiju.fukui.jp" }, "geometry": { "type": "Point", "coordinates": [ 136.198513, 35.9469293 ] } },
{ "type": "Feature", "properties": { "内容": "さくら倶楽部　聚楽第【通所介護】下河端町4-6-1", "url": "https://www.kaigokensaku.mhlw.go.jp/18/index.php?action_kouhyou_detail_004_kani=true&JigyosyoCd=1870700570-00&ServiceCd=150&Type=search", "url2": "httzp：//hp.kaipoke.biz/88d/index.html" }, "geometry": { "type": "Point", "coordinates": [ 136.188079099999982, 35.9664018 ] } },
{ "type": "Feature", "properties": { "内容": "ほっと地域リハビリセンター鯖江【通所介護】鳥羽町107-70", "url": "https://www.kaigokensaku.mhlw.go.jp/18/index.php?action_kouhyou_detail_004_kani=true&JigyosyoCd=1870700729-00&ServiceCd=150&Type=search", "url2": "http://www.hotreha.com" }, "geometry": { "type": "Point", "coordinates": [ 136.199601699999988, 35.9880289 ] } },
{ "type": "Feature", "properties": { "内容": "デイサービスセンターうぐいすの里【通所介護】福井県鯖江市漆原町２０－８", "url": "https://www.kaigokensaku.mhlw.go.jp/18/index.php?action_kouhyou_detail_004_kani=true&JigyosyoCd=1870700034-00&ServiceCd=150&Type=search", "url2": "https://gogakuen.com" }, "geometry": { "type": "Point", "coordinates": [ 136.145520199999964, 35.9385881 ] } },
{ "type": "Feature", "properties": { "内容": "ことぶき荘デイサービスセンター【通所介護】福井県鯖江市大野町3-1", "url": "https://www.kaigokensaku.mhlw.go.jp/18/index.php?action_kouhyou_detail_004_kani=true&JigyosyoCd=1870700067-00&ServiceCd=150&Type=search", "url2": "http://www.touyoukai.or.jp" }, "geometry": { "type": "Point", "coordinates": [ 136.2283956, 35.978076300000019 ] } },
{ "type": "Feature", "properties": { "内容": "OneHeartリハビリの家【通所介護】福井県鯖江市川島町１９−１４", "url": "https://www.kaigokensaku.mhlw.go.jp/18/index.php?action_kouhyou_detail_004_kani=true&JigyosyoCd=1870700521-00&ServiceCd=150&Type=search", "url2": null }, "geometry": { "type": "Point", "coordinates": [ 136.228830401188702, 35.946759571500856 ] } },
{ "type": "Feature", "properties": { "内容": "デイサービスセンターいろり【通所介護】鯖江市鳥羽３丁目１－２９", "url": "https://www.kaigokensaku.mhlw.go.jp/18/index.php?action_kouhyou_detail_004_kani=true&JigyosyoCd=1870700182-00&ServiceCd=150&Type=search", "url2": "http://www.wakatake.ne.jp" }, "geometry": { "type": "Point", "coordinates": [ 136.185628400000041, 35.9845074 ] } },
{ "type": "Feature", "properties": { "内容": "憩の里デイサービスセンター【通所介護】鯖江市中野町12-8-1", "url": "https://www.kaigokensaku.mhlw.go.jp/18/index.php?action_kouhyou_detail_004_kani=true&JigyosyoCd=1870700208-00&ServiceCd=150&Type=search", "url2": "http://saito-hospital.org/" }, "geometry": { "type": "Point", "coordinates": [ 136.207310600000028, 35.9459499 ] } },
{ "type": "Feature", "properties": { "内容": "丹南デイサービスセンター【通所介護】福井県鯖江市持明寺町１４－１４－１", "url": "https://www.kaigokensaku.mhlw.go.jp/18/index.php?action_kouhyou_detail_004_kani=true&JigyosyoCd=1870700083-00&ServiceCd=150&Type=search", "url2": "https://fujinosato.or.jp" }, "geometry": { "type": "Point", "coordinates": [ 136.1447693, 35.9635234 ] } },
{ "type": "Feature", "properties": { "内容": "ツクイ福井さばえ【通所介護】鯖江市三六町1-6-2", "url": "https://www.kaigokensaku.mhlw.go.jp/18/index.php?action_kouhyou_detail_004_kani=true&JigyosyoCd=1870700232-00&ServiceCd=150&Type=search", "url2": "https://www.tsukui.net/home-care/2322/" }, "geometry": { "type": "Point", "coordinates": [ 136.180482130688461, 35.971795200000024 ] } },
{ "type": "Feature", "properties": { "内容": "ニチイケアセンターたちまち【通所介護】吉江町303", "url": "https://www.kaigokensaku.mhlw.go.jp/18/index.php?action_kouhyou_detail_004_kani=true&JigyosyoCd=1870700364-00&ServiceCd=150&Type=search", "url2": "http://www.nichiigakkan.co.jp" }, "geometry": { "type": "Point", "coordinates": [ 136.176179199999979, 35.9851405 ] } },
{ "type": "Feature", "properties": { "内容": "エレガントセニールガーデン【通所介護】福井県鯖江市吉江町３１－７－１", "url": "https://www.kaigokensaku.mhlw.go.jp/18/index.php?action_kouhyou_detail_004_kani=true&JigyosyoCd=1870700166-00&ServiceCd=150&Type=search", "url2": null }, "geometry": { "type": "Point", "coordinates": [ 136.168302, 35.986754 ] } },
{ "type": "Feature", "properties": { "内容": "社会福祉法人　鯖江市社会福祉協議会デイサービスセンター【通所介護】福井県鯖江市水落町2丁目30番1号アイアイ鯖江健康福祉センター", "url": "https://www.kaigokensaku.mhlw.go.jp/18/index.php?action_kouhyou_detail_004_kani=true&JigyosyoCd=1870700042-00&ServiceCd=150&Type=search", "url2": "http://www.sabae-shakyo.or.jp" }, "geometry": { "type": "Point", "coordinates": [ 136.187818200000038, 35.9617386 ] } },
{ "type": "Feature", "properties": { "内容": "デイサービスセンターなかま【通所介護】鯖江市神明町5丁目5番37号", "url": "https://www.kaigokensaku.mhlw.go.jp/18/index.php?action_kouhyou_detail_004_kani=true&JigyosyoCd=1870700174-00&ServiceCd=150&Type=search", "url2": "http://www.sabae-shakyo.or.jp" }, "geometry": { "type": "Point", "coordinates": [ 136.18611565945514, 35.981388910558451 ] } },
{ "type": "Feature", "properties": { "内容": "おしどり荘デイサービスセンター【通所介護】福井県鯖江市別司町41-30", "url": "https://www.kaigokensaku.mhlw.go.jp/18/index.php?action_kouhyou_detail_004_kani=true&JigyosyoCd=1870700299-00&ServiceCd=150&Type=search", "url2": "http://www.touyoukai.or.jp" }, "geometry": { "type": "Point", "coordinates": [ 136.260332400000038, 35.947612 ] } },
{ "type": "Feature", "properties": { "内容": "アミューズメントリゾート　ドリームデイサービス【通所介護】福井県鯖江市東鯖江二丁目9番16号", "url": "https://www.kaigokensaku.mhlw.go.jp/18/index.php?action_kouhyou_detail_004_kani=true&JigyosyoCd=1870700430-00&ServiceCd=150&Type=search", "url2": "dream-create.wixsite.com/dreamcreate" }, "geometry": { "type": "Point", "coordinates": [ 136.196312, 35.9482659 ] } },
{ "type": "Feature", "properties": { "内容": "デイサービスセンターわらく【通所介護】住吉町２丁目16-12", "url": "https://www.kaigokensaku.mhlw.go.jp/18/index.php?action_kouhyou_detail_004_kani=true&JigyosyoCd=1870700471-00&ServiceCd=150&Type=search", "url2": "https://s-a-care.co.jp" }, "geometry": { "type": "Point", "coordinates": [ 136.180491699999948, 35.9400444 ] } },
{ "type": "Feature", "properties": { "内容": "坂井地区医師会デイサービスセンター【通所介護】福井県あわら市東善寺5-27", "url": "https://www.kaigokensaku.mhlw.go.jp/18/index.php?action_kouhyou_detail_004_kani=true&JigyosyoCd=1860890019-00&ServiceCd=150&Type=search", "url2": "https://www.sakaichiku-med.com/" }, "geometry": { "type": "Point", "coordinates": [ 136.218323599999962, 36.2111778 ] } },
{ "type": "Feature", "properties": { "内容": "リハビリスタジオなるざの森【通所介護】二面2－301", "url": "https://www.kaigokensaku.mhlw.go.jp/18/index.php?action_kouhyou_detail_004_kani=true&JigyosyoCd=1870800255-00&ServiceCd=150&Type=search", "url2": "http://www.naruza.jp" }, "geometry": { "type": "Point", "coordinates": [ 136.200472, 36.227275300000017 ] } },
{ "type": "Feature", "properties": { "内容": "デイサービスうたね【通所介護】福井県あわら市北潟276-123", "url": "https://www.kaigokensaku.mhlw.go.jp/18/index.php?action_kouhyou_detail_004_kani=true&JigyosyoCd=1870800313-00&ServiceCd=150&Type=search", "url2": "https://utane-kaigo.com" }, "geometry": { "type": "Point", "coordinates": [ 136.2251379, 36.2729625 ] } },
{ "type": "Feature", "properties": { "内容": "ウエルネス木村【通所介護】福井県あわら市自由ヶ丘２－１５－２３", "url": "https://www.kaigokensaku.mhlw.go.jp/18/index.php?action_kouhyou_detail_004_kani=true&JigyosyoCd=1870800123-00&ServiceCd=150&Type=search", "url2": "http://www.s-fukushi.or.jp/wellness/" }, "geometry": { "type": "Point", "coordinates": [ 136.235882800000013, 36.2182995 ] } },
{ "type": "Feature", "properties": { "内容": "みんなの家大溝【通所介護】大溝3丁目4番32号みんなの家大溝", "url": "https://www.kaigokensaku.mhlw.go.jp/18/index.php?action_kouhyou_detail_004_kani=true&JigyosyoCd=1870800271-00&ServiceCd=150&Type=search", "url2": null }, "geometry": { "type": "Point", "coordinates": [ 136.22182620000001, 36.2086671 ] } },
{ "type": "Feature", "properties": { "内容": "芦原メロン苑デイサービスセンター【通所介護】あわら市井江葭５０－１８", "url": "https://www.kaigokensaku.mhlw.go.jp/18/index.php?action_kouhyou_detail_004_kani=true&JigyosyoCd=1870800016-00&ServiceCd=150&Type=search", "url2": "http://www.meron-en.or.jp/" }, "geometry": { "type": "Point", "coordinates": [ 136.218481, 36.2403604 ] } },
{ "type": "Feature", "properties": { "内容": "総合支援センターわかたけ【通所介護】越前市西谷町33-10-2", "url": "https://www.kaigokensaku.mhlw.go.jp/18/index.php?action_kouhyou_detail_004_kani=true&JigyosyoCd=1870300389-00&ServiceCd=150&Type=search", "url2": null }, "geometry": { "type": "Point", "coordinates": [ 136.189898200000016, 35.8779884 ] } },
{ "type": "Feature", "properties": { "内容": "レッツデイサービス横根【通所介護】福井県越前市横根町12-4-1", "url": "https://www.kaigokensaku.mhlw.go.jp/18/index.php?action_kouhyou_detail_004_kani=true&JigyosyoCd=1870300967-00&ServiceCd=150&Type=search", "url2": "http://lifemore.ne.jp/" }, "geometry": { "type": "Point", "coordinates": [ 136.134569461901833, 35.909041129669923 ] } },
{ "type": "Feature", "properties": { "内容": "えっほ　わかたけ【通所介護】福井県越前市堀川町9番15号フォーユーエクセルわかたけ", "url": "https://www.kaigokensaku.mhlw.go.jp/18/index.php?action_kouhyou_detail_004_kani=true&JigyosyoCd=1870300611-00&ServiceCd=150&Type=search", "url2": null }, "geometry": { "type": "Point", "coordinates": [ 136.171160500000042, 35.8984992 ] } },
{ "type": "Feature", "properties": { "内容": "さんらいふりはすてーしょん【通所介護】常久町7-1-1", "url": "https://www.kaigokensaku.mhlw.go.jp/18/index.php?action_kouhyou_detail_004_kani=true&JigyosyoCd=1870301106-00&ServiceCd=150&Type=search", "url2": "http://sunlifeonodani.jp/" }, "geometry": { "type": "Point", "coordinates": [ 136.164700357672132, 35.88858545235982 ] } },
{ "type": "Feature", "properties": { "内容": "さくら倶楽部【通所介護】横市町4-5", "url": "https://www.kaigokensaku.mhlw.go.jp/18/index.php?action_kouhyou_detail_004_kani=true&JigyosyoCd=1870300793-00&ServiceCd=150&Type=search", "url2": "http://hp.kaipoke.biz/88d/index.html" }, "geometry": { "type": "Point", "coordinates": [ 136.190494400000034, 35.9117177 ] } },
{ "type": "Feature", "properties": { "内容": "デイサービスセンター第２和上苑【通所介護】福井県越前市白崎町第34号2番地1", "url": "https://www.kaigokensaku.mhlw.go.jp/18/index.php?action_kouhyou_detail_004_kani=true&JigyosyoCd=1870300124-00&ServiceCd=150&Type=search", "url2": "http://www.wakatake.ne.jp" }, "geometry": { "type": "Point", "coordinates": [ 136.145103, 35.8644917 ] } },
{ "type": "Feature", "properties": { "内容": "デイサービスセンター和上苑【通所介護】福井県越前市高木町12-7-1デイサービスセンター和上苑", "url": "https://www.kaigokensaku.mhlw.go.jp/18/index.php?action_kouhyou_detail_004_kani=true&JigyosyoCd=1870300728-00&ServiceCd=150&Type=search", "url2": "http://www.wakatake.ne.jp/" }, "geometry": { "type": "Point", "coordinates": [ 136.190493899999979, 35.9282074 ] } },
{ "type": "Feature", "properties": { "内容": "デイサービス　パワーリハビリ　アイ【通所介護】福井県越前市本多１丁目12-3", "url": "https://www.kaigokensaku.mhlw.go.jp/18/index.php?action_kouhyou_detail_004_kani=true&JigyosyoCd=1870300348-00&ServiceCd=150&Type=search", "url2": "http://www.tsukioka-med.com" }, "geometry": { "type": "Point", "coordinates": [ 136.163063800000032, 35.9061564 ] } },
{ "type": "Feature", "properties": { "内容": "しくらデイ明日花【通所介護】越前市千福町３２８", "url": "https://www.kaigokensaku.mhlw.go.jp/18/index.php?action_kouhyou_detail_004_kani=true&JigyosyoCd=1870300371-00&ServiceCd=150&Type=search", "url2": "http://www.ikebata.jp/shikuraasuka.html" }, "geometry": { "type": "Point", "coordinates": [ 136.156553799999983, 35.8880223 ] } },
{ "type": "Feature", "properties": { "内容": "県民せいきょう丹南きらめきデイサービス【通所介護】福井県越前市家久町49字", "url": "https://www.kaigokensaku.mhlw.go.jp/18/index.php?action_kouhyou_detail_004_kani=true&JigyosyoCd=1870300421-00&ServiceCd=150&Type=search", "url2": "http://www.fukui.coop/" }, "geometry": { "type": "Point", "coordinates": [ 136.166609900000026, 35.9317646 ] } },
{ "type": "Feature", "properties": { "内容": "デイサービスセンターメゾンいまだて【通所介護】福井県越前市東樫尾町８番３８号", "url": "https://www.kaigokensaku.mhlw.go.jp/18/index.php?action_kouhyou_detail_004_kani=true&JigyosyoCd=1870300439-00&ServiceCd=150&Type=search", "url2": "http://www.mezon-f.com/" }, "geometry": { "type": "Point", "coordinates": [ 136.282945199999972, 35.9382156 ] } },
{ "type": "Feature", "properties": { "内容": "越前市社会福祉協議会デイサービスセンターいまだて【通所介護】福井県越前市杉尾町第1号27番地1越前市社会福祉センター内", "url": "https://www.kaigokensaku.mhlw.go.jp/18/index.php?action_kouhyou_detail_004_kani=true&JigyosyoCd=1870300504-00&ServiceCd=150&Type=search", "url2": "http://echizen-shakyo.or.jp/" }, "geometry": { "type": "Point", "coordinates": [ 136.252471448410034, 35.920314270323793 ] } },
{ "type": "Feature", "properties": { "内容": "越前市社会福祉協議会デイサービスセンター芦山【通所介護】福井県越前市矢船町第8号12番地1", "url": "https://www.kaigokensaku.mhlw.go.jp/18/index.php?action_kouhyou_detail_004_kani=true&JigyosyoCd=1870300512-00&ServiceCd=150&Type=search", "url2": null }, "geometry": { "type": "Point", "coordinates": [ 136.177232499999946, 35.8878535 ] } },
{ "type": "Feature", "properties": { "内容": "リハフィットほっとチャレンジ越前【通所介護】福井県越前市高木町55－11－18", "url": "https://www.kaigokensaku.mhlw.go.jp/18/index.php?action_kouhyou_detail_004_kani=true&JigyosyoCd=1870300595-00&ServiceCd=150&Type=search", "url2": "http://www.hotreha.com" }, "geometry": { "type": "Point", "coordinates": [ 136.192093900000032, 35.9190196 ] } },
{ "type": "Feature", "properties": { "内容": "ケアフルハウスデイサービス【通所介護】越前市広瀬町１５３－１２－２", "url": "https://www.kaigokensaku.mhlw.go.jp/18/index.php?action_kouhyou_detail_004_kani=true&JigyosyoCd=1870300678-00&ServiceCd=150&Type=search", "url2": "http://carefull.co.jp/" }, "geometry": { "type": "Point", "coordinates": [ 136.146704900000032, 35.8895608 ] } },
{ "type": "Feature", "properties": { "内容": "いきいきデイサービス【通所介護】福井県越前市高瀬2丁目4-22", "url": "https://www.kaigokensaku.mhlw.go.jp/18/index.php?action_kouhyou_detail_004_kani=true&JigyosyoCd=1870301023-00&ServiceCd=150&Type=search", "url2": "https://ikiiki.website" }, "geometry": { "type": "Point", "coordinates": [ 136.160889, 35.89926 ] } },
{ "type": "Feature", "properties": { "内容": "ほっと地域リハビリセンター【通所介護】福井県越前市高木町55-11-15", "url": "https://www.kaigokensaku.mhlw.go.jp/18/index.php?action_kouhyou_detail_004_kani=true&JigyosyoCd=1870300264-00&ServiceCd=150&Type=search", "url2": "http://www.hotreha.com" }, "geometry": { "type": "Point", "coordinates": [ 136.191767922753911, 35.918986519947346 ] } },
{ "type": "Feature", "properties": { "内容": "ニチイケアセンター武生【通所介護】越前市国高1-16-16", "url": "https://www.kaigokensaku.mhlw.go.jp/18/index.php?action_kouhyou_detail_004_kani=true&JigyosyoCd=1870300066-00&ServiceCd=150&Type=search", "url2": "http://www.nichiigakkan.co.jp/" }, "geometry": { "type": "Point", "coordinates": [ 136.186622599999964, 35.911176 ] } },
{ "type": "Feature", "properties": { "内容": "デイサービスセンターわかたけ【通所介護】福井県越前市堀川町9-15フォーユーエクセルわかたけ1階テナントI", "url": "https://www.kaigokensaku.mhlw.go.jp/18/index.php?action_kouhyou_detail_004_kani=true&JigyosyoCd=1870300785-00&ServiceCd=150&Type=search", "url2": "http://www.wakatake.ne.jp/" }, "geometry": { "type": "Point", "coordinates": [ 136.171192, 35.8983916 ] } },
{ "type": "Feature", "properties": { "内容": "デイ・フィットネス　楽らく　越前南店【通所介護】福井県越前市東千福町10-19", "url": "https://www.kaigokensaku.mhlw.go.jp/18/index.php?action_kouhyou_detail_004_kani=true&JigyosyoCd=1870301049-00&ServiceCd=150&Type=search", "url2": "https://www.df-rakuraku.com/" }, "geometry": { "type": "Point", "coordinates": [ 136.1597956, 35.8910908 ] } },
{ "type": "Feature", "properties": { "内容": "いちばん介護ディサービスセンター【通所介護】越前市瓜生町３１－１", "url": "https://www.kaigokensaku.mhlw.go.jp/18/index.php?action_kouhyou_detail_004_kani=true&JigyosyoCd=1870300231-00&ServiceCd=150&Type=search", "url2": "http://ichibankaigo.jp/" }, "geometry": { "type": "Point", "coordinates": [ 136.182864399999971, 35.9189194 ] } },
{ "type": "Feature", "properties": { "内容": "運動型デイサービス　アクティ【通所介護】春江町中筋100-75", "url": "https://www.kaigokensaku.mhlw.go.jp/18/index.php?action_kouhyou_detail_004_kani=true&JigyosyoCd=1871701163-00&ServiceCd=150&Type=search", "url2": null }, "geometry": { "type": "Point", "coordinates": [ 136.23622279999995, 36.1273855 ] } },
{ "type": "Feature", "properties": { "内容": "豊楽園デイサービスセンター【通所介護】福井県坂井市坂井町下関42-2", "url": "https://www.kaigokensaku.mhlw.go.jp/18/index.php?action_kouhyou_detail_004_kani=true&JigyosyoCd=1871700090-00&ServiceCd=150&Type=search", "url2": "https://s-fukushi.or.jp/hourakuen/" }, "geometry": { "type": "Point", "coordinates": [ 136.227961450787348, 36.190859858221593 ] } },
{ "type": "Feature", "properties": { "内容": "ガーデンハイツ春江　デイサービスセンター【通所介護】福井県坂井市春江町針原48-28-1", "url": "https://www.kaigokensaku.mhlw.go.jp/18/index.php?action_kouhyou_detail_004_kani=true&JigyosyoCd=1871700108-00&ServiceCd=150&Type=search", "url2": "http://fj-g.jp/" }, "geometry": { "type": "Point", "coordinates": [ 136.207384100000013, 36.1286039 ] } },
{ "type": "Feature", "properties": { "内容": "ＪＡ福井県デイサ－ビスセンタ－こもれびの郷【通所介護】福井県坂井市春江町本堂２３－２１", "url": "https://www.kaigokensaku.mhlw.go.jp/18/index.php?action_kouhyou_detail_004_kani=true&JigyosyoCd=1871700348-00&ServiceCd=150&Type=search", "url2": "http://www.ja-fukuiken.or.jp" }, "geometry": { "type": "Point", "coordinates": [ 136.20405930000004, 36.1341894 ] } },
{ "type": "Feature", "properties": { "内容": "デイハウスいってこさ【通所介護】福井県坂井市三国町殿島5-23", "url": "https://www.kaigokensaku.mhlw.go.jp/18/index.php?action_kouhyou_detail_004_kani=true&JigyosyoCd=1871700355-00&ServiceCd=150&Type=search", "url2": null }, "geometry": { "type": "Point", "coordinates": [ 136.152074099999936, 36.2059849 ] } },
{ "type": "Feature", "properties": { "内容": "JA福井県デイサービスセンターはなさき【通所介護】福井県坂井市丸岡町一本田33-14", "url": "https://www.kaigokensaku.mhlw.go.jp/18/index.php?action_kouhyou_detail_004_kani=true&JigyosyoCd=1871700389-00&ServiceCd=150&Type=search", "url2": "http://www.ja-fukuiken.or.jp" }, "geometry": { "type": "Point", "coordinates": [ 136.265530099999978, 36.1476591 ] } },
{ "type": "Feature", "properties": { "内容": "さかいディサービスセンター【通所介護】福井県坂井市坂井町折戸第１号５８番地", "url": "https://www.kaigokensaku.mhlw.go.jp/18/index.php?action_kouhyou_detail_004_kani=true&JigyosyoCd=1871700405-00&ServiceCd=150&Type=search", "url2": "https://sakaicare.com/" }, "geometry": { "type": "Point", "coordinates": [ 136.170241199999964, 36.1713585 ] } },
{ "type": "Feature", "properties": { "内容": "まるおかデイサービスセンター【通所介護】福井県坂井市丸岡町八ヶ郷第23号19番地3", "url": "https://www.kaigokensaku.mhlw.go.jp/18/index.php?action_kouhyou_detail_004_kani=true&JigyosyoCd=1871700421-00&ServiceCd=150&Type=search", "url2": "http://www.life-sp.jp" }, "geometry": { "type": "Point", "coordinates": [ 136.279836599999953, 36.1553225 ] } },
{ "type": "Feature", "properties": { "内容": "長寿園デイサービスセンター　りらく【通所介護】福井県坂井市丸岡町西瓜屋６－１７", "url": "https://www.kaigokensaku.mhlw.go.jp/18/index.php?action_kouhyou_detail_004_kani=true&JigyosyoCd=1871700470-00&ServiceCd=150&Type=search", "url2": "http://www.choujuen.net" }, "geometry": { "type": "Point", "coordinates": [ 136.26980432274857, 36.146371106389367 ] } },
{ "type": "Feature", "properties": { "内容": "坂井市社会福祉協議会　霞の郷デイサービスセンター【通所介護】福井県坂井市丸岡町八ケ郷２１－７－１", "url": "https://www.kaigokensaku.mhlw.go.jp/18/index.php?action_kouhyou_detail_004_kani=true&JigyosyoCd=1871700587-00&ServiceCd=150&Type=search", "url2": "http://www.sakaicityshakyo.jp/" }, "geometry": { "type": "Point", "coordinates": [ 136.283320920901474, 36.160213225583405 ] } },
{ "type": "Feature", "properties": { "内容": "デイサービス　リハビリセンター　木の花【通所介護】坂井市坂井町下新庄１８－１５－１", "url": "https://www.kaigokensaku.mhlw.go.jp/18/index.php?action_kouhyou_detail_004_kani=true&JigyosyoCd=1871700637-00&ServiceCd=150&Type=search", "url2": "http://tomorrows-reha.com/" }, "geometry": { "type": "Point", "coordinates": [ 136.225009919608681, 36.16697303527841 ] } },
{ "type": "Feature", "properties": { "内容": "機能訓練特化型　長寿園デイサービスセンターりーふ【通所介護】福井県坂井市丸岡町谷町2丁目32番地機能訓練特化型　長寿園デイサービスセンターりーふ", "url": "https://www.kaigokensaku.mhlw.go.jp/18/index.php?action_kouhyou_detail_004_kani=true&JigyosyoCd=1871701239-00&ServiceCd=150&Type=search", "url2": "http://www.choujuen.com" }, "geometry": { "type": "Point", "coordinates": [ 136.269953, 36.1482306 ] } },
{ "type": "Feature", "properties": { "内容": "県民せいきょう坂井きらめきデイサービス【通所介護】坂井市坂井町大味56号", "url": "https://www.kaigokensaku.mhlw.go.jp/18/index.php?action_kouhyou_detail_004_kani=true&JigyosyoCd=1871700785-00&ServiceCd=150&Type=search", "url2": "https://www.fukui.coop/care/shisetsu/sakai-kirameki/" }, "geometry": { "type": "Point", "coordinates": [ 136.19542227790987, 36.184961570296274 ] } },
{ "type": "Feature", "properties": { "内容": "デイサービス　山のいえ　笑楽日【通所介護】坂井市丸岡町山口５９－１３", "url": "https://www.kaigokensaku.mhlw.go.jp/18/index.php?action_kouhyou_detail_004_kani=true&JigyosyoCd=1871700843-00&ServiceCd=150&Type=search", "url2": "http://day-warabi.com/" }, "geometry": { "type": "Point", "coordinates": [ 136.331717308598286, 36.160647579098274 ] } },
{ "type": "Feature", "properties": { "内容": "アプトケア・三国【通所介護】福井県坂井市三国町三国東2丁目9-23", "url": "https://www.kaigokensaku.mhlw.go.jp/18/index.php?action_kouhyou_detail_004_kani=true&JigyosyoCd=1871700744-00&ServiceCd=150&Type=search", "url2": "http://aptcare.jp" }, "geometry": { "type": "Point", "coordinates": [ 136.161245199999939, 36.2122123 ] } },
{ "type": "Feature", "properties": { "内容": "トゥモローズ　ホームリハビリセンター坂井【通所介護】福井県坂井市坂井町下新庄１８－１６－１", "url": "https://www.kaigokensaku.mhlw.go.jp/18/index.php?action_kouhyou_detail_004_kani=true&JigyosyoCd=1871701148-00&ServiceCd=150&Type=search", "url2": "http://tomorrows-reha.com/" }, "geometry": { "type": "Point", "coordinates": [ 136.224935599999981, 36.16705 ] } },
{ "type": "Feature", "properties": { "内容": "デイサービスセンターあじさい園【通所介護】福井県坂井市三国町梶49-18", "url": "https://www.kaigokensaku.mhlw.go.jp/18/index.php?action_kouhyou_detail_004_kani=true&JigyosyoCd=1871700132-00&ServiceCd=150&Type=search", "url2": "http://www.hakurakuso.com/" }, "geometry": { "type": "Point", "coordinates": [ 136.155436444180282, 36.246343079724632 ] } },
{ "type": "Feature", "properties": { "内容": "長寿園デイサービスセンターりんどう【通所介護】福井県坂井市丸岡町里丸岡3丁目7番", "url": "https://www.kaigokensaku.mhlw.go.jp/18/index.php?action_kouhyou_detail_004_kani=true&JigyosyoCd=1871701072-00&ServiceCd=150&Type=search", "url2": "http://www.choujuen.net" }, "geometry": { "type": "Point", "coordinates": [ 136.276684599999953, 36.1431238 ] } },
{ "type": "Feature", "properties": { "内容": "デイサービスセンター　カルミア春江【通所介護】福井県坂井市春江町江留下屋敷54-1", "url": "https://www.kaigokensaku.mhlw.go.jp/18/index.php?action_kouhyou_detail_004_kani=true&JigyosyoCd=1871701106-00&ServiceCd=150&Type=search", "url2": "http://www.harue-hp.org/" }, "geometry": { "type": "Point", "coordinates": [ 136.2219129, 36.1279599 ] } },
{ "type": "Feature", "properties": { "内容": "デイフィットネス楽らく春江店【通所介護】春江町江留上錦63", "url": "https://www.kaigokensaku.mhlw.go.jp/18/index.php?action_kouhyou_detail_004_kani=true&JigyosyoCd=1871701205-00&ServiceCd=150&Type=search", "url2": "http://www.df-rakuraku.com" }, "geometry": { "type": "Point", "coordinates": [ 136.217991899999987, 36.1219858 ] } },
{ "type": "Feature", "properties": { "内容": "理学療法士のデイサービス　PEP【通所介護】福井県坂井市丸岡町霞町4-40-1", "url": "https://www.kaigokensaku.mhlw.go.jp/18/index.php?action_kouhyou_detail_004_kani=true&JigyosyoCd=1871701197-00&ServiceCd=150&Type=search", "url2": null }, "geometry": { "type": "Point", "coordinates": [ 136.275545099999988, 36.152578 ] } },
{ "type": "Feature", "properties": { "内容": "リハビリデイサービスあすなろ【通所介護】福井県坂井市三国町覚善8-65-1", "url": "https://www.kaigokensaku.mhlw.go.jp/18/index.php?action_kouhyou_detail_004_kani=true&JigyosyoCd=1871700991-00&ServiceCd=150&Type=search", "url2": null }, "geometry": { "type": "Point", "coordinates": [ 136.158293143516488, 36.220631710146677 ] } },
{ "type": "Feature", "properties": { "内容": "デイサービス　リハビリ施設陽和縁【通所介護】福井県坂井市春江町西長田40-46デイサービスリハビリ施設陽和縁", "url": "https://www.kaigokensaku.mhlw.go.jp/18/index.php?action_kouhyou_detail_004_kani=true&JigyosyoCd=1871701015-00&ServiceCd=150&Type=search", "url2": "http://heart2-caring.co.jp/" }, "geometry": { "type": "Point", "coordinates": [ 136.201305670363723, 36.156966721927006 ] } },
{ "type": "Feature", "properties": { "内容": "ゆりデイサービスセンター【通所介護】福井県坂井市春江町本堂２７－１－１", "url": "https://www.kaigokensaku.mhlw.go.jp/18/index.php?action_kouhyou_detail_004_kani=true&JigyosyoCd=1871700835-00&ServiceCd=150&Type=search", "url2": null }, "geometry": { "type": "Point", "coordinates": [ 136.203934099999969, 36.138805499999989 ] } },
{ "type": "Feature", "properties": { "内容": "デイサービスセンターさかい生喜庵【通所介護】福井県坂井市坂井町上新庄第４０号５９番地", "url": "https://www.kaigokensaku.mhlw.go.jp/18/index.php?action_kouhyou_detail_004_kani=true&JigyosyoCd=1871700694-00&ServiceCd=150&Type=search", "url2": null }, "geometry": { "type": "Point", "coordinates": [ 136.230363099999977, 36.1633256 ] } },
{ "type": "Feature", "properties": { "内容": "セラケア　リハビリ・入浴専門デイサービス【通所介護】20-3-4", "url": "https://www.kaigokensaku.mhlw.go.jp/18/index.php?action_kouhyou_detail_004_kani=true&JigyosyoCd=1871701247-00&ServiceCd=150&Type=search", "url2": "https://ceralabo-ltd.com/" }, "geometry": { "type": "Point", "coordinates": [ 100.5649617, 13.8044976 ] } },
{ "type": "Feature", "properties": { "内容": "永平寺デイサービスセンター【通所介護】福井県吉田郡永平寺町飯島6号34番地", "url": "https://www.kaigokensaku.mhlw.go.jp/18/index.php?action_kouhyou_detail_004_kani=true&JigyosyoCd=1871600183-00&ServiceCd=150&Type=search", "url2": "http://www.eiheijishakyo.jp" }, "geometry": { "type": "Point", "coordinates": [ 136.356621200000063, 36.0898437 ] } },
{ "type": "Feature", "properties": { "内容": "松岡デイサービスセンター【通所介護】福井県吉田郡永平寺町松岡吉野堺15-47", "url": "https://www.kaigokensaku.mhlw.go.jp/18/index.php?action_kouhyou_detail_004_kani=true&JigyosyoCd=1871600191-00&ServiceCd=150&Type=search", "url2": "http://www.eiheijishakyo.jp/" }, "geometry": { "type": "Point", "coordinates": [ 136.297068, 36.0873068 ] } },
{ "type": "Feature", "properties": { "内容": "上志比デイサービスセンター【通所介護】福井県吉田郡永平寺町石上27-27", "url": "https://www.kaigokensaku.mhlw.go.jp/18/index.php?action_kouhyou_detail_004_kani=true&JigyosyoCd=1871600209-00&ServiceCd=150&Type=search", "url2": "http://www.eiheijishakyo.jp" }, "geometry": { "type": "Point", "coordinates": [ 136.4008159, 36.072172199999983 ] } },
{ "type": "Feature", "properties": { "内容": "永平寺ハウスデイサービスセンター【通所介護】吉田郡永平寺町けやき台８１３－１", "url": "https://www.kaigokensaku.mhlw.go.jp/18/index.php?action_kouhyou_detail_004_kani=true&JigyosyoCd=1871600050-00&ServiceCd=150&Type=search", "url2": "https://www.fukusenkai.jp/eiheiji" }, "geometry": { "type": "Point", "coordinates": [ 136.317498600000022, 36.0768645 ] } },
{ "type": "Feature", "properties": { "内容": "デイサービス・リハビリサポートセンター　木漏れ日ハウス【通所介護】福井県吉田郡永平寺町山王7-28", "url": "https://www.kaigokensaku.mhlw.go.jp/18/index.php?action_kouhyou_detail_004_kani=true&JigyosyoCd=1871600290-00&ServiceCd=150&Type=search", "url2": "http://www.hikarigroup.jp/komorebi/" }, "geometry": { "type": "Point", "coordinates": [ 136.397801800000025, 36.0795601 ] } },
{ "type": "Feature", "properties": { "内容": "ほっとプラザデイサービスセンター【通所介護】福井県今立郡池田町薮田第５号３番地の１総合保健福祉センター　　ほっとプラザ", "url": "https://www.kaigokensaku.mhlw.go.jp/18/index.php?action_kouhyou_detail_004_kani=true&JigyosyoCd=1871800122-00&ServiceCd=150&Type=search", "url2": "http://www.shakyo.or.jp/hp/827/" }, "geometry": { "type": "Point", "coordinates": [ 136.345706699999937, 35.8957354 ] } },
{ "type": "Feature", "properties": { "内容": "デイサービス　神久ファミリー【通所介護】福井県南条郡南越前町今庄115-3-3", "url": "https://www.kaigokensaku.mhlw.go.jp/18/index.php?action_kouhyou_detail_004_kani=true&JigyosyoCd=1871900120-00&ServiceCd=150&Type=search", "url2": "https://r.goope.jp/kamikyu" }, "geometry": { "type": "Point", "coordinates": [ 136.201679201852357, 35.766097538402619 ] } },
{ "type": "Feature", "properties": { "内容": "越前町宮崎デイサービスセンター「ホタル荘」【通所介護】福井県丹生郡越前町八田5-51-1", "url": "https://www.kaigokensaku.mhlw.go.jp/18/index.php?action_kouhyou_detail_004_kani=true&JigyosyoCd=1872000383-00&ServiceCd=150&Type=search", "url2": "http://wwｗ.e-shakyo.or.jp/" }, "geometry": { "type": "Point", "coordinates": [ 136.112457599999971, 35.925672 ] } },
{ "type": "Feature", "properties": { "内容": "さくらデイサービス【通所介護】福井県丹生郡越前町内郡５-柳町-６８", "url": "https://www.kaigokensaku.mhlw.go.jp/18/index.php?action_kouhyou_detail_004_kani=true&JigyosyoCd=1872000508-00&ServiceCd=150&Type=search", "url2": "https://d-sakura.net/" }, "geometry": { "type": "Point", "coordinates": [ 136.12974250000002, 35.974208 ] } },
{ "type": "Feature", "properties": { "内容": "指定通所介護事業所　デイサービスセンターさざんかホール【通所介護】福井県丹生郡越前町朝日22字7－1", "url": "https://www.kaigokensaku.mhlw.go.jp/18/index.php?action_kouhyou_detail_004_kani=true&JigyosyoCd=1872000524-00&ServiceCd=150&Type=search", "url2": "http://www.kodoen.or.jp" }, "geometry": { "type": "Point", "coordinates": [ 136.119688, 35.9709529 ] } },
{ "type": "Feature", "properties": { "内容": "デイサービスセンター　ひまわり【通所介護】福井県丹生郡越前町四ツ杉3-10", "url": "https://www.kaigokensaku.mhlw.go.jp/18/index.php?action_kouhyou_detail_004_kani=true&JigyosyoCd=1872000565-00&ServiceCd=150&Type=search", "url2": "https://www.sekishin-himawari.or.jp/index.html" }, "geometry": { "type": "Point", "coordinates": [ 136.0355446, 35.9607264 ] } },
{ "type": "Feature", "properties": { "内容": "海楽園デイサービスセンター【通所介護】丹生郡越前町米ノ46-1-1", "url": "https://www.kaigokensaku.mhlw.go.jp/18/index.php?action_kouhyou_detail_004_kani=true&JigyosyoCd=1872000052-00&ServiceCd=150&Type=search", "url2": "http://echizen-kairakuen.jp/" }, "geometry": { "type": "Point", "coordinates": [ 135.995867099999941, 35.8918781 ] } },
{ "type": "Feature", "properties": { "内容": "越前町朝日デイサービスセンター「朝寿苑」【通所介護】福井県丹生郡越前町西田中8-20-22", "url": "https://www.kaigokensaku.mhlw.go.jp/18/index.php?action_kouhyou_detail_004_kani=true&JigyosyoCd=1872000441-00&ServiceCd=150&Type=search", "url2": "http://www.e-shakyo.or.jp/" }, "geometry": { "type": "Point", "coordinates": [ 136.1280203, 35.9767382 ] } },
{ "type": "Feature", "properties": { "内容": "越前町織田デイサービスセンター【通所介護】福井県丹生郡越前町織田１０６－５１－１", "url": "https://www.kaigokensaku.mhlw.go.jp/18/index.php?action_kouhyou_detail_004_kani=true&JigyosyoCd=1872000466-00&ServiceCd=150&Type=search", "url2": "http://www.e-shakyo.or.jp/" }, "geometry": { "type": "Point", "coordinates": [ 136.047732200000041, 35.9573218 ] } },
{ "type": "Feature", "properties": { "内容": "越前町越前デイサービスセンター【通所介護】福井県丹生郡越前町梅浦60-15越前地域福祉センター", "url": "https://www.kaigokensaku.mhlw.go.jp/18/index.php?action_kouhyou_detail_004_kani=true&JigyosyoCd=1872000458-00&ServiceCd=150&Type=search", "url2": "https://www.e-shakyo.or.jp" }, "geometry": { "type": "Point", "coordinates": [ 135.983355500000016, 35.9528585 ] } },
{ "type": "Feature", "properties": { "内容": "美浜町デイサービスセンター【通所介護】福井県三方郡美浜町山上1-11-1", "url": "https://www.kaigokensaku.mhlw.go.jp/18/index.php?action_kouhyou_detail_004_kani=true&JigyosyoCd=1872100027-00&ServiceCd=150&Type=search", "url2": "http://www.mihamachoshakyo.com" }, "geometry": { "type": "Point", "coordinates": [ 135.982700099999988, 35.6273573 ] } },
{ "type": "Feature", "properties": { "内容": "ダブルアール　生活リハビリセンター【通所介護】大藪９－２", "url": "https://www.kaigokensaku.mhlw.go.jp/18/index.php?action_kouhyou_detail_004_kani=true&JigyosyoCd=1872100118-00&ServiceCd=150&Type=search", "url2": "http://www.rehaplus.co.jp" }, "geometry": { "type": "Point", "coordinates": [ 135.916657625794983, 35.592011564271964 ] } },
{ "type": "Feature", "properties": { "内容": "高浜町デイサービスセンター【通所介護】福井県大飯郡高浜町緑ヶ丘1－1－1", "url": "https://www.kaigokensaku.mhlw.go.jp/18/index.php?action_kouhyou_detail_004_kani=true&JigyosyoCd=1872300023-00&ServiceCd=150&Type=search", "url2": "http://takahamashakyou.sunnyday.jp/" }, "geometry": { "type": "Point", "coordinates": [ 135.508076599999981, 35.4928915 ] } },
{ "type": "Feature", "properties": { "内容": "高浜けいあいの里デイサービスセンター【通所介護】福井県大飯郡高浜町和田１６８－２２", "url": "https://www.kaigokensaku.mhlw.go.jp/18/index.php?action_kouhyou_detail_004_kani=true&JigyosyoCd=1872300106-00&ServiceCd=150&Type=search", "url2": "http://www.t-keiai.jp/" }, "geometry": { "type": "Point", "coordinates": [ 135.582520379762286, 35.487821362454483 ] } },
{ "type": "Feature", "properties": { "内容": "デイサービスセンター　グっと倶楽部【通所介護】大飯郡高浜町薗部49-3", "url": "https://www.kaigokensaku.mhlw.go.jp/18/index.php?action_kouhyou_detail_004_kani=true&JigyosyoCd=1872300122-00&ServiceCd=150&Type=search", "url2": "http://g-support-takahama.com" }, "geometry": { "type": "Point", "coordinates": [ 135.5557566, 35.4876005 ] } },
{ "type": "Feature", "properties": { "内容": "株式会社　高浜ケアサポート　デイサービスセンターであい【通所介護】福井県大飯郡高浜町青１字宮ヶ谷１号３番の１", "url": "https://www.kaigokensaku.mhlw.go.jp/18/index.php?action_kouhyou_detail_004_kani=true&JigyosyoCd=1872300155-00&ServiceCd=150&Type=search", "url2": "https://r.goope.jp/taka-care/" }, "geometry": { "type": "Point", "coordinates": [ 135.500065081972366, 35.482531822572625 ] } },
{ "type": "Feature", "properties": { "内容": "おおい町社会福祉協議会あっとほーむいきいき館指定通所介護事業所【通所介護】福井県大飯郡おおい町名田庄下第６号１番地あっとほ～むいきいき館", "url": "https://www.kaigokensaku.mhlw.go.jp/18/index.php?action_kouhyou_detail_004_kani=true&JigyosyoCd=1872300148-00&ServiceCd=150&Type=search", "url2": "http://ohi-shakyo.or.jp/" }, "geometry": { "type": "Point", "coordinates": [ 135.644034908598314, 35.40713914602766 ] } },
{ "type": "Feature", "properties": { "内容": "デイサービス　はな【通所介護】福井県大飯郡おおい町名田庄三重34-10-1", "url": "https://www.kaigokensaku.mhlw.go.jp/18/index.php?action_kouhyou_detail_004_kani=true&JigyosyoCd=1872300189-00&ServiceCd=150&Type=search", "url2": null }, "geometry": { "type": "Point", "coordinates": [ 135.682758899999953, 35.4104492 ] } },
{ "type": "Feature", "properties": { "内容": "ナイスプラザ若狭【通所介護】福井県三方上中郡若狭町下タ中１１－２７－１", "url": "https://www.kaigokensaku.mhlw.go.jp/18/index.php?action_kouhyou_detail_004_kani=true&JigyosyoCd=1872400021-00&ServiceCd=150&Type=search", "url2": null }, "geometry": { "type": "Point", "coordinates": [ 135.8755016, 35.4860719 ] } },
{ "type": "Feature", "properties": { "内容": "ニチイケアセンターわかさ【通所介護】三方上中郡若狭町北前川29号6-1", "url": "https://www.kaigokensaku.mhlw.go.jp/18/index.php?action_kouhyou_detail_004_kani=true&JigyosyoCd=1872400179-00&ServiceCd=150&Type=search", "url2": "http://www.nichiigakkan.co.jp/" }, "geometry": { "type": "Point", "coordinates": [ 135.907442800000013, 35.54868 ] } },
{ "type": "Feature", "properties": { "内容": "リリ・オキュペ【通所介護】福井県三方上中郡若狭町井崎47-2-1", "url": "https://www.kaigokensaku.mhlw.go.jp/18/index.php?action_kouhyou_detail_004_kani=true&JigyosyoCd=1872400294-00&ServiceCd=150&Type=search", "url2": "https://rerephysio.com" }, "geometry": { "type": "Point", "coordinates": [ 135.899280099999942, 35.5129834 ] } },
{ "type": "Feature", "properties": { "内容": "松寿苑デイサービスあ・うん【通所介護】福井県三方上中郡若狭町井ノ口32-6-1", "url": "https://www.kaigokensaku.mhlw.go.jp/18/index.php?action_kouhyou_detail_004_kani=true&JigyosyoCd=1872400047-00&ServiceCd=150&Type=search", "url2": "http://shojukai.jp/" }, "geometry": { "type": "Point", "coordinates": [ 135.854046672948868, 35.464295858398089 ] } },
{ "type": "Feature", "properties": { "内容": "デイサービスセンターわらく【通所介護】福井県三方上中郡若狭町有田第11号20番地の10", "url": "https://www.kaigokensaku.mhlw.go.jp/18/index.php?action_kouhyou_detail_004_kani=true&JigyosyoCd=1872400161-00&ServiceCd=150&Type=search", "url2": "http://www.s-a-care.co.jp/" }, "geometry": { "type": "Point", "coordinates": [ 135.867291, 35.4846773 ] } }
]
}
