{
"type": "FeatureCollection",
"name": "geo_18_訪問入浴介護",
"crs": { "type": "name", "properties": { "name": "urn:ogc:def:crs:OGC:1.3:CRS84" } },
"features": [
{ "type": "Feature", "properties": { "内容": "アースサポート福井【訪問入浴介護】福井県福井市灯明寺一丁目1403番地", "url2": "https://www.kaigokensaku.mhlw.go.jp/18/index.php?action_kouhyou_detail_004_kani=true&JigyosyoCd=1870101506-00&ServiceCd=120&Type=search" }, "geometry": { "type": "Point", "coordinates": [ 136.2095342, 36.0905608 ] } },
{ "type": "Feature", "properties": { "内容": "シン・アイ訪問入浴介護センターわかば【訪問入浴介護】福井市花堂中１－８－２０中山ビル１Ｆ", "url2": "https://www.kaigokensaku.mhlw.go.jp/18/index.php?action_kouhyou_detail_004_kani=true&JigyosyoCd=1870102058-00&ServiceCd=120&Type=search" }, "geometry": { "type": "Point", "coordinates": [ 136.214077632818515, 36.03681127494125 ] } },
{ "type": "Feature", "properties": { "内容": "仁愛訪問入浴介護事業所【訪問入浴介護】福井市乾徳4丁目4番7号仁愛ビル4階", "url2": "https://www.kaigokensaku.mhlw.go.jp/18/index.php?action_kouhyou_detail_004_kani=true&JigyosyoCd=1860190568-00&ServiceCd=120&Type=search" }, "geometry": { "type": "Point", "coordinates": [ 136.205659, 36.0711987 ] } },
{ "type": "Feature", "properties": { "内容": "小浜市社会福祉協議会　指定訪問入浴介護事業所【訪問入浴介護】福井県小浜市遠敷84-3-4小浜市総合福祉センター(サン・サンホーム小浜)", "url2": "https://www.kaigokensaku.mhlw.go.jp/18/index.php?action_kouhyou_detail_004_kani=true&JigyosyoCd=1870400015-00&ServiceCd=120&Type=search" }, "geometry": { "type": "Point", "coordinates": [ 135.781338799999958, 35.4849674 ] } },
{ "type": "Feature", "properties": { "内容": "大野和光園訪問入浴介護事業所【訪問入浴介護】福井県大野市篠座79-11", "url2": "https://www.kaigokensaku.mhlw.go.jp/18/index.php?action_kouhyou_detail_004_kani=true&JigyosyoCd=1870500038-00&ServiceCd=120&Type=search" }, "geometry": { "type": "Point", "coordinates": [ 136.500851099999977, 35.9647917 ] } },
{ "type": "Feature", "properties": { "内容": "さつき苑訪問入浴介護事業所【訪問入浴介護】福井県勝山市片瀬第１５号２２番地", "url2": "https://www.kaigokensaku.mhlw.go.jp/18/index.php?action_kouhyou_detail_004_kani=true&JigyosyoCd=1870600010-00&ServiceCd=120&Type=search" }, "geometry": { "type": "Point", "coordinates": [ 136.521571399999971, 36.0487165 ] } },
{ "type": "Feature", "properties": { "内容": "ほほえみ訪問入浴介護センター【訪問入浴介護】福井県鯖江市桜町2丁目9-32", "url2": "https://www.kaigokensaku.mhlw.go.jp/18/index.php?action_kouhyou_detail_004_kani=true&JigyosyoCd=1870700216-00&ServiceCd=120&Type=search" }, "geometry": { "type": "Point", "coordinates": [ 136.179202799999985, 35.9448464 ] } },
{ "type": "Feature", "properties": { "内容": "越前市社会福祉協議会訪問入浴サービスセンター【訪問入浴介護】福井県越前市矢船町第8号12番地1", "url2": "https://www.kaigokensaku.mhlw.go.jp/18/index.php?action_kouhyou_detail_004_kani=true&JigyosyoCd=1870300496-00&ServiceCd=120&Type=search" }, "geometry": { "type": "Point", "coordinates": [ 136.176980372352546, 35.887814385371975 ] } },
{ "type": "Feature", "properties": { "内容": "坂井市社会福祉協議会　訪問入浴ステーション【訪問入浴介護】福井県坂井市坂井町下新庄18-3-1", "url2": "https://www.kaigokensaku.mhlw.go.jp/18/index.php?action_kouhyou_detail_004_kani=true&JigyosyoCd=1871700553-00&ServiceCd=120&Type=search" }, "geometry": { "type": "Point", "coordinates": [ 136.223294758377875, 36.166239349507165 ] } },
{ "type": "Feature", "properties": { "内容": "えいへいじ訪問入浴介護事業所【訪問入浴介護】福井県吉田郡永平寺町飯島6号34番地", "url2": "https://www.kaigokensaku.mhlw.go.jp/18/index.php?action_kouhyou_detail_004_kani=true&JigyosyoCd=1871600225-00&ServiceCd=120&Type=search" }, "geometry": { "type": "Point", "coordinates": [ 136.356621200000063, 36.0898437 ] } }
]
}
