{
"type": "FeatureCollection",
"name": "geo_18_1",
"crs": { "type": "name", "properties": { "name": "urn:ogc:def:crs:OGC:1.3:CRS84" } },
"features": [
{ "type": "Feature", "properties": { "ID": 1811180000010, "正式名称": "公益財団法人　松原病院", "機関区分": 1, "都道府県コード": 18, "市区町村コード": 201, "所在地": "福井県福井市文京２－９－１", "緯度": 36.078172, "経度": 136.219014, "url": "https://www.iryou.teikyouseido.mhlw.go.jp/znk-web/juminkanja/S2430/initialize?prefCd=18&kikanCd=1180000010&kikanKbn=1", "url2": "http://www.fmatsubara.com/", "内容": "公益財団法人　松原病院【1:病院】【診療科目:0】【一般病床数:0療養病床数:0精神病床数:222感染症病床数:0合計病床数:222】福井県福井市文京２－９－１" }, "geometry": { "type": "Point", "coordinates": [ 136.219014, 36.078172 ] } },
{ "type": "Feature", "properties": { "ID": 1811180000020, "正式名称": "医療法人三精会　こころの森病院", "機関区分": 1, "都道府県コード": 18, "市区町村コード": 201, "所在地": "福井県福井市大島町柳３０１", "緯度": 36.033215, "経度": 136.208258, "url": "https://www.iryou.teikyouseido.mhlw.go.jp/znk-web/juminkanja/S2430/initialize?prefCd=18&kikanCd=1180000020&kikanKbn=1", "url2": "https://www.kokomori.jp/", "内容": "医療法人三精会　こころの森病院【1:病院】【診療科目:0】【一般病床数:0療養病床数:0精神病床数:96感染症病床数:0合計病床数:96】福井県福井市大島町柳３０１" }, "geometry": { "type": "Point", "coordinates": [ 136.208258, 36.033215 ] } },
{ "type": "Feature", "properties": { "ID": 1811180000030, "正式名称": "福井県立病院", "機関区分": 1, "都道府県コード": 18, "市区町村コード": 201, "所在地": "福井県福井市四ツ井２丁目８番１号", "緯度": 36.069089, "経度": 136.239458, "url": "https://www.iryou.teikyouseido.mhlw.go.jp/znk-web/juminkanja/S2430/initialize?prefCd=18&kikanCd=1180000030&kikanKbn=1", "url2": "http://fph.pref.fukui.lg.jp/", "内容": "福井県立病院【1:病院】【診療科目:0】【一般病床数:541療養病床数:0精神病床数:186感染症病床数:4合計病床数:737】福井県福井市四ツ井２丁目８番１号" }, "geometry": { "type": "Point", "coordinates": [ 136.239458, 36.069089 ] } },
{ "type": "Feature", "properties": { "ID": 1811180000040, "正式名称": "福井赤十字病院", "機関区分": 1, "都道府県コード": 18, "市区町村コード": 201, "所在地": "福井県福井市月見２－４－１", "緯度": 36.047561, "経度": 136.212625, "url": "https://www.iryou.teikyouseido.mhlw.go.jp/znk-web/juminkanja/S2430/initialize?prefCd=18&kikanCd=1180000040&kikanKbn=1", "url2": "http://www.fukui-med.jrc.or.jp", "内容": "福井赤十字病院【1:病院】【診療科目:0】【一般病床数:468療養病床数:0精神病床数:0感染症病床数:4合計病床数:477】福井県福井市月見２－４－１" }, "geometry": { "type": "Point", "coordinates": [ 136.212625, 36.047561 ] } },
{ "type": "Feature", "properties": { "ID": 1811180000050, "正式名称": "福井総合病院", "機関区分": 1, "都道府県コード": 18, "市区町村コード": 201, "所在地": "福井県福井市江上町５８－１６－１", "緯度": 36.131089, "経度": 136.165792, "url": "https://www.iryou.teikyouseido.mhlw.go.jp/znk-web/juminkanja/S2430/initialize?prefCd=18&kikanCd=1180000050&kikanKbn=1", "url2": "https://www.f-gh.jp/", "内容": "福井総合病院【1:病院】【診療科目:0】【一般病床数:315療養病床数:0精神病床数:0感染症病床数:0合計病床数:315】福井県福井市江上町５８－１６－１" }, "geometry": { "type": "Point", "coordinates": [ 136.165792, 36.131089 ] } },
{ "type": "Feature", "properties": { "ID": 1811180000060, "正式名称": "福仁会病院", "機関区分": 1, "都道府県コード": 18, "市区町村コード": 201, "所在地": "福井県福井市文京５丁目１０番１号", "緯度": 36.076006, "経度": 136.206236, "url": "https://www.iryou.teikyouseido.mhlw.go.jp/znk-web/juminkanja/S2430/initialize?prefCd=18&kikanCd=1180000060&kikanKbn=1", "url2": "http://fukujinkai.com/", "内容": "福仁会病院【1:病院】【診療科目:0】【一般病床数:0療養病床数:33精神病床数:216感染症病床数:0合計病床数:249】福井県福井市文京５丁目１０番１号" }, "geometry": { "type": "Point", "coordinates": [ 136.206236, 36.076006 ] } },
{ "type": "Feature", "properties": { "ID": 1811180000070, "正式名称": "福井循環器病院", "機関区分": 1, "都道府県コード": 18, "市区町村コード": 201, "所在地": "福井県福井市新保２丁目２２８番地", "緯度": 36.078172, "経度": 136.250069, "url": "https://www.iryou.teikyouseido.mhlw.go.jp/znk-web/juminkanja/S2430/initialize?prefCd=18&kikanCd=1180000070&kikanKbn=1", "url2": "https://www.fcvc.or.jp", "内容": "福井循環器病院【1:病院】【診療科目:0】【一般病床数:161療養病床数:0精神病床数:0感染症病床数:0合計病床数:161】福井県福井市新保２丁目２２８番地" }, "geometry": { "type": "Point", "coordinates": [ 136.250069, 36.078172 ] } },
{ "type": "Feature", "properties": { "ID": 1811180000100, "正式名称": "財団医療法人　藤田記念病院", "機関区分": 1, "都道府県コード": 18, "市区町村コード": 201, "所在地": "福井県福井市宝永４－１５－７", "緯度": 36.069728, "経度": 136.220042, "url": "https://www.iryou.teikyouseido.mhlw.go.jp/znk-web/juminkanja/S2430/initialize?prefCd=18&kikanCd=1180000100&kikanKbn=1", "url2": "http://www.fujita-mhp.jp", "内容": "財団医療法人　藤田記念病院【1:病院】【診療科目:0】【一般病床数:48療養病床数:0精神病床数:0感染症病床数:0合計病床数:48】福井県福井市宝永４－１５－７" }, "geometry": { "type": "Point", "coordinates": [ 136.220042, 36.069728 ] } },
{ "type": "Feature", "properties": { "ID": 1811180000130, "正式名称": "医療法人初生会　福井中央クリニック", "機関区分": 1, "都道府県コード": 18, "市区町村コード": 201, "所在地": "福井県福井市松本４－５－１０", "緯度": 36.071839, "経度": 136.220125, "url": "https://www.iryou.teikyouseido.mhlw.go.jp/znk-web/juminkanja/S2430/initialize?prefCd=18&kikanCd=1180000130&kikanKbn=1", "url2": "http://fukui-chuoh-clinic.com/", "内容": "医療法人初生会　福井中央クリニック【1:病院】【診療科目:0】【一般病床数:20療養病床数:30精神病床数:0感染症病床数:0合計病床数:50】福井県福井市松本４－５－１０" }, "geometry": { "type": "Point", "coordinates": [ 136.220125, 36.071839 ] } },
{ "type": "Feature", "properties": { "ID": 1811180000140, "正式名称": "福井温泉病院", "機関区分": 1, "都道府県コード": 18, "市区町村コード": 201, "所在地": "福井県福井市天菅生町７ー１", "緯度": 36.12145, "経度": 136.169264, "url": "https://www.iryou.teikyouseido.mhlw.go.jp/znk-web/juminkanja/S2430/initialize?prefCd=18&kikanCd=1180000140&kikanKbn=1", "url2": "http://www.fukuionsen.jp", "内容": "福井温泉病院【1:病院】【診療科目:0】【一般病床数:0療養病床数:90精神病床数:0感染症病床数:0合計病床数:90】福井県福井市天菅生町７ー１" }, "geometry": { "type": "Point", "coordinates": [ 136.169264, 36.12145 ] } },
{ "type": "Feature", "properties": { "ID": 1811180000150, "正式名称": "福井リハビリテーション病院", "機関区分": 1, "都道府県コード": 18, "市区町村コード": 201, "所在地": "福井県福井市南楢原町２０字大畑２", "緯度": 36.097782, "経度": 136.179819, "url": "https://www.iryou.teikyouseido.mhlw.go.jp/znk-web/juminkanja/S2430/initialize?prefCd=18&kikanCd=1180000150&kikanKbn=1", "url2": "http://www.otaki-hp.or.jp/group/fukui-rehabilitation/", "内容": "福井リハビリテーション病院【1:病院】【診療科目:0】【一般病床数:0療養病床数:40精神病床数:0感染症病床数:0合計病床数:40】福井県福井市南楢原町２０字大畑２" }, "geometry": { "type": "Point", "coordinates": [ 136.179819, 36.097782 ] } },
{ "type": "Feature", "properties": { "ID": 1811180000160, "正式名称": "医療法人　健康会　嶋田病院", "機関区分": 1, "都道府県コード": 18, "市区町村コード": 201, "所在地": "福井県福井市西方１―２－１１", "緯度": 36.053617, "経度": 136.234431, "url": "https://www.iryou.teikyouseido.mhlw.go.jp/znk-web/juminkanja/S2430/initialize?prefCd=18&kikanCd=1180000160&kikanKbn=1", "url2": "http://www.kenkoukai.or.jp", "内容": "医療法人　健康会　嶋田病院【1:病院】【診療科目:0】【一般病床数:27療養病床数:90精神病床数:0感染症病床数:0合計病床数:117】福井県福井市西方１―２－１１" }, "geometry": { "type": "Point", "coordinates": [ 136.234431, 36.053617 ] } },
{ "type": "Feature", "properties": { "ID": 1811180000180, "正式名称": "医療法人　厚生会　福井厚生病院", "機関区分": 1, "都道府県コード": 18, "市区町村コード": 201, "所在地": "福井県福井市下六条町１字６番１", "緯度": 36.035903, "経度": 136.233027, "url": "https://www.iryou.teikyouseido.mhlw.go.jp/znk-web/juminkanja/S2430/initialize?prefCd=18&kikanCd=1180000180&kikanKbn=1", "url2": "https://koseikaigroup.jp/", "内容": "医療法人　厚生会　福井厚生病院【1:病院】【診療科目:0】【一般病床数:158療養病床数:0精神病床数:41感染症病床数:0合計病床数:199】福井県福井市下六条町１字６番１" }, "geometry": { "type": "Point", "coordinates": [ 136.233027, 36.035903 ] } },
{ "type": "Feature", "properties": { "ID": 1811180000190, "正式名称": "福井県こども療育センター", "機関区分": 1, "都道府県コード": 18, "市区町村コード": 201, "所在地": "福井県福井市四ツ井２丁目８－１", "緯度": 36.069506, "経度": 136.237986, "url": "https://www.iryou.teikyouseido.mhlw.go.jp/znk-web/juminkanja/S2430/initialize?prefCd=18&kikanCd=1180000190&kikanKbn=1", "url2": "http://www.pref.fukui.jp/doc/kodomo-ryouiku/sinsatu.html", "内容": "福井県こども療育センター【1:病院】【診療科目:0】【一般病床数:22療養病床数:0精神病床数:0感染症病床数:0合計病床数:22】福井県福井市四ツ井２丁目８－１" }, "geometry": { "type": "Point", "coordinates": [ 136.237986, 36.069506 ] } },
{ "type": "Feature", "properties": { "ID": 1811180000210, "正式名称": "福井大学医学部附属病院", "機関区分": 1, "都道府県コード": 18, "市区町村コード": 322, "所在地": "福井県吉田郡永平寺町松岡下合月２３－３", "緯度": 36.108811, "経度": 136.294319, "url": "https://www.iryou.teikyouseido.mhlw.go.jp/znk-web/juminkanja/S2430/initialize?prefCd=18&kikanCd=1180000210&kikanKbn=1", "url2": "http://www.hosp.u-fukui.ac.jp/", "内容": "福井大学医学部附属病院【1:病院】【診療科目:0】【一般病床数:559療養病床数:0精神病床数:41感染症病床数:0合計病床数:600】福井県吉田郡永平寺町松岡下合月２３－３" }, "geometry": { "type": "Point", "coordinates": [ 136.294319, 36.108811 ] } },
{ "type": "Feature", "properties": { "ID": 1811180000230, "正式名称": "福井県医療生活協同組合　光陽生協病院", "機関区分": 1, "都道府県コード": 18, "市区町村コード": 201, "所在地": "福井県福井市光陽３丁目１０－２４", "緯度": 36.065672, "経度": 136.195403, "url": "https://www.iryou.teikyouseido.mhlw.go.jp/znk-web/juminkanja/S2430/initialize?prefCd=18&kikanCd=1180000230&kikanKbn=1", "url2": "http://hospital.koyo-gr.jp/", "内容": "福井県医療生活協同組合　光陽生協病院【1:病院】【診療科目:0】【一般病床数:57療養病床数:0精神病床数:0感染症病床数:0合計病床数:57】福井県福井市光陽３丁目１０－２４" }, "geometry": { "type": "Point", "coordinates": [ 136.195403, 36.065672 ] } },
{ "type": "Feature", "properties": { "ID": 1811180000240, "正式名称": "つくし野病院", "機関区分": 1, "都道府県コード": 18, "市区町村コード": 201, "所在地": "福井県福井市川合鷲塚町４９－６－１", "緯度": 36.113617, "経度": 136.212736, "url": "https://www.iryou.teikyouseido.mhlw.go.jp/znk-web/juminkanja/S2430/initialize?prefCd=18&kikanCd=1180000240&kikanKbn=1", "url2": "http://www.senjukai.com", "内容": "つくし野病院【1:病院】【診療科目:0】【一般病床数:47療養病床数:22精神病床数:0感染症病床数:0合計病床数:69】福井県福井市川合鷲塚町４９－６－１" }, "geometry": { "type": "Point", "coordinates": [ 136.212736, 36.113617 ] } },
{ "type": "Feature", "properties": { "ID": 1811180000250, "正式名称": "社会福祉法人　恩賜財団　済生会支部　福井県済生会　福井県済生会病院", "機関区分": 1, "都道府県コード": 18, "市区町村コード": 201, "所在地": "福井県福井市和田中町舟橋７－１", "緯度": 36.047394, "経度": 136.252403, "url": "https://www.iryou.teikyouseido.mhlw.go.jp/znk-web/juminkanja/S2430/initialize?prefCd=18&kikanCd=1180000250&kikanKbn=1", "url2": "http://www.fukui-saiseikai.com/", "内容": "社会福祉法人　恩賜財団　済生会支部　福井県済生会　福井県済生会病院【1:病院】【診療科目:0】【一般病床数:408療養病床数:0精神病床数:0感染症病床数:0合計病床数:412】福井県福井市和田中町舟橋７－１" }, "geometry": { "type": "Point", "coordinates": [ 136.252403, 36.047394 ] } },
{ "type": "Feature", "properties": { "ID": 1811180000260, "正式名称": "医療法人　安川病院", "機関区分": 1, "都道府県コード": 18, "市区町村コード": 201, "所在地": "福井県福井市大和田２丁目１０８番地", "緯度": 36.0952, "経度": 136.246986, "url": "https://www.iryou.teikyouseido.mhlw.go.jp/znk-web/juminkanja/S2430/initialize?prefCd=18&kikanCd=1180000260&kikanKbn=1", "url2": "http://www.yasukawa-hospital.jp", "内容": "医療法人　安川病院【1:病院】【診療科目:0】【一般病床数:80療養病床数:0精神病床数:0感染症病床数:0合計病床数:80】福井県福井市大和田２丁目１０８番地" }, "geometry": { "type": "Point", "coordinates": [ 136.246986, 36.0952 ] } },
{ "type": "Feature", "properties": { "ID": 1811180000310, "正式名称": "冨永病院", "機関区分": 1, "都道府県コード": 18, "市区町村コード": 201, "所在地": "福井県福井市西木田３－４－２６", "緯度": 36.053561, "経度": 136.211736, "url": "https://www.iryou.teikyouseido.mhlw.go.jp/znk-web/juminkanja/S2430/initialize?prefCd=18&kikanCd=1180000310&kikanKbn=1", "url2": null, "内容": "冨永病院【1:病院】【診療科目:0】【一般病床数:0療養病床数:42精神病床数:0感染症病床数:0合計病床数:42】福井県福井市西木田３－４－２６" }, "geometry": { "type": "Point", "coordinates": [ 136.211736, 36.053561 ] } },
{ "type": "Feature", "properties": { "ID": 1811180000330, "正式名称": "医療法人　慈豊会　田中病院", "機関区分": 1, "都道府県コード": 18, "市区町村コード": 201, "所在地": "福井県福井市大手２丁目３番１号　三の丸ビル内", "緯度": 36.064256, "経度": 136.223875, "url": "https://www.iryou.teikyouseido.mhlw.go.jp/znk-web/juminkanja/S2430/initialize?prefCd=18&kikanCd=1180000330&kikanKbn=1", "url2": "http://www.tanaka-hosp.jp", "内容": "医療法人　慈豊会　田中病院【1:病院】【診療科目:0】【一般病床数:52療養病床数:96精神病床数:0感染症病床数:0合計病床数:148】福井県福井市大手２丁目３番１号　三の丸ビル内" }, "geometry": { "type": "Point", "coordinates": [ 136.223875, 36.064256 ] } },
{ "type": "Feature", "properties": { "ID": 1811180000340, "正式名称": "医療法人　福井愛育病院", "機関区分": 1, "都道府県コード": 18, "市区町村コード": 201, "所在地": "福井県福井市新保２丁目３０１", "緯度": 36.078506, "経度": 136.251014, "url": "https://www.iryou.teikyouseido.mhlw.go.jp/znk-web/juminkanja/S2430/initialize?prefCd=18&kikanCd=1180000340&kikanKbn=1", "url2": "https://www.fab.or.jp/", "内容": "医療法人　福井愛育病院【1:病院】【診療科目:0】【一般病床数:102療養病床数:0精神病床数:0感染症病床数:0合計病床数:102】福井県福井市新保２丁目３０１" }, "geometry": { "type": "Point", "coordinates": [ 136.251014, 36.078506 ] } },
{ "type": "Feature", "properties": { "ID": 1811180000350, "正式名称": "大滝病院", "機関区分": 1, "都道府県コード": 18, "市区町村コード": 201, "所在地": "福井県福井市日光１丁目２－１", "緯度": 36.071478, "経度": 136.203264, "url": "https://www.iryou.teikyouseido.mhlw.go.jp/znk-web/juminkanja/S2430/initialize?prefCd=18&kikanCd=1180000350&kikanKbn=1", "url2": "http://www.otaki-hp.or.jp/", "内容": "大滝病院【1:病院】【診療科目:0】【一般病床数:43療養病床数:89精神病床数:0感染症病床数:0合計病床数:132】福井県福井市日光１丁目２－１" }, "geometry": { "type": "Point", "coordinates": [ 136.203264, 36.071478 ] } },
{ "type": "Feature", "properties": { "ID": 1811180000360, "正式名称": "福井病院", "機関区分": 1, "都道府県コード": 18, "市区町村コード": 201, "所在地": "福井県福井市江上町５５－２０－４", "緯度": 36.131256, "経度": 136.163431, "url": "https://www.iryou.teikyouseido.mhlw.go.jp/znk-web/juminkanja/S2430/initialize?prefCd=18&kikanCd=1180000360&kikanKbn=1", "url2": "https://www.f-gh.jp/fh/", "内容": "福井病院【1:病院】【診療科目:0】【一般病床数:0療養病床数:0精神病床数:212感染症病床数:0合計病床数:212】福井県福井市江上町５５－２０－４" }, "geometry": { "type": "Point", "coordinates": [ 136.163431, 36.131256 ] } },
{ "type": "Feature", "properties": { "ID": 1811180000370, "正式名称": "坂井市立三国病院", "機関区分": 1, "都道府県コード": 18, "市区町村コード": 210, "所在地": "福井県坂井市三国町中央１丁目２番３４号", "緯度": 36.215922, "経度": 136.157736, "url": "https://www.iryou.teikyouseido.mhlw.go.jp/znk-web/juminkanja/S2430/initialize?prefCd=18&kikanCd=1180000370&kikanKbn=1", "url2": "http://www.city.fukui-sakai.lg.jp/byouin/", "内容": "坂井市立三国病院【1:病院】【診療科目:0】【一般病床数:97療養病床数:0精神病床数:0感染症病床数:0合計病床数:97】福井県坂井市三国町中央１丁目２番３４号" }, "geometry": { "type": "Point", "coordinates": [ 136.157736, 36.215922 ] } },
{ "type": "Feature", "properties": { "ID": 1811180000380, "正式名称": "医療法人　慈風会　宮崎病院", "機関区分": 1, "都道府県コード": 18, "市区町村コード": 210, "所在地": "福井県坂井市三国町北本町２－２－６", "緯度": 36.216617, "経度": 136.149069, "url": "https://www.iryou.teikyouseido.mhlw.go.jp/znk-web/juminkanja/S2430/initialize?prefCd=18&kikanCd=1180000380&kikanKbn=1", "url2": "http://www.miyazaki-hp.com", "内容": "医療法人　慈風会　宮崎病院【1:病院】【診療科目:0】【一般病床数:30療養病床数:30精神病床数:0感染症病床数:0合計病床数:60】福井県坂井市三国町北本町２－２－６" }, "geometry": { "type": "Point", "coordinates": [ 136.149069, 36.216617 ] } },
{ "type": "Feature", "properties": { "ID": 1811180000390, "正式名称": "独立行政法人　国立病院機構　あわら病院", "機関区分": 1, "都道府県コード": 18, "市区町村コード": 208, "所在地": "福井県あわら市北潟２３８号１番地", "緯度": 36.255839, "経度": 136.212208, "url": "https://www.iryou.teikyouseido.mhlw.go.jp/znk-web/juminkanja/S2430/initialize?prefCd=18&kikanCd=1180000390&kikanKbn=1", "url2": "https://awara.hosp.go.jp/", "内容": "独立行政法人　国立病院機構　あわら病院【1:病院】【診療科目:0】【一般病床数:172療養病床数:0精神病床数:0感染症病床数:0合計病床数:172】福井県あわら市北潟２３８号１番地" }, "geometry": { "type": "Point", "coordinates": [ 136.212208, 36.255839 ] } },
{ "type": "Feature", "properties": { "ID": 1811180000400, "正式名称": "医療法人　泉壽会　加納病院", "機関区分": 1, "都道府県コード": 18, "市区町村コード": 208, "所在地": "福井県あわら市花乃杜１－２－３９", "緯度": 36.216172, "経度": 136.224681, "url": "https://www.iryou.teikyouseido.mhlw.go.jp/znk-web/juminkanja/S2430/initialize?prefCd=18&kikanCd=1180000400&kikanKbn=1", "url2": "http://www.kanouhp.jp", "内容": "医療法人　泉壽会　加納病院【1:病院】【診療科目:0】【一般病床数:40療養病床数:0精神病床数:0感染症病床数:0合計病床数:40】福井県あわら市花乃杜１－２－３９" }, "geometry": { "type": "Point", "coordinates": [ 136.224681, 36.216172 ] } },
{ "type": "Feature", "properties": { "ID": 1811180000410, "正式名称": "木村病院", "機関区分": 1, "都道府県コード": 18, "市区町村コード": 208, "所在地": "福井県あわら市北金津５７－２５", "緯度": 36.209228, "経度": 136.229403, "url": "https://www.iryou.teikyouseido.mhlw.go.jp/znk-web/juminkanja/S2430/initialize?prefCd=18&kikanCd=1180000410&kikanKbn=1", "url2": "http://www.kimura-hospital.jp", "内容": "木村病院【1:病院】【診療科目:0】【一般病床数:133療養病床数:0精神病床数:0感染症病床数:0合計病床数:133】福井県あわら市北金津５７－２５" }, "geometry": { "type": "Point", "coordinates": [ 136.229403, 36.209228 ] } },
{ "type": "Feature", "properties": { "ID": 1811180000420, "正式名称": "春江病院", "機関区分": 1, "都道府県コード": 18, "市区町村コード": 210, "所在地": "福井県坂井市春江町針原第６５号７", "緯度": 36.123361, "経度": 136.214276, "url": "https://www.iryou.teikyouseido.mhlw.go.jp/znk-web/juminkanja/S2430/initialize?prefCd=18&kikanCd=1180000420&kikanKbn=1", "url2": "https://www.harue-hp.org/", "内容": "春江病院【1:病院】【診療科目:0】【一般病床数:137療養病床数:0精神病床数:0感染症病床数:0合計病床数:137】福井県坂井市春江町針原第６５号７" }, "geometry": { "type": "Point", "coordinates": [ 136.214276, 36.123361 ] } },
{ "type": "Feature", "properties": { "ID": 1811180000430, "正式名称": "医療法人社団茜会藤田神経内科病院", "機関区分": 1, "都道府県コード": 18, "市区町村コード": 210, "所在地": "福井県坂井市丸岡町羽崎３１－１２－１", "緯度": 36.115533, "経度": 136.262792, "url": "https://www.iryou.teikyouseido.mhlw.go.jp/znk-web/juminkanja/S2430/initialize?prefCd=18&kikanCd=1180000430&kikanKbn=1", "url2": "https://www.akanekai.jp/", "内容": "医療法人社団茜会藤田神経内科病院【1:病院】【診療科目:0】【一般病床数:40療養病床数:0精神病床数:0感染症病床数:0合計病床数:40】福井県坂井市丸岡町羽崎３１－１２－１" }, "geometry": { "type": "Point", "coordinates": [ 136.262792, 36.115533 ] } },
{ "type": "Feature", "properties": { "ID": 1811180000440, "正式名称": "清翔会　尾崎病院", "機関区分": 1, "都道府県コード": 18, "市区町村コード": 205, "所在地": "福井県大野市明倫町１１番２号", "緯度": 35.982672, "経度": 136.490708, "url": "https://www.iryou.teikyouseido.mhlw.go.jp/znk-web/juminkanja/S2430/initialize?prefCd=18&kikanCd=1180000440&kikanKbn=1", "url2": null, "内容": "清翔会　尾崎病院【1:病院】【診療科目:0】【一般病床数:0療養病床数:44精神病床数:0感染症病床数:0合計病床数:44】福井県大野市明倫町１１番２号" }, "geometry": { "type": "Point", "coordinates": [ 136.490708, 35.982672 ] } },
{ "type": "Feature", "properties": { "ID": 1811180000450, "正式名称": "阿部病院", "機関区分": 1, "都道府県コード": 18, "市区町村コード": 205, "所在地": "福井県大野市元町８－６", "緯度": 35.984839, "経度": 136.490069, "url": "https://www.iryou.teikyouseido.mhlw.go.jp/znk-web/juminkanja/S2430/initialize?prefCd=18&kikanCd=1180000450&kikanKbn=1", "url2": "http://www.abehosp.com", "内容": "阿部病院【1:病院】【診療科目:0】【一般病床数:37療養病床数:0精神病床数:0感染症病床数:0合計病床数:37】福井県大野市元町８－６" }, "geometry": { "type": "Point", "coordinates": [ 136.490069, 35.984839 ] } },
{ "type": "Feature", "properties": { "ID": 1811180000460, "正式名称": "広瀬病院", "機関区分": 1, "都道府県コード": 18, "市区町村コード": 205, "所在地": "福井県大野市城町１０－１", "緯度": 35.985256, "経度": 136.486764, "url": "https://www.iryou.teikyouseido.mhlw.go.jp/znk-web/juminkanja/S2430/initialize?prefCd=18&kikanCd=1180000460&kikanKbn=1", "url2": "ono-hirose.or.jp", "内容": "広瀬病院【1:病院】【診療科目:0】【一般病床数:41療養病床数:0精神病床数:0感染症病床数:0合計病床数:41】福井県大野市城町１０－１" }, "geometry": { "type": "Point", "coordinates": [ 136.486764, 35.985256 ] } },
{ "type": "Feature", "properties": { "ID": 1811180000470, "正式名称": "たけとう病院", "機関区分": 1, "都道府県コード": 18, "市区町村コード": 206, "所在地": "福井県勝山市野向町聖丸１０－２１－１", "緯度": 36.093006, "経度": 136.499181, "url": "https://www.iryou.teikyouseido.mhlw.go.jp/znk-web/juminkanja/S2430/initialize?prefCd=18&kikanCd=1180000470&kikanKbn=1", "url2": "http://www.taketou-hp.jp/", "内容": "たけとう病院【1:病院】【診療科目:0】【一般病床数:0療養病床数:0精神病床数:135感染症病床数:0合計病床数:135】福井県勝山市野向町聖丸１０－２１－１" }, "geometry": { "type": "Point", "coordinates": [ 136.499181, 36.093006 ] } },
{ "type": "Feature", "properties": { "ID": 1811180000480, "正式名称": "みどりヶ丘病院", "機関区分": 1, "都道府県コード": 18, "市区町村コード": 207, "所在地": "福井県鯖江市三六町１－２－６", "緯度": 35.968211, "経度": 136.177403, "url": "https://www.iryou.teikyouseido.mhlw.go.jp/znk-web/juminkanja/S2430/initialize?prefCd=18&kikanCd=1180000480&kikanKbn=1", "url2": "http://www.jujindou.or.jp/", "内容": "みどりヶ丘病院【1:病院】【診療科目:0】【一般病床数:0療養病床数:0精神病床数:198感染症病床数:0合計病床数:198】福井県鯖江市三六町１－２－６" }, "geometry": { "type": "Point", "coordinates": [ 136.177403, 35.968211 ] } },
{ "type": "Feature", "properties": { "ID": 1811180000490, "正式名称": "木村病院", "機関区分": 1, "都道府県コード": 18, "市区町村コード": 207, "所在地": "福井県鯖江市旭町４－４－９", "緯度": 35.94895, "経度": 136.186597, "url": "https://www.iryou.teikyouseido.mhlw.go.jp/znk-web/juminkanja/S2430/initialize?prefCd=18&kikanCd=1180000490&kikanKbn=1", "url2": "http://www.jujinkai.or.jp", "内容": "木村病院【1:病院】【診療科目:0】【一般病床数:88療養病床数:141精神病床数:0感染症病床数:0合計病床数:229】福井県鯖江市旭町４－４－９" }, "geometry": { "type": "Point", "coordinates": [ 136.186597, 35.94895 ] } },
{ "type": "Feature", "properties": { "ID": 1811180000510, "正式名称": "斎藤病院", "機関区分": 1, "都道府県コード": 18, "市区町村コード": 207, "所在地": "福井県鯖江市中野町６－１－１", "緯度": 35.944867, "経度": 136.206375, "url": "https://www.iryou.teikyouseido.mhlw.go.jp/znk-web/juminkanja/S2430/initialize?prefCd=18&kikanCd=1180000510&kikanKbn=1", "url2": "https://saito-hospital.org/", "内容": "斎藤病院【1:病院】【診療科目:0】【一般病床数:41療養病床数:28精神病床数:0感染症病床数:0合計病床数:69】福井県鯖江市中野町６－１－１" }, "geometry": { "type": "Point", "coordinates": [ 136.206375, 35.944867 ] } },
{ "type": "Feature", "properties": { "ID": 1811180000520, "正式名称": "高野病院", "機関区分": 1, "都道府県コード": 18, "市区町村コード": 207, "所在地": "福井県鯖江市本町２－３－１０", "緯度": 35.945644, "経度": 136.183764, "url": "https://www.iryou.teikyouseido.mhlw.go.jp/znk-web/juminkanja/S2430/initialize?prefCd=18&kikanCd=1180000520&kikanKbn=1", "url2": "https://www.takano-byouin.com/", "内容": "高野病院【1:病院】【診療科目:0】【一般病床数:34療養病床数:0精神病床数:0感染症病床数:0合計病床数:34】福井県鯖江市本町２－３－１０" }, "geometry": { "type": "Point", "coordinates": [ 136.183764, 35.945644 ] } },
{ "type": "Feature", "properties": { "ID": 1811180000540, "正式名称": "一般財団法人　今立中央病院", "機関区分": 1, "都道府県コード": 18, "市区町村コード": 209, "所在地": "福井県越前市粟田部町３３－１", "緯度": 35.917228, "経度": 136.243986, "url": "https://www.iryou.teikyouseido.mhlw.go.jp/znk-web/juminkanja/S2430/initialize?prefCd=18&kikanCd=1180000540&kikanKbn=1", "url2": "https://www.imadatechuo-hp.com", "内容": "一般財団法人　今立中央病院【1:病院】【診療科目:0】【一般病床数:0療養病床数:32精神病床数:0感染症病床数:0合計病床数:32】福井県越前市粟田部町３３－１" }, "geometry": { "type": "Point", "coordinates": [ 136.243986, 35.917228 ] } },
{ "type": "Feature", "properties": { "ID": 1811180000550, "正式名称": "医療法人　倉伊会　伊部病院", "機関区分": 1, "都道府県コード": 18, "市区町村コード": 423, "所在地": "福井県丹生郡越前町内郡１１－１、２", "緯度": 35.974811, "経度": 136.128264, "url": "https://www.iryou.teikyouseido.mhlw.go.jp/znk-web/juminkanja/S2430/initialize?prefCd=18&kikanCd=1180000550&kikanKbn=1", "url2": null, "内容": "医療法人　倉伊会　伊部病院【1:病院】【診療科目:0】【一般病床数:0療養病床数:23精神病床数:0感染症病床数:0合計病床数:23】福井県丹生郡越前町内郡１１－１、２" }, "geometry": { "type": "Point", "coordinates": [ 136.128264, 35.974811 ] } },
{ "type": "Feature", "properties": { "ID": 1811180000560, "正式名称": "越前町国民健康保険織田病院", "機関区分": 1, "都道府県コード": 18, "市区町村コード": 423, "所在地": "福井県丹生郡越前町織田１０６－４４－１", "緯度": 35.95745, "経度": 136.047042, "url": "https://www.iryou.teikyouseido.mhlw.go.jp/znk-web/juminkanja/S2430/initialize?prefCd=18&kikanCd=1180000560&kikanKbn=1", "url2": "http://ota.jadecom.or.jp", "内容": "越前町国民健康保険織田病院【1:病院】【診療科目:0】【一般病床数:55療養病床数:0精神病床数:0感染症病床数:0合計病床数:55】福井県丹生郡越前町織田１０６－４４－１" }, "geometry": { "type": "Point", "coordinates": [ 136.047042, 35.95745 ] } },
{ "type": "Feature", "properties": { "ID": 1811180000580, "正式名称": "高村病院", "機関区分": 1, "都道府県コード": 18, "市区町村コード": 207, "所在地": "福井県鯖江市幸町１－２－２", "緯度": 35.973061, "経度": 136.180958, "url": "https://www.iryou.teikyouseido.mhlw.go.jp/znk-web/juminkanja/S2430/initialize?prefCd=18&kikanCd=1180000580&kikanKbn=1", "url2": null, "内容": "高村病院【1:病院】【診療科目:0】【一般病床数:30療養病床数:33精神病床数:0感染症病床数:0合計病床数:63】福井県鯖江市幸町１－２－２" }, "geometry": { "type": "Point", "coordinates": [ 136.180958, 35.973061 ] } },
{ "type": "Feature", "properties": { "ID": 1811180000590, "正式名称": "福井県立すこやかシルバー病院", "機関区分": 1, "都道府県コード": 18, "市区町村コード": 201, "所在地": "福井県福井市島寺町９３－６", "緯度": 36.0192, "経度": 136.142319, "url": "https://www.iryou.teikyouseido.mhlw.go.jp/znk-web/juminkanja/S2430/initialize?prefCd=18&kikanCd=1180000590&kikanKbn=1", "url2": "http://fukui-sukoyaka-silver.or.jp", "内容": "福井県立すこやかシルバー病院【1:病院】【診療科目:0】【一般病床数:0療養病床数:0精神病床数:100感染症病床数:0合計病床数:100】福井県福井市島寺町９３－６" }, "geometry": { "type": "Point", "coordinates": [ 136.142319, 36.0192 ] } },
{ "type": "Feature", "properties": { "ID": 1811180000600, "正式名称": "武生記念病院", "機関区分": 1, "都道府県コード": 18, "市区町村コード": 209, "所在地": "福井県越前市小松二丁目７－２５", "緯度": 35.906339, "経度": 136.156042, "url": "https://www.iryou.teikyouseido.mhlw.go.jp/znk-web/juminkanja/S2430/initialize?prefCd=18&kikanCd=1180000600&kikanKbn=1", "url2": "takefukinen-hospital.com", "内容": "武生記念病院【1:病院】【診療科目:0】【一般病床数:0療養病床数:0精神病床数:160感染症病床数:0合計病床数:160】福井県越前市小松二丁目７－２５" }, "geometry": { "type": "Point", "coordinates": [ 136.156042, 35.906339 ] } },
{ "type": "Feature", "properties": { "ID": 1811180000610, "正式名称": "医療法人　林病院", "機関区分": 1, "都道府県コード": 18, "市区町村コード": 209, "所在地": "福井県越前市府中１丁目３番５号", "緯度": 35.9026, "経度": 136.169862, "url": "https://www.iryou.teikyouseido.mhlw.go.jp/znk-web/juminkanja/S2430/initialize?prefCd=18&kikanCd=1180000610&kikanKbn=1", "url2": "http://www.hayashi-hospital.or.jp/", "内容": "医療法人　林病院【1:病院】【診療科目:0】【一般病床数:199療養病床数:0精神病床数:0感染症病床数:0合計病床数:199】福井県越前市府中１丁目３番５号" }, "geometry": { "type": "Point", "coordinates": [ 136.169862, 35.9026 ] } },
{ "type": "Feature", "properties": { "ID": 1811180000620, "正式名称": "医療法人　相木病院", "機関区分": 1, "都道府県コード": 18, "市区町村コード": 209, "所在地": "福井県越前市中央２－９－４０", "緯度": 35.902811, "経度": 136.156403, "url": "https://www.iryou.teikyouseido.mhlw.go.jp/znk-web/juminkanja/S2430/initialize?prefCd=18&kikanCd=1180000620&kikanKbn=1", "url2": "http://aiki-hp.jp", "内容": "医療法人　相木病院【1:病院】【診療科目:0】【一般病床数:0療養病床数:34精神病床数:0感染症病床数:0合計病床数:34】福井県越前市中央２－９－４０" }, "geometry": { "type": "Point", "coordinates": [ 136.156403, 35.902811 ] } },
{ "type": "Feature", "properties": { "ID": 1811180000630, "正式名称": "社会医療法人　財団　中村病院", "機関区分": 1, "都道府県コード": 18, "市区町村コード": 209, "所在地": "福井県越前市天王町４－２８", "緯度": 35.900589, "経度": 136.166625, "url": "https://www.iryou.teikyouseido.mhlw.go.jp/znk-web/juminkanja/S2430/initialize?prefCd=18&kikanCd=1180000630&kikanKbn=1", "url2": "http://www.nakamura-hp.or.jp/", "内容": "社会医療法人　財団　中村病院【1:病院】【診療科目:0】【一般病床数:185療養病床数:0精神病床数:0感染症病床数:0合計病床数:185】福井県越前市天王町４－２８" }, "geometry": { "type": "Point", "coordinates": [ 136.166625, 35.900589 ] } },
{ "type": "Feature", "properties": { "ID": 1811180000660, "正式名称": "池端病院", "機関区分": 1, "都道府県コード": 18, "市区町村コード": 209, "所在地": "福井県越前市今宿町８－１", "緯度": 35.86545, "経度": 136.169903, "url": "https://www.iryou.teikyouseido.mhlw.go.jp/znk-web/juminkanja/S2430/initialize?prefCd=18&kikanCd=1180000660&kikanKbn=1", "url2": "https://www.ikebata.jp", "内容": "池端病院【1:病院】【診療科目:0】【一般病床数:0療養病床数:30精神病床数:0感染症病床数:0合計病床数:30】福井県越前市今宿町８－１" }, "geometry": { "type": "Point", "coordinates": [ 136.169903, 35.86545 ] } },
{ "type": "Feature", "properties": { "ID": 1811180000690, "正式名称": "医療法人積善会　猪原病院", "機関区分": 1, "都道府県コード": 18, "市区町村コード": 202, "所在地": "福井県敦賀市ひばりヶ丘町２４９番地", "緯度": 35.623783, "経度": 136.042764, "url": "https://www.iryou.teikyouseido.mhlw.go.jp/znk-web/juminkanja/S2430/initialize?prefCd=18&kikanCd=1180000690&kikanKbn=1", "url2": "http://www.ihara-hp.or.jp/", "内容": "医療法人積善会　猪原病院【1:病院】【診療科目:0】【一般病床数:0療養病床数:0精神病床数:111感染症病床数:0合計病床数:111】福井県敦賀市ひばりヶ丘町２４９番地" }, "geometry": { "type": "Point", "coordinates": [ 136.042764, 35.623783 ] } },
{ "type": "Feature", "properties": { "ID": 1811180000700, "正式名称": "独立行政法人　国立病院機構　敦賀医療センター", "機関区分": 1, "都道府県コード": 18, "市区町村コード": 202, "所在地": "福井県敦賀市桜ケ丘町３３番１号", "緯度": 35.622617, "経度": 136.034347, "url": "https://www.iryou.teikyouseido.mhlw.go.jp/znk-web/juminkanja/S2430/initialize?prefCd=18&kikanCd=1180000700&kikanKbn=1", "url2": "https://tsuruga.hosp.go.jp/", "内容": "独立行政法人　国立病院機構　敦賀医療センター【1:病院】【診療科目:0】【一般病床数:220療養病床数:0精神病床数:0感染症病床数:0合計病床数:220】福井県敦賀市桜ケ丘町３３番１号" }, "geometry": { "type": "Point", "coordinates": [ 136.034347, 35.622617 ] } },
{ "type": "Feature", "properties": { "ID": 1811180000710, "正式名称": "市立敦賀病院", "機関区分": 1, "都道府県コード": 18, "市区町村コード": 202, "所在地": "福井県敦賀市三島町１－６－６０", "緯度": 35.6527, "経度": 136.064292, "url": "https://www.iryou.teikyouseido.mhlw.go.jp/znk-web/juminkanja/S2430/initialize?prefCd=18&kikanCd=1180000710&kikanKbn=1", "url2": "https://tsuruga-hp.jp/", "内容": "市立敦賀病院【1:病院】【診療科目:0】【一般病床数:330療養病床数:0精神病床数:0感染症病床数:2合計病床数:332】福井県敦賀市三島町１－６－６０" }, "geometry": { "type": "Point", "coordinates": [ 136.064292, 35.6527 ] } },
{ "type": "Feature", "properties": { "ID": 1811180000720, "正式名称": "公立小浜病院組合　レイクヒルズ美方病院", "機関区分": 1, "都道府県コード": 18, "市区町村コード": 501, "所在地": "福井県三方上中郡若狭町気山３１５－１－９", "緯度": 35.584867, "経度": 135.913625, "url": "https://www.iryou.teikyouseido.mhlw.go.jp/znk-web/juminkanja/S2430/initialize?prefCd=18&kikanCd=1180000720&kikanKbn=1", "url2": "http://www.obamahp-wakasa.jp/reiku/index.htm", "内容": "公立小浜病院組合　レイクヒルズ美方病院【1:病院】【診療科目:0】【一般病床数:42療養病床数:58精神病床数:0感染症病床数:0合計病床数:100】福井県三方上中郡若狭町気山３１５－１－９" }, "geometry": { "type": "Point", "coordinates": [ 135.913625, 35.584867 ] } },
{ "type": "Feature", "properties": { "ID": 1811180000730, "正式名称": "医療法人　敦賀温泉病院", "機関区分": 1, "都道府県コード": 18, "市区町村コード": 202, "所在地": "福井県敦賀市吉河４１号１番地５", "緯度": 35.636811, "経度": 136.085125, "url": "https://www.iryou.teikyouseido.mhlw.go.jp/znk-web/juminkanja/S2430/initialize?prefCd=18&kikanCd=1180000730&kikanKbn=1", "url2": "http://www.tsurugaonsen-hp.or.jp/", "内容": "医療法人　敦賀温泉病院【1:病院】【診療科目:0】【一般病床数:0療養病床数:0精神病床数:110感染症病床数:0合計病床数:110】福井県敦賀市吉河４１号１番地５" }, "geometry": { "type": "Point", "coordinates": [ 136.085125, 35.636811 ] } },
{ "type": "Feature", "properties": { "ID": 1811180000740, "正式名称": "泉ヶ丘病院", "機関区分": 1, "都道府県コード": 18, "市区町村コード": 202, "所在地": "福井県敦賀市中８１号岩ケ鼻１－１１", "緯度": 35.638589, "経度": 136.087153, "url": "https://www.iryou.teikyouseido.mhlw.go.jp/znk-web/juminkanja/S2430/initialize?prefCd=18&kikanCd=1180000740&kikanKbn=1", "url2": "http://www.izumigaoka.jp", "内容": "泉ヶ丘病院【1:病院】【診療科目:0】【一般病床数:39療養病床数:77精神病床数:0感染症病床数:0合計病床数:116】福井県敦賀市中８１号岩ケ鼻１－１１" }, "geometry": { "type": "Point", "coordinates": [ 136.087153, 35.638589 ] } },
{ "type": "Feature", "properties": { "ID": 1811180000770, "正式名称": "杉田玄白記念公立小浜病院", "機関区分": 1, "都道府県コード": 18, "市区町村コード": 204, "所在地": "福井県小浜市大手町２番２号", "緯度": 35.494437, "経度": 135.745868, "url": "https://www.iryou.teikyouseido.mhlw.go.jp/znk-web/juminkanja/S2430/initialize?prefCd=18&kikanCd=1180000770&kikanKbn=1", "url2": "http://www.obamahp-wakasa.jp/hospital/", "内容": "杉田玄白記念公立小浜病院【1:病院】【診療科目:0】【一般病床数:296療養病床数:50精神病床数:100感染症病床数:2合計病床数:456】福井県小浜市大手町２番２号" }, "geometry": { "type": "Point", "coordinates": [ 135.745868, 35.494437 ] } },
{ "type": "Feature", "properties": { "ID": 1811180000780, "正式名称": "嶺南こころの病院", "機関区分": 1, "都道府県コード": 18, "市区町村コード": 501, "所在地": "福井県三方上中郡若狭町市場２４－１８－１", "緯度": 35.464871, "経度": 135.857759, "url": "https://www.iryou.teikyouseido.mhlw.go.jp/znk-web/juminkanja/S2430/initialize?prefCd=18&kikanCd=1180000780&kikanKbn=1", "url2": "http://reinan.jp", "内容": "嶺南こころの病院【1:病院】【診療科目:0】【一般病床数:0療養病床数:0精神病床数:170感染症病床数:0合計病床数:170】福井県三方上中郡若狭町市場２４－１８－１" }, "geometry": { "type": "Point", "coordinates": [ 135.857759, 35.464871 ] } },
{ "type": "Feature", "properties": { "ID": 1811180000800, "正式名称": "独立行政法人地域医療機能推進機構　若狭高浜病院", "機関区分": 1, "都道府県コード": 18, "市区町村コード": 481, "所在地": "福井県大飯郡高浜町宮崎８７－１４－２", "緯度": 35.489158, "経度": 135.547565, "url": "https://www.iryou.teikyouseido.mhlw.go.jp/znk-web/juminkanja/S2430/initialize?prefCd=18&kikanCd=1180000800&kikanKbn=1", "url2": "http://takahama.jcho.go.jp", "内容": "独立行政法人地域医療機能推進機構　若狭高浜病院【1:病院】【診療科目:0】【一般病床数:40療養病床数:50精神病床数:0感染症病床数:0合計病床数:90】福井県大飯郡高浜町宮崎８７－１４－２" }, "geometry": { "type": "Point", "coordinates": [ 135.547565, 35.489158 ] } },
{ "type": "Feature", "properties": { "ID": 1811180000820, "正式名称": "田中病院", "機関区分": 1, "都道府県コード": 18, "市区町村コード": 204, "所在地": "福井県小浜市遠敷１０－６０１－１", "緯度": 35.485283, "経度": 135.774792, "url": "https://www.iryou.teikyouseido.mhlw.go.jp/znk-web/juminkanja/S2430/initialize?prefCd=18&kikanCd=1180000820&kikanKbn=1", "url2": "http://www11.plala.or.jp/jyakueikai/", "内容": "田中病院【1:病院】【診療科目:0】【一般病床数:0療養病床数:60精神病床数:0感染症病床数:0合計病床数:60】福井県小浜市遠敷１０－６０１－１" }, "geometry": { "type": "Point", "coordinates": [ 135.774792, 35.485283 ] } },
{ "type": "Feature", "properties": { "ID": 1811180000830, "正式名称": "独立行政法人地域医療機能推進機構　福井勝山総合病院", "機関区分": 1, "都道府県コード": 18, "市区町村コード": 206, "所在地": "福井県勝山市長山町２丁目６番２１号", "緯度": 36.071006, "経度": 136.506264, "url": "https://www.iryou.teikyouseido.mhlw.go.jp/znk-web/juminkanja/S2430/initialize?prefCd=18&kikanCd=1180000830&kikanKbn=1", "url2": "https://fukui.jcho.go.jp/", "内容": "独立行政法人地域医療機能推進機構　福井勝山総合病院【1:病院】【診療科目:0】【一般病床数:199療養病床数:0精神病床数:0感染症病床数:0合計病床数:199】福井県勝山市長山町２丁目６番２１号" }, "geometry": { "type": "Point", "coordinates": [ 136.506264, 36.071006 ] } },
{ "type": "Feature", "properties": { "ID": 1811180000850, "正式名称": "医療法人キラキラ会　松田病院", "機関区分": 1, "都道府県コード": 18, "市区町村コード": 205, "所在地": "福井県大野市要町１番１３号", "緯度": 35.990589, "経度": 136.488875, "url": "https://www.iryou.teikyouseido.mhlw.go.jp/znk-web/juminkanja/S2430/initialize?prefCd=18&kikanCd=1180000850&kikanKbn=1", "url2": null, "内容": "医療法人キラキラ会　松田病院【1:病院】【診療科目:0】【一般病床数:0療養病床数:49精神病床数:0感染症病床数:0合計病床数:49】福井県大野市要町１番１３号" }, "geometry": { "type": "Point", "coordinates": [ 136.488875, 35.990589 ] } },
{ "type": "Feature", "properties": { "ID": 1811180000860, "正式名称": "医療法人笠原病院", "機関区分": 1, "都道府県コード": 18, "市区町村コード": 209, "所在地": "福井県越前市塚町２１４", "緯度": 35.916144, "経度": 136.191792, "url": "https://www.iryou.teikyouseido.mhlw.go.jp/znk-web/juminkanja/S2430/initialize?prefCd=18&kikanCd=1180000860&kikanKbn=1", "url2": "http://www.kasahara-hosp.or.jp", "内容": "医療法人笠原病院【1:病院】【診療科目:0】【一般病床数:43療養病床数:28精神病床数:0感染症病床数:0合計病床数:71】福井県越前市塚町２１４" }, "geometry": { "type": "Point", "coordinates": [ 136.191792, 35.916144 ] } },
{ "type": "Feature", "properties": { "ID": 1811180000870, "正式名称": "公立丹南病院", "機関区分": 1, "都道府県コード": 18, "市区町村コード": 207, "所在地": "福井県鯖江市三六町１－２－３１", "緯度": 35.970044, "経度": 136.178029, "url": "https://www.iryou.teikyouseido.mhlw.go.jp/znk-web/juminkanja/S2430/initialize?prefCd=18&kikanCd=1180000870&kikanKbn=1", "url2": "https://www.tannanhp-jadecom.jp/", "内容": "公立丹南病院【1:病院】【診療科目:0】【一般病床数:175療養病床数:0精神病床数:0感染症病床数:4合計病床数:179】福井県鯖江市三六町１－２－３１" }, "geometry": { "type": "Point", "coordinates": [ 136.178029, 35.970044 ] } },
{ "type": "Feature", "properties": { "ID": 1811180000880, "正式名称": "広瀬病院", "機関区分": 1, "都道府県コード": 18, "市区町村コード": 207, "所在地": "福井県鯖江市旭町１－２－８", "緯度": 35.944006, "経度": 136.187292, "url": "https://www.iryou.teikyouseido.mhlw.go.jp/znk-web/juminkanja/S2430/initialize?prefCd=18&kikanCd=1180000880&kikanKbn=1", "url2": "http://hirosebyouin.com", "内容": "広瀬病院【1:病院】【診療科目:0】【一般病床数:32療養病床数:94精神病床数:0感染症病床数:0合計病床数:126】福井県鯖江市旭町１－２－８" }, "geometry": { "type": "Point", "coordinates": [ 136.187292, 35.944006 ] } },
{ "type": "Feature", "properties": { "ID": 1811180000950, "正式名称": "岩井病院", "機関区分": 1, "都道府県コード": 18, "市区町村コード": 201, "所在地": "福井県福井市日之出２丁目１５番１０号", "緯度": 36.064061, "経度": 136.228347, "url": "https://www.iryou.teikyouseido.mhlw.go.jp/znk-web/juminkanja/S2430/initialize?prefCd=18&kikanCd=1180000950&kikanKbn=1", "url2": "http://www.horae.dti.ne.jp/~akio-i/", "内容": "岩井病院【1:病院】【診療科目:0】【一般病床数:60療養病床数:140精神病床数:0感染症病床数:0合計病床数:200】福井県福井市日之出２丁目１５番１０号" }, "geometry": { "type": "Point", "coordinates": [ 136.228347, 36.064061 ] } },
{ "type": "Feature", "properties": { "ID": 1811180000970, "正式名称": "さくら病院", "機関区分": 1, "都道府県コード": 18, "市区町村コード": 201, "所在地": "福井県福井市下荒井町第２１号４４番地の１", "緯度": 36.025061, "経度": 136.209153, "url": "https://www.iryou.teikyouseido.mhlw.go.jp/znk-web/juminkanja/S2430/initialize?prefCd=18&kikanCd=1180000970&kikanKbn=1", "url2": "https://www.senjukai-sakura.com/", "内容": "さくら病院【1:病院】【診療科目:0】【一般病床数:29療養病床数:34精神病床数:0感染症病床数:0合計病床数:63】福井県福井市下荒井町第２１号４４番地の１" }, "geometry": { "type": "Point", "coordinates": [ 136.209153, 36.025061 ] } },
{ "type": "Feature", "properties": { "ID": 1811180502780, "正式名称": "奥村病院", "機関区分": 1, "都道府県コード": 18, "市区町村コード": 201, "所在地": "福井県福井市板垣５丁目２０１番地", "緯度": 36.044188, "経度": 136.227989, "url": "https://www.iryou.teikyouseido.mhlw.go.jp/znk-web/juminkanja/S2430/initialize?prefCd=18&kikanCd=1180502780&kikanKbn=1", "url2": "http://www.hikarigroup.jp/okumura/", "内容": "奥村病院【1:病院】【診療科目:0】【一般病床数:33療養病床数:0精神病床数:0感染症病床数:0合計病床数:33】福井県福井市板垣５丁目２０１番地" }, "geometry": { "type": "Point", "coordinates": [ 136.227989, 36.044188 ] } }
]
}
