{
"type": "FeatureCollection",
"name": "geo_18_居宅介護支援",
"crs": { "type": "name", "properties": { "name": "urn:ogc:def:crs:OGC:1.3:CRS84" } },
"features": [
{ "type": "Feature", "properties": { "内容": "ケアプランセンター　華みずき【居宅介護支援】福井県福井市種池１丁目６０９番2", "url": "https://www.kaigokensaku.mhlw.go.jp/18/index.php?action_kouhyou_detail_004_kani=true&JigyosyoCd=1870103163-00&ServiceCd=430&Type=search", "url2": "http://tanaka-seikeigannka.com/" }, "geometry": { "type": "Point", "coordinates": [ 136.192247755603034, 36.035660831407192 ] } },
{ "type": "Feature", "properties": { "内容": "ゆうあい居宅介護支援センター【居宅介護支援】福井県福井市大願寺３－９－３", "url": "https://www.kaigokensaku.mhlw.go.jp/18/index.php?action_kouhyou_detail_004_kani=true&JigyosyoCd=1870100763-00&ServiceCd=430&Type=search", "url2": "http://fukui-youi.com/" }, "geometry": { "type": "Point", "coordinates": [ 136.228329300000041, 36.084356400000011 ] } },
{ "type": "Feature", "properties": { "内容": "あわーず福井居宅介護支援ステーション【居宅介護支援】大手2-15-11", "url": "https://www.kaigokensaku.mhlw.go.jp/18/index.php?action_kouhyou_detail_004_kani=true&JigyosyoCd=1870103304-00&ServiceCd=430&Type=search", "url2": "http://ours-sr.co.jp" }, "geometry": { "type": "Point", "coordinates": [ 136.225365399999987, 36.0663251 ] } },
{ "type": "Feature", "properties": { "内容": "ニチイケアセンター成和【居宅介護支援】福井県福井市城東2丁目14-1", "url": "https://www.kaigokensaku.mhlw.go.jp/18/index.php?action_kouhyou_detail_004_kani=true&JigyosyoCd=1870100656-00&ServiceCd=430&Type=search", "url2": "http://www.nichiigakkan.co.jp" }, "geometry": { "type": "Point", "coordinates": [ 136.236090099999956, 36.0618263 ] } },
{ "type": "Feature", "properties": { "内容": "宮﨑整形外科　居宅介護支援事業所【居宅介護支援】加茂河原3丁目8番20号", "url": "https://www.kaigokensaku.mhlw.go.jp/18/index.php?action_kouhyou_detail_004_kani=true&JigyosyoCd=1870103114-00&ServiceCd=430&Type=search", "url2": null }, "geometry": { "type": "Point", "coordinates": [ 136.19191909999995, 36.0627503 ] } },
{ "type": "Feature", "properties": { "内容": "ケアプラン　ゆう【居宅介護支援】福井県福井市羽坂町33-1-1", "url": "https://www.kaigokensaku.mhlw.go.jp/18/index.php?action_kouhyou_detail_004_kani=true&JigyosyoCd=1870103395-00&ServiceCd=430&Type=search", "url2": "takaoen.jp" }, "geometry": { "type": "Point", "coordinates": [ 136.1366084, 36.0602637 ] } },
{ "type": "Feature", "properties": { "内容": "岩井病院居宅介護支援センター【居宅介護支援】福井県福井市日之出2丁目15-10", "url": "https://www.kaigokensaku.mhlw.go.jp/18/index.php?action_kouhyou_detail_004_kani=true&JigyosyoCd=1870101308-00&ServiceCd=430&Type=search", "url2": null }, "geometry": { "type": "Point", "coordinates": [ 136.228395799999987, 36.0639033 ] } },
{ "type": "Feature", "properties": { "内容": "ヴィルヌーブあさくらケアプランセンター【居宅介護支援】福井市豊島1丁目2-13", "url": "https://www.kaigokensaku.mhlw.go.jp/18/index.php?action_kouhyou_detail_004_kani=true&JigyosyoCd=1870102876-00&ServiceCd=430&Type=search", "url2": "http://www.asakuraen.jp" }, "geometry": { "type": "Point", "coordinates": [ 136.220830100000057, 36.0580651 ] } },
{ "type": "Feature", "properties": { "内容": "株式会社この道グループライフサポートセンター【居宅介護支援】福井県福井市燈豊町第39号6番地59", "url": "https://www.kaigokensaku.mhlw.go.jp/18/index.php?action_kouhyou_detail_004_kani=true&JigyosyoCd=1870103445-00&ServiceCd=430&Type=search", "url2": null }, "geometry": { "type": "Point", "coordinates": [ 136.158670983852517, 36.133425133792713 ] } },
{ "type": "Feature", "properties": { "内容": "居宅介護支援センターいこい【居宅介護支援】福井県福井市光陽２丁目２１－３", "url": "https://www.kaigokensaku.mhlw.go.jp/18/index.php?action_kouhyou_detail_004_kani=true&JigyosyoCd=1870102421-00&ServiceCd=430&Type=search", "url2": "http://www.kaigo-ikoi.net/" }, "geometry": { "type": "Point", "coordinates": [ 136.20050027121124, 36.064771204130317 ] } },
{ "type": "Feature", "properties": { "内容": "花園指定居宅介護支援センター【居宅介護支援】福井県福井市松本1丁目36番15号", "url": "https://www.kaigokensaku.mhlw.go.jp/18/index.php?action_kouhyou_detail_004_kani=true&JigyosyoCd=1870100268-00&ServiceCd=430&Type=search", "url2": "http://www.hanazono-f.com" }, "geometry": { "type": "Point", "coordinates": [ 136.2319344, 36.0756549 ] } },
{ "type": "Feature", "properties": { "内容": "ケアプラン花【居宅介護支援】福井県福井市文京5丁目17-26", "url": "https://www.kaigokensaku.mhlw.go.jp/18/index.php?action_kouhyou_detail_004_kani=true&JigyosyoCd=1870104104-00&ServiceCd=430&Type=search", "url2": "careplan-hana.com" }, "geometry": { "type": "Point", "coordinates": [ 136.2036244, 36.0771634 ] } },
{ "type": "Feature", "properties": { "内容": "居宅介護支援事業所いわき【居宅介護支援】福井市三十八社町１０－８", "url": "https://www.kaigokensaku.mhlw.go.jp/18/index.php?action_kouhyou_detail_004_kani=true&JigyosyoCd=1810120517-00&ServiceCd=430&Type=search", "url2": null }, "geometry": { "type": "Point", "coordinates": [ 136.193929600000075, 35.9969835 ] } },
{ "type": "Feature", "properties": { "内容": "合同会社ＩＺＵＭＯ【居宅介護支援】福井県福井市志比口3丁目3-39", "url": "https://www.kaigokensaku.mhlw.go.jp/18/index.php?action_kouhyou_detail_004_kani=true&JigyosyoCd=1870103981-00&ServiceCd=430&Type=search", "url2": null }, "geometry": { "type": "Point", "coordinates": [ 136.2374566, 36.0723634 ] } },
{ "type": "Feature", "properties": { "内容": "この道グループライフサポートセンター【居宅介護支援】福井市燈豊町39-6-59", "url": "https://www.kaigokensaku.mhlw.go.jp/18/index.php?action_kouhyou_detail_004_kani=true&JigyosyoCd=1870104112-00&ServiceCd=430&Type=search", "url2": null }, "geometry": { "type": "Point", "coordinates": [ 136.1402133, 36.1233327 ] } },
{ "type": "Feature", "properties": { "内容": "こしの医院　居宅介護支援事業所【居宅介護支援】福井市蒲生町１－９１－１", "url": "https://www.kaigokensaku.mhlw.go.jp/18/index.php?action_kouhyou_detail_004_kani=true&JigyosyoCd=1810120947-00&ServiceCd=430&Type=search", "url2": null }, "geometry": { "type": "Point", "coordinates": [ 136.011030600000026, 36.0386829 ] } },
{ "type": "Feature", "properties": { "内容": "花むつ苑居宅介護支援事業所【居宅介護支援】福井市　花堂中１丁目5-6", "url": "https://www.kaigokensaku.mhlw.go.jp/18/index.php?action_kouhyou_detail_004_kani=true&JigyosyoCd=1870102256-00&ServiceCd=430&Type=search", "url2": "http://shinseikai-f.org/asamutsuen/" }, "geometry": { "type": "Point", "coordinates": [ 136.215312199999971, 36.0391566 ] } },
{ "type": "Feature", "properties": { "内容": "柔整介護センター【居宅介護支援】福井県福井市花堂東２丁目３０１", "url": "https://www.kaigokensaku.mhlw.go.jp/18/index.php?action_kouhyou_detail_004_kani=true&JigyosyoCd=1870102702-00&ServiceCd=430&Type=search", "url2": null }, "geometry": { "type": "Point", "coordinates": [ 136.2221261, 36.0423801 ] } },
{ "type": "Feature", "properties": { "内容": "ＳＯＭＰＯケア　福井　居宅介護支援【居宅介護支援】福井県福井市城東1丁目２－１３", "url": "https://www.kaigokensaku.mhlw.go.jp/18/index.php?action_kouhyou_detail_004_kani=true&JigyosyoCd=1870102090-00&ServiceCd=430&Type=search", "url2": "https://www.sompocare.com" }, "geometry": { "type": "Point", "coordinates": [ 136.23215705520019, 36.060249827311111 ] } },
{ "type": "Feature", "properties": { "内容": "福井赤十字病院居宅介護支援事業所【居宅介護支援】福井市月見2丁目4番1号", "url": "https://www.kaigokensaku.mhlw.go.jp/18/index.php?action_kouhyou_detail_004_kani=true&JigyosyoCd=1810117117-00&ServiceCd=430&Type=search", "url2": "http://www.fukui-med.jrc.or.jp/" }, "geometry": { "type": "Point", "coordinates": [ 136.212870299999963, 36.0475109 ] } },
{ "type": "Feature", "properties": { "内容": "ハート居宅介護支援事業所【居宅介護支援】福井市新保2丁目228番地", "url": "https://www.kaigokensaku.mhlw.go.jp/18/index.php?action_kouhyou_detail_004_kani=true&JigyosyoCd=1810117539-00&ServiceCd=430&Type=search", "url2": "http://www.fcvc.or.jp/section/home-care.php" }, "geometry": { "type": "Point", "coordinates": [ 136.25025549999998, 36.077839 ] } },
{ "type": "Feature", "properties": { "内容": "ひらい内科消化器科医院居宅介護支援事業所【居宅介護支援】福井市渕4丁目１８１３番地", "url": "https://www.kaigokensaku.mhlw.go.jp/18/index.php?action_kouhyou_detail_004_kani=true&JigyosyoCd=1810119907-00&ServiceCd=430&Type=search", "url2": "http://www.hirainaikashoukakika.org/" }, "geometry": { "type": "Point", "coordinates": [ 136.182073, 36.0455021 ] } },
{ "type": "Feature", "properties": { "内容": "九頭竜長生苑居宅介護支援事業所【居宅介護支援】福井市寺前町2－2－2", "url": "https://www.kaigokensaku.mhlw.go.jp/18/index.php?action_kouhyou_detail_004_kani=true&JigyosyoCd=1850180033-00&ServiceCd=430&Type=search", "url2": "http://www.fukusenkai.jp/" }, "geometry": { "type": "Point", "coordinates": [ 136.23444377672115, 36.103456781625859 ] } },
{ "type": "Feature", "properties": { "内容": "つくし野ケアサービスセンター【居宅介護支援】福井市川合鷲塚町４９－５", "url": "https://www.kaigokensaku.mhlw.go.jp/18/index.php?action_kouhyou_detail_004_kani=true&JigyosyoCd=1850180066-00&ServiceCd=430&Type=search", "url2": "http://www.senjukai.com/" }, "geometry": { "type": "Point", "coordinates": [ 136.213011599999959, 36.1142721 ] } },
{ "type": "Feature", "properties": { "内容": "ケアホーム・さいせい居宅介護支援事業所【居宅介護支援】和田中町徳万28", "url": "https://www.kaigokensaku.mhlw.go.jp/18/index.php?action_kouhyou_detail_004_kani=true&JigyosyoCd=1850180082-00&ServiceCd=430&Type=search", "url2": "https://carehomesaisei-fukui-saiseikai.com" }, "geometry": { "type": "Point", "coordinates": [ 136.253141699999986, 36.0460283 ] } },
{ "type": "Feature", "properties": { "内容": "さくら居宅介護支援事業所【居宅介護支援】福井市花堂東2丁目408", "url": "https://www.kaigokensaku.mhlw.go.jp/18/index.php?action_kouhyou_detail_004_kani=true&JigyosyoCd=1850180108-00&ServiceCd=430&Type=search", "url2": "http://www.sensuikai.jp" }, "geometry": { "type": "Point", "coordinates": [ 136.222817099999929, 36.041787 ] } },
{ "type": "Feature", "properties": { "内容": "公益社団法人　福井市シルバー人材センター介護保険事業所【居宅介護支援】福井市文京１丁目２６－１０福井市ワークプラザ", "url": "https://www.kaigokensaku.mhlw.go.jp/18/index.php?action_kouhyou_detail_004_kani=true&JigyosyoCd=1870100359-00&ServiceCd=430&Type=search", "url2": "E-mail:genkikun-Kaigo1@sjc.ne." }, "geometry": { "type": "Point", "coordinates": [ 136.221154829560845, 36.078384449224096 ] } },
{ "type": "Feature", "properties": { "内容": "山翠苑居宅支援センター【居宅介護支援】福井県福井市堅達町24-1", "url": "https://www.kaigokensaku.mhlw.go.jp/18/index.php?action_kouhyou_detail_004_kani=true&JigyosyoCd=1870100441-00&ServiceCd=430&Type=search", "url2": "http://www.sansuien.jp" }, "geometry": { "type": "Point", "coordinates": [ 136.271228599999972, 36.0750076 ] } },
{ "type": "Feature", "properties": { "内容": "藤島園ケアマネージメントセンター【居宅介護支援】福井市高木中央３丁目1701", "url": "https://www.kaigokensaku.mhlw.go.jp/18/index.php?action_kouhyou_detail_004_kani=true&JigyosyoCd=1870100177-00&ServiceCd=430&Type=search", "url2": "http://www.fujishimaen.or.jp/" }, "geometry": { "type": "Point", "coordinates": [ 136.2396814, 36.0924394 ] } },
{ "type": "Feature", "properties": { "内容": "さくらが丘介護相談センタ－【居宅介護支援】福井市本堂町５１字３３番地", "url": "https://www.kaigokensaku.mhlw.go.jp/18/index.php?action_kouhyou_detail_004_kani=true&JigyosyoCd=1870100185-00&ServiceCd=430&Type=search", "url2": "http://www.takaoen.jp/" }, "geometry": { "type": "Point", "coordinates": [ 136.126684399999931, 36.0564834 ] } },
{ "type": "Feature", "properties": { "内容": "あさむつ苑居宅介護支援事業所【居宅介護支援】福井市引目町第２１号９番地の２", "url": "https://www.kaigokensaku.mhlw.go.jp/18/index.php?action_kouhyou_detail_004_kani=true&JigyosyoCd=1870100227-00&ServiceCd=430&Type=search", "url2": "http://www.asamutuen.jp/" }, "geometry": { "type": "Point", "coordinates": [ 136.19742240000005, 36.022397 ] } },
{ "type": "Feature", "properties": { "内容": "悠和園介護相談センター【居宅介護支援】福井県福井市免鳥町22-74", "url": "https://www.kaigokensaku.mhlw.go.jp/18/index.php?action_kouhyou_detail_004_kani=true&JigyosyoCd=1870100250-00&ServiceCd=430&Type=search", "url2": "http://www.yuwaen.jp/" }, "geometry": { "type": "Point", "coordinates": [ 136.074891, 36.1309826 ] } },
{ "type": "Feature", "properties": { "内容": "県民せいきょう居宅介護支援事業所【居宅介護支援】福井県福井市羽水1丁目107番地", "url": "https://www.kaigokensaku.mhlw.go.jp/18/index.php?action_kouhyou_detail_004_kani=true&JigyosyoCd=1870100342-00&ServiceCd=430&Type=search", "url2": "http://www.fukui.coop/care/kaigohoken/" }, "geometry": { "type": "Point", "coordinates": [ 136.227266800000052, 36.0422703 ] } },
{ "type": "Feature", "properties": { "内容": "宝珠苑　指定居宅介護支援事業所【居宅介護支援】福井市内山梨子町2-3-1", "url": "https://www.kaigokensaku.mhlw.go.jp/18/index.php?action_kouhyou_detail_004_kani=true&JigyosyoCd=1870100037-00&ServiceCd=430&Type=search", "url2": "http://houjuen.org/" }, "geometry": { "type": "Point", "coordinates": [ 136.157391857672138, 36.135117523171367 ] } },
{ "type": "Feature", "properties": { "内容": "たんぽぽ苑居宅介護支援センター【居宅介護支援】福井市石盛３丁目301番地", "url": "https://www.kaigokensaku.mhlw.go.jp/18/index.php?action_kouhyou_detail_004_kani=true&JigyosyoCd=1870100045-00&ServiceCd=430&Type=search", "url2": "https://www.tanpopoen-senjukai.com" }, "geometry": { "type": "Point", "coordinates": [ 136.236864954787734, 36.118552825962993 ] } },
{ "type": "Feature", "properties": { "内容": "愛全園居宅介護支援センター【居宅介護支援】福井県福井市丸山町40-7", "url": "https://www.kaigokensaku.mhlw.go.jp/18/index.php?action_kouhyou_detail_004_kani=true&JigyosyoCd=1870100060-00&ServiceCd=430&Type=search", "url2": "http://www.asuwafukushikai.jp/aizenen/" }, "geometry": { "type": "Point", "coordinates": [ 136.251463699999931, 36.0776558 ] } },
{ "type": "Feature", "properties": { "内容": "文珠苑居宅介護支援事業所【居宅介護支援】福井市北山町35-5-1", "url": "https://www.kaigokensaku.mhlw.go.jp/18/index.php?action_kouhyou_detail_004_kani=true&JigyosyoCd=1870100169-00&ServiceCd=430&Type=search", "url2": "http://www.monjuen.com/" }, "geometry": { "type": "Point", "coordinates": [ 136.250863100000061, 36.0016067 ] } },
{ "type": "Feature", "properties": { "内容": "福井厚生病院介護保険相談センター【居宅介護支援】福井市下六条町217番地", "url": "https://www.kaigokensaku.mhlw.go.jp/18/index.php?action_kouhyou_detail_004_kani=true&JigyosyoCd=1870100615-00&ServiceCd=430&Type=search", "url2": "http://koseikaigroup.jp/kaigo/soudan/kaigohokensoudan_center/" }, "geometry": { "type": "Point", "coordinates": [ 136.234072200000014, 36.0368627 ] } },
{ "type": "Feature", "properties": { "内容": "新田塚介護相談ｾﾝﾀｰ【居宅介護支援】福井県福井市新田塚1‐42‐1", "url": "https://www.kaigokensaku.mhlw.go.jp/18/index.php?action_kouhyou_detail_004_kani=true&JigyosyoCd=1870100623-00&ServiceCd=430&Type=search", "url2": null }, "geometry": { "type": "Point", "coordinates": [ 136.205865300000028, 36.0923078 ] } },
{ "type": "Feature", "properties": { "内容": "あさくら苑介護支援事業所【居宅介護支援】福井市下六条町18-32", "url": "https://www.kaigokensaku.mhlw.go.jp/18/index.php?action_kouhyou_detail_004_kani=true&JigyosyoCd=1870100755-00&ServiceCd=430&Type=search", "url2": "http://www.asakuraen.jp" }, "geometry": { "type": "Point", "coordinates": [ 136.229378099999963, 36.0351768 ] } },
{ "type": "Feature", "properties": { "内容": "メイプルケア大宮介護相談センター【居宅介護支援】福井市大宮4丁目13番1号", "url": "https://www.kaigokensaku.mhlw.go.jp/18/index.php?action_kouhyou_detail_004_kani=true&JigyosyoCd=1870101126-00&ServiceCd=430&Type=search", "url2": "https://meipurucare.com/facillity.html" }, "geometry": { "type": "Point", "coordinates": [ 136.208087135581991, 36.081815171924994 ] } },
{ "type": "Feature", "properties": { "内容": "みどりの森居宅介護支援事業所【居宅介護支援】福井県福井市文京2丁目6番10号介護保険施設みどりの森　２階", "url": "https://www.kaigokensaku.mhlw.go.jp/18/index.php?action_kouhyou_detail_004_kani=true&JigyosyoCd=1870101183-00&ServiceCd=430&Type=search", "url2": "http://www.fmatsubara.com/" }, "geometry": { "type": "Point", "coordinates": [ 136.2180816, 36.0774609 ] } },
{ "type": "Feature", "properties": { "内容": "ひかりケアプランセンター【居宅介護支援】福井県福井市木田1丁目3308番地うららの家", "url": "https://www.kaigokensaku.mhlw.go.jp/18/index.php?action_kouhyou_detail_004_kani=true&JigyosyoCd=1870101423-00&ServiceCd=430&Type=search", "url2": "http://www.hikarigroup.jp" }, "geometry": { "type": "Point", "coordinates": [ 136.226638699999967, 36.0470307 ] } },
{ "type": "Feature", "properties": { "内容": "すみれ荘居宅介護支援センター【居宅介護支援】福井県福井市島寺町83-1", "url": "https://www.kaigokensaku.mhlw.go.jp/18/index.php?action_kouhyou_detail_004_kani=true&JigyosyoCd=1870101597-00&ServiceCd=430&Type=search", "url2": "http://www.s-shinseikai.jp" }, "geometry": { "type": "Point", "coordinates": [ 136.14238649999993, 36.0174078 ] } },
{ "type": "Feature", "properties": { "内容": "HOMETOWN　コスモス居宅介護支援事業所【居宅介護支援】福井県福井市帆谷町１字外山３３", "url": "https://www.kaigokensaku.mhlw.go.jp/18/index.php?action_kouhyou_detail_004_kani=true&JigyosyoCd=1870101712-00&ServiceCd=430&Type=search", "url2": "http://www.ht-cosmos.or.jp/" }, "geometry": { "type": "Point", "coordinates": [ 136.235908105834937, 36.007543590246677 ] } },
{ "type": "Feature", "properties": { "内容": "ほっとマネージメント福井【居宅介護支援】福井県福井市大和田2－2101ほっと地域包括ケアセンター福井北", "url": "https://www.kaigokensaku.mhlw.go.jp/18/index.php?action_kouhyou_detail_004_kani=true&JigyosyoCd=1870101720-00&ServiceCd=430&Type=search", "url2": "http://www.hotreha.com" }, "geometry": { "type": "Point", "coordinates": [ 136.253761416744027, 36.098830132625999 ] } },
{ "type": "Feature", "properties": { "内容": "あさがお在宅介護支援事業所【居宅介護支援】福井県福井市新保町19字35番1", "url": "https://www.kaigokensaku.mhlw.go.jp/18/index.php?action_kouhyou_detail_004_kani=true&JigyosyoCd=1870101761-00&ServiceCd=430&Type=search", "url2": "http://fukui-medix.com" }, "geometry": { "type": "Point", "coordinates": [ 136.258813199999963, 36.0851414 ] } },
{ "type": "Feature", "properties": { "内容": "にこにこ介護相談センター花堂【居宅介護支援】福井県福井市花堂中２丁目27-1TKビル102", "url": "https://www.kaigokensaku.mhlw.go.jp/18/index.php?action_kouhyou_detail_004_kani=true&JigyosyoCd=1870104088-00&ServiceCd=430&Type=search", "url2": null }, "geometry": { "type": "Point", "coordinates": [ 136.213319364695764, 36.036592323613633 ] } },
{ "type": "Feature", "properties": { "内容": "みのりの絆ケアプランセンター【居宅介護支援】福井県福井市新田塚1丁目55-1", "url": "https://www.kaigokensaku.mhlw.go.jp/18/index.php?action_kouhyou_detail_004_kani=true&JigyosyoCd=1870103775-00&ServiceCd=430&Type=search", "url2": "https://www.minorinokizuna.com" }, "geometry": { "type": "Point", "coordinates": [ 136.2057394, 36.0931501 ] } },
{ "type": "Feature", "properties": { "内容": "在宅勤務型居宅介護支援事業所フレックス【居宅介護支援】福井県福井市栗森1丁目1107-1", "url": "https://www.kaigokensaku.mhlw.go.jp/18/index.php?action_kouhyou_detail_004_kani=true&JigyosyoCd=1870103783-00&ServiceCd=430&Type=search", "url2": "https://fukui-flex.com/" }, "geometry": { "type": "Point", "coordinates": [ 136.243601790040714, 36.115100579062229 ] } },
{ "type": "Feature", "properties": { "内容": "光陽訪問看護ステーション居宅介護支援事業所【居宅介護支援】福井市光陽３－９－２３", "url": "https://www.kaigokensaku.mhlw.go.jp/18/index.php?action_kouhyou_detail_004_kani=true&JigyosyoCd=1860190063-00&ServiceCd=430&Type=search", "url2": "http://www.fukui-min-iren.com/iryouseikyou/" }, "geometry": { "type": "Point", "coordinates": [ 136.195902, 36.0658138 ] } },
{ "type": "Feature", "properties": { "内容": "かわにし苑介護相談センター【居宅介護支援】福井市砂子坂町第9号5番地", "url": "https://www.kaigokensaku.mhlw.go.jp/18/index.php?action_kouhyou_detail_004_kani=true&JigyosyoCd=1870101977-00&ServiceCd=430&Type=search", "url2": "http://kawanishien.com" }, "geometry": { "type": "Point", "coordinates": [ 136.147201099999961, 36.1462301 ] } },
{ "type": "Feature", "properties": { "内容": "居宅介護支援事業所　つくも苑【居宅介護支援】福井県福井市つくも２丁目５番５号", "url": "https://www.kaigokensaku.mhlw.go.jp/18/index.php?action_kouhyou_detail_004_kani=true&JigyosyoCd=1870102298-00&ServiceCd=430&Type=search", "url2": "http://tsukumoen.co.jp/" }, "geometry": { "type": "Point", "coordinates": [ 136.209161699999981, 36.0618394 ] } },
{ "type": "Feature", "properties": { "内容": "ふくし百選　プランニング日之出【居宅介護支援】福井市日之出１丁目１４－２３福燃ビル３階", "url": "https://www.kaigokensaku.mhlw.go.jp/18/index.php?action_kouhyou_detail_004_kani=true&JigyosyoCd=1870102413-00&ServiceCd=430&Type=search", "url2": "http://www.hs-k.co.jp/fukushi/service_care.html" }, "geometry": { "type": "Point", "coordinates": [ 136.22704061050635, 36.063881986035256 ] } },
{ "type": "Feature", "properties": { "内容": "モアヤング　介護相談所【居宅介護支援】福井市和田中町東沖田３０番地の１", "url": "https://www.kaigokensaku.mhlw.go.jp/18/index.php?action_kouhyou_detail_004_kani=true&JigyosyoCd=1870102454-00&ServiceCd=430&Type=search", "url2": "http://www.moreyoung.jp/" }, "geometry": { "type": "Point", "coordinates": [ 136.246609799999987, 36.0472005 ] } },
{ "type": "Feature", "properties": { "内容": "東安居介護相談センター【居宅介護支援】福井県福井市大瀬町23−101東安居苑", "url": "https://www.kaigokensaku.mhlw.go.jp/18/index.php?action_kouhyou_detail_004_kani=true&JigyosyoCd=1870102470-00&ServiceCd=430&Type=search", "url2": "http://www.kenrakukai.jp/higashiago/" }, "geometry": { "type": "Point", "coordinates": [ 136.185330099999987, 36.069569 ] } },
{ "type": "Feature", "properties": { "内容": "いなほ在宅介護支援事業所【居宅介護支援】福井市江端町20字20-24", "url": "https://www.kaigokensaku.mhlw.go.jp/18/index.php?action_kouhyou_detail_004_kani=true&JigyosyoCd=1870102504-00&ServiceCd=430&Type=search", "url2": "http://fukui-medix.com/" }, "geometry": { "type": "Point", "coordinates": [ 136.212361735429312, 36.025875986329567 ] } },
{ "type": "Feature", "properties": { "内容": "ケアプランセンターみげん【居宅介護支援】福井県福井市大宮6丁目17－24リベルテ竜郷　－大宮ー", "url": "https://www.kaigokensaku.mhlw.go.jp/18/index.php?action_kouhyou_detail_004_kani=true&JigyosyoCd=1870102629-00&ServiceCd=430&Type=search", "url2": "https://www.c-migen.jp/" }, "geometry": { "type": "Point", "coordinates": [ 136.200831423942503, 36.081807041597507 ] } },
{ "type": "Feature", "properties": { "内容": "ケアパートナーあゆみ【居宅介護支援】福井市上森田6丁目324番地", "url": "https://www.kaigokensaku.mhlw.go.jp/18/index.php?action_kouhyou_detail_004_kani=true&JigyosyoCd=1870102660-00&ServiceCd=430&Type=search", "url2": null }, "geometry": { "type": "Point", "coordinates": [ 136.235340812303122, 36.1140203450176 ] } },
{ "type": "Feature", "properties": { "内容": "社会福祉法人　新清会　二の丸苑　居宅介護支援事業所【居宅介護支援】福井県福井市大手２丁目２１－３二の丸苑", "url": "https://www.kaigokensaku.mhlw.go.jp/18/index.php?action_kouhyou_detail_004_kani=true&JigyosyoCd=1870102728-00&ServiceCd=430&Type=search", "url2": "http://www.asamutuen.jp/" }, "geometry": { "type": "Point", "coordinates": [ 136.222906339881064, 36.066629608708226 ] } },
{ "type": "Feature", "properties": { "内容": "JA福井県ケアプランセンターあい愛【居宅介護支援】福井県福井市舟橋新１丁目106番地", "url": "https://www.kaigokensaku.mhlw.go.jp/18/index.php?action_kouhyou_detail_004_kani=true&JigyosyoCd=1870102991-00&ServiceCd=430&Type=search", "url2": null }, "geometry": { "type": "Point", "coordinates": [ 136.2125036, 36.0983516 ] } },
{ "type": "Feature", "properties": { "内容": "あたご居宅介護支援事業所【居宅介護支援】福井県福井市明里町９番２０号", "url": "https://www.kaigokensaku.mhlw.go.jp/18/index.php?action_kouhyou_detail_004_kani=true&JigyosyoCd=1870103478-00&ServiceCd=430&Type=search", "url2": null }, "geometry": { "type": "Point", "coordinates": [ 136.197485199999932, 36.059934 ] } },
{ "type": "Feature", "properties": { "内容": "ケア・フレンズ居宅介護支援事業所【居宅介護支援】福井県福井市松本2丁目25-16", "url": "https://www.kaigokensaku.mhlw.go.jp/18/index.php?action_kouhyou_detail_004_kani=true&JigyosyoCd=1870102322-00&ServiceCd=430&Type=search", "url2": "http://care-friends.com/" }, "geometry": { "type": "Point", "coordinates": [ 136.226179199999933, 36.0746269 ] } },
{ "type": "Feature", "properties": { "内容": "楽ちんの家介護相談所【居宅介護支援】福井県福井市市波町24-12", "url": "https://www.kaigokensaku.mhlw.go.jp/18/index.php?action_kouhyou_detail_004_kani=true&JigyosyoCd=1870103072-00&ServiceCd=430&Type=search", "url2": "http://www.rakuchinoie.com" }, "geometry": { "type": "Point", "coordinates": [ 136.329651600000034, 36.0175938 ] } },
{ "type": "Feature", "properties": { "内容": "つぐみ居宅介護支援事業所【居宅介護支援】渕1丁目2215番地", "url": "https://www.kaigokensaku.mhlw.go.jp/18/index.php?action_kouhyou_detail_004_kani=true&JigyosyoCd=1870103221-00&ServiceCd=430&Type=search", "url2": null }, "geometry": { "type": "Point", "coordinates": [ 136.193817599405634, 36.038876555223247 ] } },
{ "type": "Feature", "properties": { "内容": "ケアプランセンターあそうづ【居宅介護支援】福井市三十八社町401-221階", "url": "https://www.kaigokensaku.mhlw.go.jp/18/index.php?action_kouhyou_detail_004_kani=true&JigyosyoCd=1870104179-00&ServiceCd=430&Type=search", "url2": null }, "geometry": { "type": "Point", "coordinates": [ 136.1896151, 36.00152940000001 ] } },
{ "type": "Feature", "properties": { "内容": "医療法人　清風会　吉田医院居宅介護支援センター【居宅介護支援】福井市順化１丁目3-15", "url": "https://www.kaigokensaku.mhlw.go.jp/18/index.php?action_kouhyou_detail_004_kani=true&JigyosyoCd=1870103312-00&ServiceCd=430&Type=search", "url2": "http://fukui-yoshidahospital.com/" }, "geometry": { "type": "Point", "coordinates": [ 136.215907323942588, 36.063674366977843 ] } },
{ "type": "Feature", "properties": { "内容": "愛寿苑居宅介護支援センター【居宅介護支援】福井県福井市加茂緑苑町402番地", "url": "https://www.kaigokensaku.mhlw.go.jp/18/index.php?action_kouhyou_detail_004_kani=true&JigyosyoCd=1870100391-00&ServiceCd=430&Type=search", "url2": "http://www.aijuen.com/" }, "geometry": { "type": "Point", "coordinates": [ 136.191610800000035, 36.0548513 ] } },
{ "type": "Feature", "properties": { "内容": "公益財団法人　福井市ふれあい公社　ケアプランセンター【居宅介護支援】福井市日之出4丁目3番12号", "url": "https://www.kaigokensaku.mhlw.go.jp/18/index.php?action_kouhyou_detail_004_kani=true&JigyosyoCd=1870100102-00&ServiceCd=430&Type=search", "url2": "https:/fureai-kousha.jp" }, "geometry": { "type": "Point", "coordinates": [ 136.231331130563348, 36.064565717596786 ] } },
{ "type": "Feature", "properties": { "内容": "福井ケアセンター　居宅介護支援事業所【居宅介護支援】福井県福井市乾徳４丁目５－8", "url": "https://www.kaigokensaku.mhlw.go.jp/18/index.php?action_kouhyou_detail_004_kani=true&JigyosyoCd=1870100110-00&ServiceCd=430&Type=search", "url2": "http://www.otaki-hp.or.jp" }, "geometry": { "type": "Point", "coordinates": [ 136.204717058860751, 36.071331559321806 ] } },
{ "type": "Feature", "properties": { "内容": "安川病院居宅介護支援センター【居宅介護支援】福井県福井市大和田２丁目１０８番地", "url": "https://www.kaigokensaku.mhlw.go.jp/18/index.php?action_kouhyou_detail_004_kani=true&JigyosyoCd=1810119204-00&ServiceCd=430&Type=search", "url2": "http://www.yasukawa-hospital.jp/" }, "geometry": { "type": "Point", "coordinates": [ 136.2468503, 36.0951923 ] } },
{ "type": "Feature", "properties": { "内容": "ひなた居宅介護支援事業所【居宅介護支援】〒918-8031福井県福井市種池２丁目６０７きはちやしろビル２階", "url": "https://www.kaigokensaku.mhlw.go.jp/18/index.php?action_kouhyou_detail_004_kani=true&JigyosyoCd=1860190279-00&ServiceCd=430&Type=search", "url2": "https://www.nursehome.jp/" }, "geometry": { "type": "Point", "coordinates": [ 136.188409858616978, 36.037469831163762 ] } },
{ "type": "Feature", "properties": { "内容": "有限会社福井新世紀ケアサービス【居宅介護支援】福井県福井市栗森1丁目102番地", "url": "https://www.kaigokensaku.mhlw.go.jp/18/index.php?action_kouhyou_detail_004_kani=true&JigyosyoCd=1870100797-00&ServiceCd=430&Type=search", "url2": "https://www.big-advance.site/s/163/1455" }, "geometry": { "type": "Point", "coordinates": [ 136.2386007, 36.1164061 ] } },
{ "type": "Feature", "properties": { "内容": "あんしん村サポートセンター【居宅介護支援】福井市北四ツ居２丁目７－１７", "url": "https://www.kaigokensaku.mhlw.go.jp/18/index.php?action_kouhyou_detail_004_kani=true&JigyosyoCd=1870101472-00&ServiceCd=430&Type=search", "url2": "http://ansinmura.jp/" }, "geometry": { "type": "Point", "coordinates": [ 136.245480899999961, 36.066454 ] } },
{ "type": "Feature", "properties": { "内容": "嶋田病院居宅介護支援センター【居宅介護支援】福井県福井市西方1丁目2-11いちご在宅支援センター4F", "url": "https://www.kaigokensaku.mhlw.go.jp/18/index.php?action_kouhyou_detail_004_kani=true&JigyosyoCd=1870102827-00&ServiceCd=430&Type=search", "url2": "http://www.kenkoukai.or.jp" }, "geometry": { "type": "Point", "coordinates": [ 136.234537899999964, 36.0537522 ] } },
{ "type": "Feature", "properties": { "内容": "よつば在宅介護支援事業所【居宅介護支援】手寄1丁目7番23号駅東さくらビル", "url": "https://www.kaigokensaku.mhlw.go.jp/18/index.php?action_kouhyou_detail_004_kani=true&JigyosyoCd=1870103619-00&ServiceCd=430&Type=search", "url2": "http://fukui-medix.com/" }, "geometry": { "type": "Point", "coordinates": [ 136.2225632, 36.059835802725317 ] } },
{ "type": "Feature", "properties": { "内容": "にこにこ介護相談センター【居宅介護支援】福井県福井四ツ井2丁目11-11", "url": "https://www.kaigokensaku.mhlw.go.jp/18/index.php?action_kouhyou_detail_004_kani=true&JigyosyoCd=1870103700-00&ServiceCd=430&Type=search", "url2": null }, "geometry": { "type": "Point", "coordinates": [ 136.239294784655755, 36.068105161554882 ] } },
{ "type": "Feature", "properties": { "内容": "いちごケアプランセンター月見【居宅介護支援】福井市月見4丁目２０－５０", "url": "https://www.kaigokensaku.mhlw.go.jp/18/index.php?action_kouhyou_detail_004_kani=true&JigyosyoCd=1870102835-00&ServiceCd=430&Type=search", "url2": "http://ｗｗｗ.kenkoukai.or.jp/" }, "geometry": { "type": "Point", "coordinates": [ 136.205059900000037, 36.045486 ] } },
{ "type": "Feature", "properties": { "内容": "ツクイ福井文京【居宅介護支援】福井市文京7-8-20", "url": "https://www.kaigokensaku.mhlw.go.jp/18/index.php?action_kouhyou_detail_004_kani=true&JigyosyoCd=1870101076-00&ServiceCd=430&Type=search", "url2": "http://www.tsukui.net" }, "geometry": { "type": "Point", "coordinates": [ 136.1955438, 36.0756682 ] } },
{ "type": "Feature", "properties": { "内容": "ゆうあいケアプランセンター【居宅介護支援】福井県福井市大願寺3丁目9-3", "url": "https://www.kaigokensaku.mhlw.go.jp/18/index.php?action_kouhyou_detail_004_kani=true&JigyosyoCd=1870100870-00&ServiceCd=430&Type=search", "url2": "http://fukui-youi.com/" }, "geometry": { "type": "Point", "coordinates": [ 136.228329300000041, 36.084356400000011 ] } },
{ "type": "Feature", "properties": { "内容": "ケアセンターこころ【居宅介護支援】福井市中野２丁目1301番", "url": "https://www.kaigokensaku.mhlw.go.jp/18/index.php?action_kouhyou_detail_004_kani=true&JigyosyoCd=1870102678-00&ServiceCd=430&Type=search", "url2": "http://carecenter-kokoro.net/" }, "geometry": { "type": "Point", "coordinates": [ 136.1842477662249, 36.003771410694824 ] } },
{ "type": "Feature", "properties": { "内容": "ぽっぽ介護相談センター【居宅介護支援】鉄輪町1丁目6－51", "url": "https://www.kaigokensaku.mhlw.go.jp/18/index.php?action_kouhyou_detail_004_kani=true&JigyosyoCd=1870200316-00&ServiceCd=430&Type=search", "url2": "http//www.keizansou.or.jp/poppo" }, "geometry": { "type": "Point", "coordinates": [ 136.074088599999982, 35.6452976 ] } },
{ "type": "Feature", "properties": { "内容": "敦賀ケアセンターかくだ「こころ」【居宅介護支援】昭和町2-17-5　かくだセミナーハウス内", "url": "https://www.kaigokensaku.mhlw.go.jp/18/index.php?action_kouhyou_detail_004_kani=true&JigyosyoCd=1870200670-00&ServiceCd=430&Type=search", "url2": "http://care-net.biz/18/kakuda/" }, "geometry": { "type": "Point", "coordinates": [ 142.40289759999996, 43.7271168 ] } },
{ "type": "Feature", "properties": { "内容": "敬仁会介護相談センター【居宅介護支援】福井県敦賀市開町3番35", "url": "https://www.kaigokensaku.mhlw.go.jp/18/index.php?action_kouhyou_detail_004_kani=true&JigyosyoCd=1870200688-00&ServiceCd=430&Type=search", "url2": "https://kjinkai.jp" }, "geometry": { "type": "Point", "coordinates": [ 136.068350600000031, 35.6481461 ] } },
{ "type": "Feature", "properties": { "内容": "敦賀市社会福祉協議会指定居宅介護支援事業所「あいあい」【居宅介護支援】敦賀市東洋町４番１号敦賀市福祉総合センター「あいあいプラザ」内", "url": "https://www.kaigokensaku.mhlw.go.jp/18/index.php?action_kouhyou_detail_004_kani=true&JigyosyoCd=1870200027-00&ServiceCd=430&Type=search", "url2": "http://tsurugashishakyo.ec-net.jp/" }, "geometry": { "type": "Point", "coordinates": [ 136.069346568400533, 35.643894214728078 ] } },
{ "type": "Feature", "properties": { "内容": "敦賀ケアセンターかくだ【居宅介護支援】福井県敦賀市昭和町2丁目11番地5", "url": "https://www.kaigokensaku.mhlw.go.jp/18/index.php?action_kouhyou_detail_004_kani=true&JigyosyoCd=1870200035-00&ServiceCd=430&Type=search", "url2": "https://kakuda4141.co.jp/" }, "geometry": { "type": "Point", "coordinates": [ 136.060997658889249, 35.642011699773541 ] } },
{ "type": "Feature", "properties": { "内容": "居宅介護支援センター眞盛苑【居宅介護支援】福井県敦賀市莇生野９０－３特別養護老人ホーム眞盛苑", "url": "https://www.kaigokensaku.mhlw.go.jp/18/index.php?action_kouhyou_detail_004_kani=true&JigyosyoCd=1870200043-00&ServiceCd=430&Type=search", "url2": "http://www.jisyoukai.jp" }, "geometry": { "type": "Point", "coordinates": [ 136.043886899999961, 35.6274017 ] } },
{ "type": "Feature", "properties": { "内容": "敦賀市社会福祉協議会指定居宅介護支援事業所「ぬくもりの里」【居宅介護支援】福井県敦賀市御名70号11番地2敦賀市社会福祉協議会地域リハビリセンター「ぬくもりの里」内", "url": "https://www.kaigokensaku.mhlw.go.jp/18/index.php?action_kouhyou_detail_004_kani=true&JigyosyoCd=1870200209-00&ServiceCd=430&Type=search", "url2": "http://tsurugashishakyo.ec-net.jp/" }, "geometry": { "type": "Point", "coordinates": [ 136.047911399999975, 35.60882340000002 ] } },
{ "type": "Feature", "properties": { "内容": "つるが生協診療所居宅介護支援事業所【居宅介護支援】敦賀市公文名１－６", "url": "https://www.kaigokensaku.mhlw.go.jp/18/index.php?action_kouhyou_detail_004_kani=true&JigyosyoCd=1870200258-00&ServiceCd=430&Type=search", "url2": "http://www.fukui-min-iren.com/iryouseikyou" }, "geometry": { "type": "Point", "coordinates": [ 136.060157200000049, 35.623019 ] } },
{ "type": "Feature", "properties": { "内容": "一休さん居宅介護支援事業所【居宅介護支援】福井県敦賀市山泉73号905番地", "url": "https://www.kaigokensaku.mhlw.go.jp/18/index.php?action_kouhyou_detail_004_kani=true&JigyosyoCd=1870200266-00&ServiceCd=430&Type=search", "url2": null }, "geometry": { "type": "Point", "coordinates": [ 136.061332504893443, 35.615123841430275 ] } },
{ "type": "Feature", "properties": { "内容": "居宅介護支援事業所　　こばやし【居宅介護支援】福井県敦賀市ひばりケ丘町1057番地", "url": "https://www.kaigokensaku.mhlw.go.jp/18/index.php?action_kouhyou_detail_004_kani=true&JigyosyoCd=1870200282-00&ServiceCd=430&Type=search", "url2": "https://care-koba.com/" }, "geometry": { "type": "Point", "coordinates": [ 136.041677030435864, 35.622323221473394 ] } },
{ "type": "Feature", "properties": { "内容": "ほっとマネージメント敦賀【居宅介護支援】福井県敦賀市沓見141-2-1", "url": "https://www.kaigokensaku.mhlw.go.jp/18/index.php?action_kouhyou_detail_004_kani=true&JigyosyoCd=1870200365-00&ServiceCd=430&Type=search", "url2": "http://www.hotreha.com" }, "geometry": { "type": "Point", "coordinates": [ 136.032168700000057, 35.6441276 ] } },
{ "type": "Feature", "properties": { "内容": "居宅介護支援事業所「めいほう」【居宅介護支援】福井県敦賀市津内町３－６－３８明峰クリニック内", "url": "https://www.kaigokensaku.mhlw.go.jp/18/index.php?action_kouhyou_detail_004_kani=true&JigyosyoCd=1870200373-00&ServiceCd=430&Type=search", "url2": "https://meihoukai.com/" }, "geometry": { "type": "Point", "coordinates": [ 136.070305599999983, 35.6476529 ] } },
{ "type": "Feature", "properties": { "内容": "県民せいきょう居宅介護支援事業所（敦賀）【居宅介護支援】敦賀市市野々町二丁目1554番", "url": "https://www.kaigokensaku.mhlw.go.jp/18/index.php?action_kouhyou_detail_004_kani=true&JigyosyoCd=1870200449-00&ServiceCd=430&Type=search", "url2": "http://www.fukui.coop" }, "geometry": { "type": "Point", "coordinates": [ 136.051148483809811, 35.621750703215831 ] } },
{ "type": "Feature", "properties": { "内容": "医療法人敦賀温泉病院　指定居宅介護支援事業所【居宅介護支援】福井県敦賀市吉河41号1番地5", "url": "https://www.kaigokensaku.mhlw.go.jp/18/index.php?action_kouhyou_detail_004_kani=true&JigyosyoCd=1870200555-00&ServiceCd=430&Type=search", "url2": "http://www.tsurugaonsen-hp.or.jp" }, "geometry": { "type": "Point", "coordinates": [ 136.084798699999965, 35.6367821 ] } },
{ "type": "Feature", "properties": { "内容": "ディープ介護マネジメント【居宅介護支援】福井県敦賀市新松島町1番26号ヴァンヴェールG", "url": "https://www.kaigokensaku.mhlw.go.jp/18/index.php?action_kouhyou_detail_004_kani=true&JigyosyoCd=1870200571-00&ServiceCd=430&Type=search", "url2": "http://deep.co.jp" }, "geometry": { "type": "Point", "coordinates": [ 136.055590700000039, 35.6485524 ] } },
{ "type": "Feature", "properties": { "内容": "ケアプランセンター　いずみ【居宅介護支援】鉄輪町１丁目2-55", "url": "https://www.kaigokensaku.mhlw.go.jp/18/index.php?action_kouhyou_detail_004_kani=true&JigyosyoCd=1870200605-00&ServiceCd=430&Type=search", "url2": null }, "geometry": { "type": "Point", "coordinates": [ 136.073137310311949, 35.643555645448622 ] } },
{ "type": "Feature", "properties": { "内容": "ケアマネジメントオフィス幸【居宅介護支援】福井県敦賀市平和町1-23", "url": "https://www.kaigokensaku.mhlw.go.jp/18/index.php?action_kouhyou_detail_004_kani=true&JigyosyoCd=1870200696-00&ServiceCd=430&Type=search", "url2": "http://hukusika.com" }, "geometry": { "type": "Point", "coordinates": [ 136.050686978048674, 35.649513373010571 ] } },
{ "type": "Feature", "properties": { "内容": "居宅介護支援事業所　ケア・ラボ【居宅介護支援】福井県小浜市国分44-9", "url": "https://www.kaigokensaku.mhlw.go.jp/18/index.php?action_kouhyou_detail_004_kani=true&JigyosyoCd=1870400486-00&ServiceCd=430&Type=search", "url2": "www.house-service-japan.com" }, "geometry": { "type": "Point", "coordinates": [ 135.7867052, 35.4804668 ] } },
{ "type": "Feature", "properties": { "内容": "アクール若狭指定居宅介護支援事業所【居宅介護支援】福井県小浜市大手町２－２", "url": "https://www.kaigokensaku.mhlw.go.jp/18/index.php?action_kouhyou_detail_004_kani=true&JigyosyoCd=1850480011-00&ServiceCd=430&Type=search", "url2": "http://www.obamahp-wakasa.jp/aculu/" }, "geometry": { "type": "Point", "coordinates": [ 135.74668, 35.4942738 ] } },
{ "type": "Feature", "properties": { "内容": "サポートわかさ【居宅介護支援】福井県小浜市深野20-12", "url": "https://www.kaigokensaku.mhlw.go.jp/18/index.php?action_kouhyou_detail_004_kani=true&JigyosyoCd=1870400494-00&ServiceCd=430&Type=search", "url2": null }, "geometry": { "type": "Point", "coordinates": [ 135.6857885, 35.420695 ] } },
{ "type": "Feature", "properties": { "内容": "居宅介護支援事業所　はな【居宅介護支援】福井県小浜市遠敷四丁目７０５－１", "url": "https://www.kaigokensaku.mhlw.go.jp/18/index.php?action_kouhyou_detail_004_kani=true&JigyosyoCd=1870400312-00&ServiceCd=430&Type=search", "url2": null }, "geometry": { "type": "Point", "coordinates": [ 135.7828637, 35.4810346 ] } },
{ "type": "Feature", "properties": { "内容": "小浜市社会福祉協議会　指定居宅介護支援事業所【居宅介護支援】福井県小浜市遠敷84－3－4サン・サンホーム小浜", "url": "https://www.kaigokensaku.mhlw.go.jp/18/index.php?action_kouhyou_detail_004_kani=true&JigyosyoCd=1870400015-00&ServiceCd=430&Type=search", "url2": "http://www.obama-shakyo.or.jp" }, "geometry": { "type": "Point", "coordinates": [ 135.781338799999958, 35.4849674 ] } },
{ "type": "Feature", "properties": { "内容": "若狭ハイツ居宅介護支援事業所【居宅介護支援】福井県小浜市甲ヶ崎第３７号４番地の２", "url": "https://www.kaigokensaku.mhlw.go.jp/18/index.php?action_kouhyou_detail_004_kani=true&JigyosyoCd=1870400049-00&ServiceCd=430&Type=search", "url2": "http://www.wakasa-fukushikai.com/" }, "geometry": { "type": "Point", "coordinates": [ 135.7521544, 35.5266457 ] } },
{ "type": "Feature", "properties": { "内容": "居宅介護支援センターもみじの里【居宅介護支援】福井県小浜市東勢11号3番", "url": "https://www.kaigokensaku.mhlw.go.jp/18/index.php?action_kouhyou_detail_004_kani=true&JigyosyoCd=1870400155-00&ServiceCd=430&Type=search", "url2": "http://www.momijist.jp/" }, "geometry": { "type": "Point", "coordinates": [ 135.720410099999981, 35.482683 ] } },
{ "type": "Feature", "properties": { "内容": "居宅介護支援事業所おあしす【居宅介護支援】福井県小浜市雲浜1丁目8番8号", "url": "https://www.kaigokensaku.mhlw.go.jp/18/index.php?action_kouhyou_detail_004_kani=true&JigyosyoCd=1870400205-00&ServiceCd=430&Type=search", "url2": "http://www.homeoasis.jp/" }, "geometry": { "type": "Point", "coordinates": [ 135.750401900000043, 35.5094139 ] } },
{ "type": "Feature", "properties": { "内容": "ＪＡ福井県ケアプランセンターみのり【居宅介護支援】福井県小浜市遠敷８－１－１", "url": "https://www.kaigokensaku.mhlw.go.jp/18/index.php?action_kouhyou_detail_004_kani=true&JigyosyoCd=1870400023-00&ServiceCd=430&Type=search", "url2": null }, "geometry": { "type": "Point", "coordinates": [ 135.776764, 35.4899194 ] } },
{ "type": "Feature", "properties": { "内容": "ふらむはぁとリハマネジメント小浜【居宅介護支援】福井県小浜市南川町１２－１３", "url": "https://www.kaigokensaku.mhlw.go.jp/18/index.php?action_kouhyou_detail_004_kani=true&JigyosyoCd=1870400445-00&ServiceCd=430&Type=search", "url2": "http://rerephysio.coｍ" }, "geometry": { "type": "Point", "coordinates": [ 135.755357, 35.4916991 ] } },
{ "type": "Feature", "properties": { "内容": "田中病院指定居宅介護支援事業所【居宅介護支援】福井県小浜市遠敷10丁目601-1", "url": "https://www.kaigokensaku.mhlw.go.jp/18/index.php?action_kouhyou_detail_004_kani=true&JigyosyoCd=1870400106-00&ServiceCd=430&Type=search", "url2": null }, "geometry": { "type": "Point", "coordinates": [ 135.774939200000063, 35.4852366 ] } },
{ "type": "Feature", "properties": { "内容": "県民せいきょう居宅介護支援事業所（小浜）【居宅介護支援】福井県小浜市遠敷9丁目501番地", "url": "https://www.kaigokensaku.mhlw.go.jp/18/index.php?action_kouhyou_detail_004_kani=true&JigyosyoCd=1870400403-00&ServiceCd=430&Type=search", "url2": "http://www.fukui.coop/" }, "geometry": { "type": "Point", "coordinates": [ 135.773800299999948, 35.48412840000001 ] } },
{ "type": "Feature", "properties": { "内容": "さくら在宅介護支援事業所【居宅介護支援】福井県大野市中津川32-33", "url": "https://www.kaigokensaku.mhlw.go.jp/18/index.php?action_kouhyou_detail_004_kani=true&JigyosyoCd=1860590023-00&ServiceCd=430&Type=search", "url2": "http://www.koseikaigroup.jp/hospital/" }, "geometry": { "type": "Point", "coordinates": [ 136.498698600000012, 36.0004586 ] } },
{ "type": "Feature", "properties": { "内容": "あいｹｱﾌﾟﾗﾝｾﾝﾀｰ【居宅介護支援】大野市中挟3丁目101", "url": "https://www.kaigokensaku.mhlw.go.jp/18/index.php?action_kouhyou_detail_004_kani=true&JigyosyoCd=1870500301-00&ServiceCd=430&Type=search", "url2": null }, "geometry": { "type": "Point", "coordinates": [ 136.499889100000019, 35.9909925 ] } },
{ "type": "Feature", "properties": { "内容": "一乗ハイツ居宅介護支援事業所【居宅介護支援】大野市牛ヶ原第１５４号１番地１", "url": "https://www.kaigokensaku.mhlw.go.jp/18/index.php?action_kouhyou_detail_004_kani=true&JigyosyoCd=1870500012-00&ServiceCd=430&Type=search", "url2": "https://www.fuku-koumyouji.jp" }, "geometry": { "type": "Point", "coordinates": [ 136.466194926185835, 35.993954811871809 ] } },
{ "type": "Feature", "properties": { "内容": "聖和園居宅介護支援センター【居宅介護支援】福井県大野市蕨生158-35", "url": "https://www.kaigokensaku.mhlw.go.jp/18/index.php?action_kouhyou_detail_004_kani=true&JigyosyoCd=1870500020-00&ServiceCd=430&Type=search", "url2": "http://www.saiseikai-seiwaen.jp/" }, "geometry": { "type": "Point", "coordinates": [ 136.546879600000011, 35.9819376 ] } },
{ "type": "Feature", "properties": { "内容": "社会福祉法人　大野市社会福祉協議会　居宅介護支援センター【居宅介護支援】福井県大野市天神町7番15号天神デイサービスセンター結の郷内", "url": "https://www.kaigokensaku.mhlw.go.jp/18/index.php?action_kouhyou_detail_004_kani=true&JigyosyoCd=1870500061-00&ServiceCd=430&Type=search", "url2": "https://www.ono-shakyo.jp/" }, "geometry": { "type": "Point", "coordinates": [ 136.4884942, 35.9779839 ] } },
{ "type": "Feature", "properties": { "内容": "福井県農業協同組合ケアプランセンターテラルのほほえみ（令和2年4月1日　吸収合併により名称変更）【居宅介護支援】福井県大野市中挾１丁目１４０１", "url": "https://www.kaigokensaku.mhlw.go.jp/18/index.php?action_kouhyou_detail_004_kani=true&JigyosyoCd=1870500129-00&ServiceCd=430&Type=search", "url2": null }, "geometry": { "type": "Point", "coordinates": [ 136.504353400000014, 35.985922 ] } },
{ "type": "Feature", "properties": { "内容": "県民せいきょう居宅介護支援事業所（奥越）【居宅介護支援】福井県大野市天神町3番21号", "url": "https://www.kaigokensaku.mhlw.go.jp/18/index.php?action_kouhyou_detail_004_kani=true&JigyosyoCd=1870500186-00&ServiceCd=430&Type=search", "url2": "http://www.fukui.coop/" }, "geometry": { "type": "Point", "coordinates": [ 136.4884859, 35.9790976 ] } },
{ "type": "Feature", "properties": { "内容": "大野和光園居宅介護支援事業所【居宅介護支援】福井県大野市春日三丁目1718番地", "url": "https://www.kaigokensaku.mhlw.go.jp/18/index.php?action_kouhyou_detail_004_kani=true&JigyosyoCd=1870500327-00&ServiceCd=430&Type=search", "url2": "http://www.ono-wakouen.jp/" }, "geometry": { "type": "Point", "coordinates": [ 136.497523699999988, 35.9734904 ] } },
{ "type": "Feature", "properties": { "内容": "きらきらケアプランセンター【居宅介護支援】福井県大野市要町1-13", "url": "https://www.kaigokensaku.mhlw.go.jp/18/index.php?action_kouhyou_detail_004_kani=true&JigyosyoCd=1810514347-00&ServiceCd=430&Type=search", "url2": "http://www.kirakirakai-matsuda.or.jp/" }, "geometry": { "type": "Point", "coordinates": [ 136.489038599999958, 35.990482 ] } },
{ "type": "Feature", "properties": { "内容": "まことケアプランセンター【居宅介護支援】福井県大野市中荒井町二丁目806番", "url": "https://www.kaigokensaku.mhlw.go.jp/18/index.php?action_kouhyou_detail_004_kani=true&JigyosyoCd=1870500434-00&ServiceCd=430&Type=search", "url2": "makoto@seinenji.jp" }, "geometry": { "type": "Point", "coordinates": [ 136.493925273645317, 35.987782449881401 ] } },
{ "type": "Feature", "properties": { "内容": "居宅介護支援事業所　ぬくぬく【居宅介護支援】大野市春日2丁目15-9", "url": "https://www.kaigokensaku.mhlw.go.jp/18/index.php?action_kouhyou_detail_004_kani=true&JigyosyoCd=1870500160-00&ServiceCd=430&Type=search", "url2": null }, "geometry": { "type": "Point", "coordinates": [ 136.495774007209803, 35.973992308640071 ] } },
{ "type": "Feature", "properties": { "内容": "鷲巣苑居宅介護支援事業所【居宅介護支援】福井県勝山市北郷町坂東島８－２", "url": "https://www.kaigokensaku.mhlw.go.jp/18/index.php?action_kouhyou_detail_004_kani=true&JigyosyoCd=1850680016-00&ServiceCd=430&Type=search", "url2": "https://dainichien.net/washisuen/" }, "geometry": { "type": "Point", "coordinates": [ 136.424068799999986, 36.0810274 ] } },
{ "type": "Feature", "properties": { "内容": "さつき苑居宅介護支援センター【居宅介護支援】福井県勝山市片瀬第15号22番地", "url": "https://www.kaigokensaku.mhlw.go.jp/18/index.php?action_kouhyou_detail_004_kani=true&JigyosyoCd=1870600010-00&ServiceCd=430&Type=search", "url2": "https://satsuki.or.jp/" }, "geometry": { "type": "Point", "coordinates": [ 136.521571399999971, 36.0487165 ] } },
{ "type": "Feature", "properties": { "内容": "ケアプランセンター九頭竜【居宅介護支援】福井県勝山市旭町３丁目１０７番２", "url": "https://www.kaigokensaku.mhlw.go.jp/18/index.php?action_kouhyou_detail_004_kani=true&JigyosyoCd=1870600044-00&ServiceCd=430&Type=search", "url2": "https://kuzuryuworkshop.com/" }, "geometry": { "type": "Point", "coordinates": [ 136.514266966203195, 36.049778544653336 ] } },
{ "type": "Feature", "properties": { "内容": "福井勝山総合病院附属居宅介護支援センター【居宅介護支援】福井県勝山市長山町2丁目６番２１号", "url": "https://www.kaigokensaku.mhlw.go.jp/18/index.php?action_kouhyou_detail_004_kani=true&JigyosyoCd=1870600051-00&ServiceCd=430&Type=search", "url2": "http://fukui.jcho.go.jp/rouken/" }, "geometry": { "type": "Point", "coordinates": [ 136.506088799999986, 36.0708578 ] } },
{ "type": "Feature", "properties": { "内容": "さくら荘居宅介護支援センター【居宅介護支援】福井県勝山市芳野町２丁目１-11さくら荘在宅サービス支援センター　さくらんぼ", "url": "https://www.kaigokensaku.mhlw.go.jp/18/index.php?action_kouhyou_detail_004_kani=true&JigyosyoCd=1870600127-00&ServiceCd=430&Type=search", "url2": "http://k-sakurasou.jp" }, "geometry": { "type": "Point", "coordinates": [ 136.499267300000042, 36.066972 ] } },
{ "type": "Feature", "properties": { "内容": "わかば居宅介護支援事業所【居宅介護支援】福井県勝山市荒土町新保6－103", "url": "https://www.kaigokensaku.mhlw.go.jp/18/index.php?action_kouhyou_detail_004_kani=true&JigyosyoCd=1870600143-00&ServiceCd=430&Type=search", "url2": null }, "geometry": { "type": "Point", "coordinates": [ 136.478863300000057, 36.0751235 ] } },
{ "type": "Feature", "properties": { "内容": "勝山市社会福祉協議会指定居宅介護支援事業所【居宅介護支援】勝山市郡町1-1-51勝山市福祉健康センターすこやか", "url": "https://www.kaigokensaku.mhlw.go.jp/18/index.php?action_kouhyou_detail_004_kani=true&JigyosyoCd=1870600036-00&ServiceCd=430&Type=search", "url2": "http://www.katuyama-sk.jp" }, "geometry": { "type": "Point", "coordinates": [ 136.496170399999983, 36.0675746 ] } },
{ "type": "Feature", "properties": { "内容": "斎藤病院居宅介護支援センター【居宅介護支援】福井県鯖江市中野町６－１－１", "url": "https://www.kaigokensaku.mhlw.go.jp/18/index.php?action_kouhyou_detail_004_kani=true&JigyosyoCd=1810714723-00&ServiceCd=430&Type=search", "url2": "http://saito-hospital.org/" }, "geometry": { "type": "Point", "coordinates": [ 136.206458, 35.94485 ] } },
{ "type": "Feature", "properties": { "内容": "サンサン居宅介護支援センター【居宅介護支援】幸町2－6－11", "url": "https://www.kaigokensaku.mhlw.go.jp/18/index.php?action_kouhyou_detail_004_kani=true&JigyosyoCd=1870700307-00&ServiceCd=430&Type=search", "url2": null }, "geometry": { "type": "Point", "coordinates": [ 136.179301600000031, 35.9777027 ] } },
{ "type": "Feature", "properties": { "内容": "県民せいきょう居宅介護支援事業所（鯖江）【居宅介護支援】小黒町3丁目10-21県民せいきょう鯖江きらめき", "url": "https://www.kaigokensaku.mhlw.go.jp/18/index.php?action_kouhyou_detail_004_kani=true&JigyosyoCd=1870700455-00&ServiceCd=430&Type=search", "url2": "http://www.fukui.coop/" }, "geometry": { "type": "Point", "coordinates": [ 136.173464100000047, 35.9555835 ] } },
{ "type": "Feature", "properties": { "内容": "えくぼ園居宅介護支援事業所【居宅介護支援】福井県鯖江市杉本町第15号1番地1", "url": "https://www.kaigokensaku.mhlw.go.jp/18/index.php?action_kouhyou_detail_004_kani=true&JigyosyoCd=1870700406-00&ServiceCd=430&Type=search", "url2": null }, "geometry": { "type": "Point", "coordinates": [ 136.167869, 35.9823407 ] } },
{ "type": "Feature", "properties": { "内容": "指定居宅介護支援事業所　在宅介護支援センターさばえ【居宅介護支援】鯖江市旭町４丁目４－９", "url": "https://www.kaigokensaku.mhlw.go.jp/18/index.php?action_kouhyou_detail_004_kani=true&JigyosyoCd=1870700018-00&ServiceCd=430&Type=search", "url2": "http://www.jujinkai.or.jp" }, "geometry": { "type": "Point", "coordinates": [ 136.186634374570531, 35.948843068601619 ] } },
{ "type": "Feature", "properties": { "内容": "神明介護支援センター【居宅介護支援】福井県鯖江市幸町1丁目2-2", "url": "https://www.kaigokensaku.mhlw.go.jp/18/index.php?action_kouhyou_detail_004_kani=true&JigyosyoCd=1810714111-00&ServiceCd=430&Type=search", "url2": null }, "geometry": { "type": "Point", "coordinates": [ 136.1810822, 35.9731367 ] } },
{ "type": "Feature", "properties": { "内容": "みどり荘居宅介護支援センター【居宅介護支援】鯖江市中野町33-20-10778-51-7540", "url": "https://www.kaigokensaku.mhlw.go.jp/18/index.php?action_kouhyou_detail_004_kani=true&JigyosyoCd=1850780022-00&ServiceCd=430&Type=search", "url2": null }, "geometry": { "type": "Point", "coordinates": [ 136.2061218, 35.9475163 ] } },
{ "type": "Feature", "properties": { "内容": "コスモス居宅介護支援事業所【居宅介護支援】福井県鯖江市本町２丁目３－１０", "url": "https://www.kaigokensaku.mhlw.go.jp/18/index.php?action_kouhyou_detail_004_kani=true&JigyosyoCd=1860790037-00&ServiceCd=430&Type=search", "url2": "http://www.takano-hp.jp" }, "geometry": { "type": "Point", "coordinates": [ 136.18381812460629, 35.945549169409865 ] } },
{ "type": "Feature", "properties": { "内容": "公立丹南病院居宅介護支援事業所【居宅介護支援】福井県鯖江市三六町1-2-31", "url": "https://www.kaigokensaku.mhlw.go.jp/18/index.php?action_kouhyou_detail_004_kani=true&JigyosyoCd=1860790045-00&ServiceCd=430&Type=search", "url2": "http://www.jadecom.or.jp/jadecomhp/tannan/html/index.html" }, "geometry": { "type": "Point", "coordinates": [ 136.178063299999963, 35.9700732 ] } },
{ "type": "Feature", "properties": { "内容": "リハビリセンター王山【居宅介護支援】福井県鯖江市旭町１丁目3番22号", "url": "https://www.kaigokensaku.mhlw.go.jp/18/index.php?action_kouhyou_detail_004_kani=true&JigyosyoCd=1850780014-00&ServiceCd=430&Type=search", "url2": "http://www4.ttn.ne.jp/~ohzan/" }, "geometry": { "type": "Point", "coordinates": [ 136.188338976057366, 35.944239395389246 ] } },
{ "type": "Feature", "properties": { "内容": "木村病院　介護相談センター【居宅介護支援】福井県鯖江市旭町４丁目４－９", "url": "https://www.kaigokensaku.mhlw.go.jp/18/index.php?action_kouhyou_detail_004_kani=true&JigyosyoCd=1870700661-00&ServiceCd=430&Type=search", "url2": "https://www.jujinkai.or.jp/" }, "geometry": { "type": "Point", "coordinates": [ 136.186725299999978, 35.9488662 ] } },
{ "type": "Feature", "properties": { "内容": "居宅介護支援センター　うぐいすの里【居宅介護支援】鯖江市漆原町２０－８", "url": "https://www.kaigokensaku.mhlw.go.jp/18/index.php?action_kouhyou_detail_004_kani=true&JigyosyoCd=1870700034-00&ServiceCd=430&Type=search", "url2": "https://gogakuen.com" }, "geometry": { "type": "Point", "coordinates": [ 136.145520199999964, 35.9385881 ] } },
{ "type": "Feature", "properties": { "内容": "ことぶき荘居宅介護支援センター【居宅介護支援】福井県鯖江市大野町3-1", "url": "https://www.kaigokensaku.mhlw.go.jp/18/index.php?action_kouhyou_detail_004_kani=true&JigyosyoCd=1870700067-00&ServiceCd=430&Type=search", "url2": "http://www.touyoukai.or.jp" }, "geometry": { "type": "Point", "coordinates": [ 136.2283956, 35.9780763 ] } },
{ "type": "Feature", "properties": { "内容": "OneHeart　ケアサポート【居宅介護支援】福井県鯖江市川島町19-14OneHeart", "url": "https://www.kaigokensaku.mhlw.go.jp/18/index.php?action_kouhyou_detail_004_kani=true&JigyosyoCd=1870700521-00&ServiceCd=430&Type=search", "url2": null }, "geometry": { "type": "Point", "coordinates": [ 136.229071800000042, 35.9467726 ] } },
{ "type": "Feature", "properties": { "内容": "居宅介護支援センターふじ乃里【居宅介護支援】福井県鯖江市持明寺町１４字１４番地の１", "url": "https://www.kaigokensaku.mhlw.go.jp/18/index.php?action_kouhyou_detail_004_kani=true&JigyosyoCd=1870700083-00&ServiceCd=430&Type=search", "url2": "https://fujinosato.or.jp" }, "geometry": { "type": "Point", "coordinates": [ 136.1447693, 35.9635234 ] } },
{ "type": "Feature", "properties": { "内容": "鯖江市社会福祉協議会　指定居宅介護支援事業所【居宅介護支援】福井県鯖江市水落町2丁目30番１号", "url": "https://www.kaigokensaku.mhlw.go.jp/18/index.php?action_kouhyou_detail_004_kani=true&JigyosyoCd=1870700042-00&ServiceCd=430&Type=search", "url2": "http://www.sabae-shakyo.or.jp/" }, "geometry": { "type": "Point", "coordinates": [ 136.187818200000038, 35.9617386 ] } },
{ "type": "Feature", "properties": { "内容": "エレガントセニールサポート【居宅介護支援】福井県鯖江市吉江町３１－７－１", "url": "https://www.kaigokensaku.mhlw.go.jp/18/index.php?action_kouhyou_detail_004_kani=true&JigyosyoCd=1870700166-00&ServiceCd=430&Type=search", "url2": null }, "geometry": { "type": "Point", "coordinates": [ 136.168302, 35.986754 ] } },
{ "type": "Feature", "properties": { "内容": "おしどり荘居宅介護支援センター【居宅介護支援】福井県鯖江市別司町４１－３０", "url": "https://www.kaigokensaku.mhlw.go.jp/18/index.php?action_kouhyou_detail_004_kani=true&JigyosyoCd=1870700299-00&ServiceCd=430&Type=search", "url2": "http://www.touyoukai.or.jp" }, "geometry": { "type": "Point", "coordinates": [ 136.26033240000001, 35.947612 ] } },
{ "type": "Feature", "properties": { "内容": "ドリームケアマネージメント【居宅介護支援】福井県鯖江市東鯖江二丁目9番16号", "url": "https://www.kaigokensaku.mhlw.go.jp/18/index.php?action_kouhyou_detail_004_kani=true&JigyosyoCd=1870700422-00&ServiceCd=430&Type=search", "url2": "http://dream-create.wixsite.com/dreamcreate/blank-2" }, "geometry": { "type": "Point", "coordinates": [ 136.196312, 35.9482659 ] } },
{ "type": "Feature", "properties": { "内容": "居宅介護支援事業所　さくらケアサービス【居宅介護支援】下河端町4-6-1", "url": "https://www.kaigokensaku.mhlw.go.jp/18/index.php?action_kouhyou_detail_004_kani=true&JigyosyoCd=1870700604-00&ServiceCd=430&Type=search", "url2": "https://www.sakuracare-fukui.com" }, "geometry": { "type": "Point", "coordinates": [ 136.188202481614667, 35.966384432984512 ] } },
{ "type": "Feature", "properties": { "内容": "ケアマネジメントベンチ【居宅介護支援】福井県鯖江市神明町3丁目1-3", "url": "https://www.kaigokensaku.mhlw.go.jp/18/index.php?action_kouhyou_detail_004_kani=true&JigyosyoCd=1870700638-00&ServiceCd=430&Type=search", "url2": "https://bench2019.com" }, "geometry": { "type": "Point", "coordinates": [ 136.185844, 35.974855 ] } },
{ "type": "Feature", "properties": { "内容": "居宅介護支援事業所わらく【居宅介護支援】福井県鯖江市住吉町2丁目16-12", "url": "https://www.kaigokensaku.mhlw.go.jp/18/index.php?action_kouhyou_detail_004_kani=true&JigyosyoCd=1870700646-00&ServiceCd=430&Type=search", "url2": null }, "geometry": { "type": "Point", "coordinates": [ 136.180523599999987, 35.9399999 ] } },
{ "type": "Feature", "properties": { "内容": "ケアステーションほたる【居宅介護支援】鯖江市熊田町16‐127‐1", "url": "https://www.kaigokensaku.mhlw.go.jp/18/index.php?action_kouhyou_detail_004_kani=true&JigyosyoCd=1870700448-00&ServiceCd=430&Type=search", "url2": null }, "geometry": { "type": "Point", "coordinates": [ 136.169703776417407, 35.947526022926247 ] } },
{ "type": "Feature", "properties": { "内容": "みんなの家居宅介護支援事業所【居宅介護支援】福井県あわら市大溝3丁目4番32号みんなの家大溝", "url": "https://www.kaigokensaku.mhlw.go.jp/18/index.php?action_kouhyou_detail_004_kani=true&JigyosyoCd=1870800271-00&ServiceCd=430&Type=search", "url2": null }, "geometry": { "type": "Point", "coordinates": [ 136.22182620000001, 36.2086671 ] } },
{ "type": "Feature", "properties": { "内容": "ライフサポートセンターさんほーむ【居宅介護支援】あわら市花乃杜3-22-32", "url": "https://www.kaigokensaku.mhlw.go.jp/18/index.php?action_kouhyou_detail_004_kani=true&JigyosyoCd=1870800131-00&ServiceCd=430&Type=search", "url2": "http://www.ksunhome.or.jp/top.shtml" }, "geometry": { "type": "Point", "coordinates": [ 136.22383949999994, 36.2217489 ] } },
{ "type": "Feature", "properties": { "内容": "坂井地区医師会　居宅介護支援事業所【居宅介護支援】福井県あわら市東善寺5-27", "url": "https://www.kaigokensaku.mhlw.go.jp/18/index.php?action_kouhyou_detail_004_kani=true&JigyosyoCd=1860890019-00&ServiceCd=430&Type=search", "url2": "http://kyotaku@sakai-med.com" }, "geometry": { "type": "Point", "coordinates": [ 136.218323599999962, 36.2111778 ] } },
{ "type": "Feature", "properties": { "内容": "あわら市金津雲雀ヶ丘寮居宅介護支援事業所【居宅介護支援】福井県あわら市春宮3丁目２８－２１", "url": "https://www.kaigokensaku.mhlw.go.jp/18/index.php?action_kouhyou_detail_004_kani=true&JigyosyoCd=1870800198-00&ServiceCd=430&Type=search", "url2": "http://www.awara-hibari.jp/" }, "geometry": { "type": "Point", "coordinates": [ 136.227530800000068, 36.2199603 ] } },
{ "type": "Feature", "properties": { "内容": "加納居宅介護支援事業所【居宅介護支援】あわら市花乃杜一丁目２－３９", "url": "https://www.kaigokensaku.mhlw.go.jp/18/index.php?action_kouhyou_detail_004_kani=true&JigyosyoCd=1870800206-00&ServiceCd=430&Type=search", "url2": "http://www.kanouhp.jp/" }, "geometry": { "type": "Point", "coordinates": [ 136.224595099999988, 36.2160385 ] } },
{ "type": "Feature", "properties": { "内容": "芦原メロン苑ケアプランセンター【居宅介護支援】福井県あわら市井江葭50-18", "url": "https://www.kaigokensaku.mhlw.go.jp/18/index.php?action_kouhyou_detail_004_kani=true&JigyosyoCd=1870800016-00&ServiceCd=430&Type=search", "url2": "http://www.meron-en.or.jp/" }, "geometry": { "type": "Point", "coordinates": [ 136.218384440475432, 36.240204640820494 ] } },
{ "type": "Feature", "properties": { "内容": "ケアハイツ居宅介護支援事業所【居宅介護支援】福井県あわら市横垣18-11ケアハイツ芦原", "url": "https://www.kaigokensaku.mhlw.go.jp/18/index.php?action_kouhyou_detail_004_kani=true&JigyosyoCd=1870800024-00&ServiceCd=430&Type=search", "url2": "https://careheights.jp/" }, "geometry": { "type": "Point", "coordinates": [ 136.214443, 36.2240261 ] } },
{ "type": "Feature", "properties": { "内容": "ナイスケア木村居宅介護支援センター【居宅介護支援】福井県あわら市市姫３－２３－４", "url": "https://www.kaigokensaku.mhlw.go.jp/18/index.php?action_kouhyou_detail_004_kani=true&JigyosyoCd=1850880012-00&ServiceCd=430&Type=search", "url2": "http://www.kimura-hospital.jp/" }, "geometry": { "type": "Point", "coordinates": [ 136.2284074, 36.209167500000014 ] } },
{ "type": "Feature", "properties": { "内容": "いちばん介護【居宅介護支援】福井県越前市瓜生町31-1", "url": "https://www.kaigokensaku.mhlw.go.jp/18/index.php?action_kouhyou_detail_004_kani=true&JigyosyoCd=1870300173-00&ServiceCd=430&Type=search", "url2": "http://ichibankaigo.jp/" }, "geometry": { "type": "Point", "coordinates": [ 136.182935907620276, 35.91884215719228 ] } },
{ "type": "Feature", "properties": { "内容": "レッツ居宅介護支援センター【居宅介護支援】福井県越前市新保1-5-2", "url": "https://www.kaigokensaku.mhlw.go.jp/18/index.php?action_kouhyou_detail_004_kani=true&JigyosyoCd=1870300884-00&ServiceCd=430&Type=search", "url2": "http://lifemore.ne.jp/" }, "geometry": { "type": "Point", "coordinates": [ 136.15498132535069, 35.909569374659121 ] } },
{ "type": "Feature", "properties": { "内容": "あいしん居宅介護支援事業所【居宅介護支援】福井県越前市瓜生町第45号11番地", "url": "https://www.kaigokensaku.mhlw.go.jp/18/index.php?action_kouhyou_detail_004_kani=true&JigyosyoCd=1870300959-00&ServiceCd=430&Type=search", "url2": null }, "geometry": { "type": "Point", "coordinates": [ 136.184451112303122, 35.924441284403017 ] } },
{ "type": "Feature", "properties": { "内容": "居宅介護支援いっぷく【居宅介護支援】福井県越前市黒川町１１４－６１－１", "url": "https://www.kaigokensaku.mhlw.go.jp/18/index.php?action_kouhyou_detail_004_kani=true&JigyosyoCd=1870300660-00&ServiceCd=430&Type=search", "url2": "http://carehomeippuku.jp" }, "geometry": { "type": "Point", "coordinates": [ 136.0720459, 35.8800848 ] } },
{ "type": "Feature", "properties": { "内容": "居宅介護支援センター　おいで【居宅介護支援】福井県越前市堀川町３－１４", "url": "https://www.kaigokensaku.mhlw.go.jp/18/index.php?action_kouhyou_detail_004_kani=true&JigyosyoCd=1870300074-00&ServiceCd=430&Type=search", "url2": "http://www.warakuen.jp/index.html" }, "geometry": { "type": "Point", "coordinates": [ 136.172477682942173, 35.900362909138899 ] } },
{ "type": "Feature", "properties": { "内容": "和上苑居宅介護支援事業所【居宅介護支援】越前市高木町12－7－1", "url": "https://www.kaigokensaku.mhlw.go.jp/18/index.php?action_kouhyou_detail_004_kani=true&JigyosyoCd=1870300728-00&ServiceCd=430&Type=search", "url2": "http://www.wakatake.ne.jp/" }, "geometry": { "type": "Point", "coordinates": [ 136.190493899999979, 35.9282074 ] } },
{ "type": "Feature", "properties": { "内容": "さわやか介護支援センター【居宅介護支援】福井県越前市塚町２１４番地", "url": "https://www.kaigokensaku.mhlw.go.jp/18/index.php?action_kouhyou_detail_004_kani=true&JigyosyoCd=1810314581-00&ServiceCd=430&Type=search", "url2": "http://www.kasahara-hosp.or.jp/" }, "geometry": { "type": "Point", "coordinates": [ 136.191844100000026, 35.91607 ] } },
{ "type": "Feature", "properties": { "内容": "居宅介護支援センターあいの樹【居宅介護支援】越前市中央2-9-40", "url": "https://www.kaigokensaku.mhlw.go.jp/18/index.php?action_kouhyou_detail_004_kani=true&JigyosyoCd=1850380013-00&ServiceCd=430&Type=search", "url2": "http://aiki-hp.jp" }, "geometry": { "type": "Point", "coordinates": [ 136.156442199999987, 35.9026927 ] } },
{ "type": "Feature", "properties": { "内容": "ほっとマネージメント【居宅介護支援】福井県越前市高木町111-2ほっと地域包括ケアセンター", "url": "https://www.kaigokensaku.mhlw.go.jp/18/index.php?action_kouhyou_detail_004_kani=true&JigyosyoCd=1870300041-00&ServiceCd=430&Type=search", "url2": "http://www.hotreha.com" }, "geometry": { "type": "Point", "coordinates": [ 136.191769, 35.91867144045878 ] } },
{ "type": "Feature", "properties": { "内容": "しくらケアプランステーション【居宅介護支援】福井県越前市今宿町８－１", "url": "https://www.kaigokensaku.mhlw.go.jp/18/index.php?action_kouhyou_detail_004_kani=true&JigyosyoCd=1870300157-00&ServiceCd=430&Type=search", "url2": "http://www.ikebata.jp" }, "geometry": { "type": "Point", "coordinates": [ 136.169917100000021, 35.8654366 ] } },
{ "type": "Feature", "properties": { "内容": "東武介護支援センター【居宅介護支援】福井県越前市横市町6-3", "url": "https://www.kaigokensaku.mhlw.go.jp/18/index.php?action_kouhyou_detail_004_kani=true&JigyosyoCd=1870300207-00&ServiceCd=430&Type=search", "url2": null }, "geometry": { "type": "Point", "coordinates": [ 136.192527499999983, 35.9094708 ] } },
{ "type": "Feature", "properties": { "内容": "居宅かいごしえん府中【居宅介護支援】福井県越前市府中1丁目3番5号", "url": "https://www.kaigokensaku.mhlw.go.jp/18/index.php?action_kouhyou_detail_004_kani=true&JigyosyoCd=1870300215-00&ServiceCd=430&Type=search", "url2": "http://www.hayashi-hospital.or.jp/" }, "geometry": { "type": "Point", "coordinates": [ 136.169813336245738, 35.902697894971077 ] } },
{ "type": "Feature", "properties": { "内容": "アスピカ居宅介護支援センター【居宅介護支援】福井県越前市新保町20-31", "url": "https://www.kaigokensaku.mhlw.go.jp/18/index.php?action_kouhyou_detail_004_kani=true&JigyosyoCd=1870300900-00&ServiceCd=430&Type=search", "url2": "http://www.aspica.co.jp" }, "geometry": { "type": "Point", "coordinates": [ 136.153295911348323, 35.908589802042684 ] } },
{ "type": "Feature", "properties": { "内容": "ふくし百選プランニング越前【居宅介護支援】越前市幸町1-16パラッツォTAMAYA2階", "url": "https://www.kaigokensaku.mhlw.go.jp/18/index.php?action_kouhyou_detail_004_kani=true&JigyosyoCd=1870300991-00&ServiceCd=430&Type=search", "url2": "https：//www.hs-k.co.jp" }, "geometry": { "type": "Point", "coordinates": [ 136.168239537969839, 35.903894056279135 ] } },
{ "type": "Feature", "properties": { "内容": "居宅介護支援センターひだまり【居宅介護支援】福井県越前市本多１丁目８－４１", "url": "https://www.kaigokensaku.mhlw.go.jp/18/index.php?action_kouhyou_detail_004_kani=true&JigyosyoCd=1870301080-00&ServiceCd=430&Type=search", "url2": null }, "geometry": { "type": "Point", "coordinates": [ 136.163789, 35.905365 ] } },
{ "type": "Feature", "properties": { "内容": "県民せいきょう居宅介護支援事業所（丹南）【居宅介護支援】福井県越前市家久町49字丹南きらめき", "url": "https://www.kaigokensaku.mhlw.go.jp/18/index.php?action_kouhyou_detail_004_kani=true&JigyosyoCd=1870300413-00&ServiceCd=430&Type=search", "url2": "http://www.fukui.coop/" }, "geometry": { "type": "Point", "coordinates": [ 136.166609900000026, 35.9317646 ] } },
{ "type": "Feature", "properties": { "内容": "メゾンいまだて指定居宅介護支援センター【居宅介護支援】福井県越前市東樫尾町８番３８号", "url": "https://www.kaigokensaku.mhlw.go.jp/18/index.php?action_kouhyou_detail_004_kani=true&JigyosyoCd=1870300439-00&ServiceCd=430&Type=search", "url2": "http://www.mezon-f.com/" }, "geometry": { "type": "Point", "coordinates": [ 136.282945199999972, 35.9382156 ] } },
{ "type": "Feature", "properties": { "内容": "はながたみ介護支援センター【居宅介護支援】福井県越前市粟田部町33-1", "url": "https://www.kaigokensaku.mhlw.go.jp/18/index.php?action_kouhyou_detail_004_kani=true&JigyosyoCd=1870300454-00&ServiceCd=430&Type=search", "url2": "www.imadatechuo-hp.com" }, "geometry": { "type": "Point", "coordinates": [ 136.24348770000006, 35.9169877 ] } },
{ "type": "Feature", "properties": { "内容": "越前市社会福祉協議会ケアマネジメントサービスセンター【居宅介護支援】福井県越前市矢船町第8号12番地1", "url": "https://www.kaigokensaku.mhlw.go.jp/18/index.php?action_kouhyou_detail_004_kani=true&JigyosyoCd=1870300470-00&ServiceCd=430&Type=search", "url2": "http://echizen-shakyo.or.jp/" }, "geometry": { "type": "Point", "coordinates": [ 136.177232499999946, 35.8878535 ] } },
{ "type": "Feature", "properties": { "内容": "ケアフルハウス居宅介護支援センター【居宅介護支援】越前市広瀬町153-12-3", "url": "https://www.kaigokensaku.mhlw.go.jp/18/index.php?action_kouhyou_detail_004_kani=true&JigyosyoCd=1870300637-00&ServiceCd=430&Type=search", "url2": "http://carefull.co.jp" }, "geometry": { "type": "Point", "coordinates": [ 136.146704900000032, 35.8895608 ] } },
{ "type": "Feature", "properties": { "内容": "いきいき居宅介護支援事業所【居宅介護支援】福井県越前市高瀬２丁目4-22", "url": "https://www.kaigokensaku.mhlw.go.jp/18/index.php?action_kouhyou_detail_004_kani=true&JigyosyoCd=1870300694-00&ServiceCd=430&Type=search", "url2": "http://ikiiki" }, "geometry": { "type": "Point", "coordinates": [ 136.160894699999972, 35.89926550000002 ] } },
{ "type": "Feature", "properties": { "内容": "ニチイケアセンター武生【居宅介護支援】福井県越前市国高１－１６－１６", "url": "https://www.kaigokensaku.mhlw.go.jp/18/index.php?action_kouhyou_detail_004_kani=true&JigyosyoCd=1870300066-00&ServiceCd=430&Type=search", "url2": "http://www.nichiigakkan.co.jp/" }, "geometry": { "type": "Point", "coordinates": [ 136.186622599999964, 35.911176 ] } },
{ "type": "Feature", "properties": { "内容": "サンライフ小野谷【居宅介護支援】福井県越前市蓬莱町6-24", "url": "https://www.kaigokensaku.mhlw.go.jp/18/index.php?action_kouhyou_detail_004_kani=true&JigyosyoCd=1870300983-00&ServiceCd=430&Type=search", "url2": "http://sunlifeonodani.jp/" }, "geometry": { "type": "Point", "coordinates": [ 136.167001891436882, 35.90214141587343 ] } },
{ "type": "Feature", "properties": { "内容": "ＪＡはるえ居宅介護支援事業所【居宅介護支援】坂井市春江町本堂23-21", "url": "https://www.kaigokensaku.mhlw.go.jp/18/index.php?action_kouhyou_detail_004_kani=true&JigyosyoCd=1871700330-00&ServiceCd=430&Type=search", "url2": null }, "geometry": { "type": "Point", "coordinates": [ 136.20405930000004, 36.1341894 ] } },
{ "type": "Feature", "properties": { "内容": "居宅介護支援事業所　アプトケア三国【居宅介護支援】坂井市三国町三国東2丁目9-23", "url": "https://www.kaigokensaku.mhlw.go.jp/18/index.php?action_kouhyou_detail_004_kani=true&JigyosyoCd=1871700744-00&ServiceCd=430&Type=search", "url2": "http://aptcare.jp" }, "geometry": { "type": "Point", "coordinates": [ 136.161245199999939, 36.2122123 ] } },
{ "type": "Feature", "properties": { "内容": "長寿園居宅介護支援事業所【居宅介護支援】福井県坂井市丸岡町八ヶ郷22-4", "url": "https://www.kaigokensaku.mhlw.go.jp/18/index.php?action_kouhyou_detail_004_kani=true&JigyosyoCd=1871700249-00&ServiceCd=430&Type=search", "url2": "http://www.choujuen.com" }, "geometry": { "type": "Point", "coordinates": [ 136.27866365912476, 36.160610724554083 ] } },
{ "type": "Feature", "properties": { "内容": "医療法人　慈風会　宮﨑病院居宅介護支援センター【居宅介護支援】福井県坂井市三国町北本町2-2-6", "url": "https://www.kaigokensaku.mhlw.go.jp/18/index.php?action_kouhyou_detail_004_kani=true&JigyosyoCd=1811715133-00&ServiceCd=430&Type=search", "url2": "http://www.miyazaki-hp.com/" }, "geometry": { "type": "Point", "coordinates": [ 136.149079300000039, 36.2163367 ] } },
{ "type": "Feature", "properties": { "内容": "ガーデンハイツ春江　居宅介護支援事業所【居宅介護支援】福井県坂井市春江町針原48-28-1ガーデンハイツ春江", "url": "https://www.kaigokensaku.mhlw.go.jp/18/index.php?action_kouhyou_detail_004_kani=true&JigyosyoCd=1871700223-00&ServiceCd=430&Type=search", "url2": "http://fj-g.jp/" }, "geometry": { "type": "Point", "coordinates": [ 136.207384100000013, 36.1286039 ] } },
{ "type": "Feature", "properties": { "内容": "JA福井県ケアプランセンターはなさき【居宅介護支援】福井県坂井市坂井町上新庄４２−１９", "url": "https://www.kaigokensaku.mhlw.go.jp/18/index.php?action_kouhyou_detail_004_kani=true&JigyosyoCd=1871700298-00&ServiceCd=430&Type=search", "url2": null }, "geometry": { "type": "Point", "coordinates": [ 136.232246177103292, 36.165623860978449 ] } },
{ "type": "Feature", "properties": { "内容": "東尋坊ひまわりの丘　居宅介護支援事業所【居宅介護支援】福井県坂井市三国町陣ヶ岡16-13-18", "url": "https://www.kaigokensaku.mhlw.go.jp/18/index.php?action_kouhyou_detail_004_kani=true&JigyosyoCd=1851780047-00&ServiceCd=430&Type=search", "url2": "http://fj-g.jp" }, "geometry": { "type": "Point", "coordinates": [ 136.142114799999945, 36.2383927 ] } },
{ "type": "Feature", "properties": { "内容": "あかねケアマネージメントセンター【居宅介護支援】福井県坂井市丸岡町羽崎31-11-3", "url": "https://www.kaigokensaku.mhlw.go.jp/18/index.php?action_kouhyou_detail_004_kani=true&JigyosyoCd=1871700074-00&ServiceCd=430&Type=search", "url2": "http://akanekai.net" }, "geometry": { "type": "Point", "coordinates": [ 136.262623500000018, 36.1151158 ] } },
{ "type": "Feature", "properties": { "内容": "あじさい園居宅介護支援事業所【居宅介護支援】福井県坂井市三国町梶49-18", "url": "https://www.kaigokensaku.mhlw.go.jp/18/index.php?action_kouhyou_detail_004_kani=true&JigyosyoCd=1871700132-00&ServiceCd=430&Type=search", "url2": "http://www.hakurakuso.com" }, "geometry": { "type": "Point", "coordinates": [ 136.158655094998153, 36.215382213331935 ] } },
{ "type": "Feature", "properties": { "内容": "いってこさ居宅介護支援事業所【居宅介護支援】福井県坂井市三国町殿島5-23", "url": "https://www.kaigokensaku.mhlw.go.jp/18/index.php?action_kouhyou_detail_004_kani=true&JigyosyoCd=1871700355-00&ServiceCd=430&Type=search", "url2": null }, "geometry": { "type": "Point", "coordinates": [ 136.152074099999936, 36.2059849 ] } },
{ "type": "Feature", "properties": { "内容": "まるおか介護支援センター【居宅介護支援】福井県坂井市丸岡町八ヶ郷２３－１９－３", "url": "https://www.kaigokensaku.mhlw.go.jp/18/index.php?action_kouhyou_detail_004_kani=true&JigyosyoCd=1871700421-00&ServiceCd=430&Type=search", "url2": "http://www.life-sp.jp" }, "geometry": { "type": "Point", "coordinates": [ 136.279836599999953, 36.1553225 ] } },
{ "type": "Feature", "properties": { "内容": "坂井市社会福祉協議会ケアプランセンター【居宅介護支援】福井県坂井市坂井町下新庄18-3-1", "url": "https://www.kaigokensaku.mhlw.go.jp/18/index.php?action_kouhyou_detail_004_kani=true&JigyosyoCd=1871700504-00&ServiceCd=430&Type=search", "url2": "http://www.sakaicityshakyo.jp/" }, "geometry": { "type": "Point", "coordinates": [ 136.2238079, 36.1664306 ] } },
{ "type": "Feature", "properties": { "内容": "トゥモローズケアマネステーション【居宅介護支援】坂井市坂井町下新庄１８－１５－１", "url": "https://www.kaigokensaku.mhlw.go.jp/18/index.php?action_kouhyou_detail_004_kani=true&JigyosyoCd=1871700637-00&ServiceCd=430&Type=search", "url2": "http://tomorrows-reha.com" }, "geometry": { "type": "Point", "coordinates": [ 136.224974400000065, 36.16705 ] } },
{ "type": "Feature", "properties": { "内容": "潟池野ケアプランセンター【居宅介護支援】福井県坂井市坂井町下関４２－４－２", "url": "https://www.kaigokensaku.mhlw.go.jp/18/index.php?action_kouhyou_detail_004_kani=true&JigyosyoCd=1871700850-00&ServiceCd=430&Type=search", "url2": "https://s-fukushi.or.jp/kataikeno/" }, "geometry": { "type": "Point", "coordinates": [ 136.228387200000043, 36.1908443 ] } },
{ "type": "Feature", "properties": { "内容": "県民せいきょう居宅介護支援事業所（坂井）【居宅介護支援】福井県坂井市坂井町大味56号", "url": "https://www.kaigokensaku.mhlw.go.jp/18/index.php?action_kouhyou_detail_004_kani=true&JigyosyoCd=1871700785-00&ServiceCd=430&Type=search", "url2": "https://www.fukui.coop/care/shisetsu/sakai-kirameki/" }, "geometry": { "type": "Point", "coordinates": [ 136.195449100000019, 36.1849659 ] } },
{ "type": "Feature", "properties": { "内容": "竹田の居宅　笑楽日【居宅介護支援】丸岡町山口５９－１３", "url": "https://www.kaigokensaku.mhlw.go.jp/18/index.php?action_kouhyou_detail_004_kani=true&JigyosyoCd=1871700843-00&ServiceCd=430&Type=search", "url2": "https://www.day-warabi.com/" }, "geometry": { "type": "Point", "coordinates": [ 136.331751938623057, 36.160629842129744 ] } },
{ "type": "Feature", "properties": { "内容": "ケアプランセンターまるおか生喜庵【居宅介護支援】福井県坂井市丸岡町長畝１６字八ツ割３番１", "url": "https://www.kaigokensaku.mhlw.go.jp/18/index.php?action_kouhyou_detail_004_kani=true&JigyosyoCd=1871701031-00&ServiceCd=430&Type=search", "url2": "http://seikikai-sakai.jp/" }, "geometry": { "type": "Point", "coordinates": [ 136.273525699999936, 36.1634463 ] } },
{ "type": "Feature", "properties": { "内容": "中野ケアプランオフィス【居宅介護支援】坂井町新庄2-228", "url": "https://www.kaigokensaku.mhlw.go.jp/18/index.php?action_kouhyou_detail_004_kani=true&JigyosyoCd=1871701155-00&ServiceCd=430&Type=search", "url2": null }, "geometry": { "type": "Point", "coordinates": [ 136.23671539999998, 36.1605233 ] } },
{ "type": "Feature", "properties": { "内容": "介護相談室こころ【居宅介護支援】福井県坂井市春江町江留下宇和江19", "url": "https://www.kaigokensaku.mhlw.go.jp/18/index.php?action_kouhyou_detail_004_kani=true&JigyosyoCd=1871701122-00&ServiceCd=430&Type=search", "url2": "https://www.shine-fukui.com/" }, "geometry": { "type": "Point", "coordinates": [ 136.220844099999965, 36.1269724 ] } },
{ "type": "Feature", "properties": { "内容": "ケアプランセンターさかい生喜庵【居宅介護支援】坂井町上新庄第40号59番地", "url": "https://www.kaigokensaku.mhlw.go.jp/18/index.php?action_kouhyou_detail_004_kani=true&JigyosyoCd=1871700694-00&ServiceCd=430&Type=search", "url2": null }, "geometry": { "type": "Point", "coordinates": [ 136.230363099999977, 36.1633256 ] } },
{ "type": "Feature", "properties": { "内容": "さかい居宅介護支援事業所【居宅介護支援】福井県坂井市丸岡町城北1丁目21番地", "url": "https://www.kaigokensaku.mhlw.go.jp/18/index.php?action_kouhyou_detail_004_kani=true&JigyosyoCd=1871701056-00&ServiceCd=430&Type=search", "url2": null }, "geometry": { "type": "Point", "coordinates": [ 136.276894840490939, 36.158982529968256 ] } },
{ "type": "Feature", "properties": { "内容": "春江病院居宅介護支援事業所【居宅介護支援】福井県坂井市春江町針原65-7", "url": "https://www.kaigokensaku.mhlw.go.jp/18/index.php?action_kouhyou_detail_004_kani=true&JigyosyoCd=1811714789-00&ServiceCd=430&Type=search", "url2": "http://www.harue-hp.org/" }, "geometry": { "type": "Point", "coordinates": [ 136.221957400000065, 36.127948800000034 ] } },
{ "type": "Feature", "properties": { "内容": "かがやき荘　居宅介護支援センター【居宅介護支援】福井県坂井市三国町陣ケ岡13-3", "url": "https://www.kaigokensaku.mhlw.go.jp/18/index.php?action_kouhyou_detail_004_kani=true&JigyosyoCd=1871700983-00&ServiceCd=430&Type=search", "url2": "http://www.kagayakisou.jp" }, "geometry": { "type": "Point", "coordinates": [ 136.137743199999932, 36.2341569 ] } },
{ "type": "Feature", "properties": { "内容": "居宅介護支援事業所　はるさか【居宅介護支援】福井県坂井市春江町中筋第100号75番地", "url": "https://www.kaigokensaku.mhlw.go.jp/18/index.php?action_kouhyou_detail_004_kani=true&JigyosyoCd=1871700827-00&ServiceCd=430&Type=search", "url2": null }, "geometry": { "type": "Point", "coordinates": [ 136.23622279999995, 36.1273855 ] } },
{ "type": "Feature", "properties": { "内容": "居宅介護支援事業所　ケアセンターゆり【居宅介護支援】福井県坂井市春江町本堂27－1-1", "url": "https://www.kaigokensaku.mhlw.go.jp/18/index.php?action_kouhyou_detail_004_kani=true&JigyosyoCd=1871701007-00&ServiceCd=430&Type=search", "url2": "http://sakairaiharukai.jimdo.com/" }, "geometry": { "type": "Point", "coordinates": [ 136.203821447221344, 36.13894413199975 ] } },
{ "type": "Feature", "properties": { "内容": "ケアふくい居宅介護支援センター【居宅介護支援】吉田郡永平寺町松岡薬師1-145", "url": "https://www.kaigokensaku.mhlw.go.jp/18/index.php?action_kouhyou_detail_004_kani=true&JigyosyoCd=1871600126-00&ServiceCd=430&Type=search", "url2": null }, "geometry": { "type": "Point", "coordinates": [ 136.30592189999993, 36.0963034 ] } },
{ "type": "Feature", "properties": { "内容": "ケアふくい居宅介護支援センター【居宅介護支援】福井県吉田郡永平寺町松岡薬師1-145", "url": "https://www.kaigokensaku.mhlw.go.jp/18/index.php?action_kouhyou_detail_004_kani=true&JigyosyoCd=1871600316-00&ServiceCd=430&Type=search", "url2": "https://care-fukui.com" }, "geometry": { "type": "Point", "coordinates": [ 136.3059321, 36.0961674 ] } },
{ "type": "Feature", "properties": { "内容": "えいへいじ居宅介護支援事業所【居宅介護支援】福井県吉田郡永平寺町飯島第6号34番地", "url": "https://www.kaigokensaku.mhlw.go.jp/18/index.php?action_kouhyou_detail_004_kani=true&JigyosyoCd=1871600175-00&ServiceCd=430&Type=search", "url2": "http://www.eiheijishakyo.jp" }, "geometry": { "type": "Point", "coordinates": [ 136.356621200000063, 36.0898437 ] } },
{ "type": "Feature", "properties": { "内容": "永平寺ハウス居宅介護支援事業所【居宅介護支援】吉田郡永平寺町けやき台８１３－１", "url": "https://www.kaigokensaku.mhlw.go.jp/18/index.php?action_kouhyou_detail_004_kani=true&JigyosyoCd=1871600050-00&ServiceCd=430&Type=search", "url2": "http://www.fukusenkai.jp" }, "geometry": { "type": "Point", "coordinates": [ 136.317498600000022, 36.0768645 ] } },
{ "type": "Feature", "properties": { "内容": "アニス松岡居宅介護支援事業所【居宅介護支援】福井県吉田郡永平寺町松岡椚第31号7番地1", "url": "https://www.kaigokensaku.mhlw.go.jp/18/index.php?action_kouhyou_detail_004_kani=true&JigyosyoCd=1871600142-00&ServiceCd=430&Type=search", "url2": "http://www.taiyo-kai.jp/" }, "geometry": { "type": "Point", "coordinates": [ 136.297378799999933, 36.0951699 ] } },
{ "type": "Feature", "properties": { "内容": "ケアプランセンター　ひかり苑【居宅介護支援】福井県吉田郡永平寺町山王7-28", "url": "https://www.kaigokensaku.mhlw.go.jp/18/index.php?action_kouhyou_detail_004_kani=true&JigyosyoCd=1871600290-00&ServiceCd=430&Type=search", "url2": "http://www.hikarigroup.jp" }, "geometry": { "type": "Point", "coordinates": [ 136.3958725, 36.0797876 ] } },
{ "type": "Feature", "properties": { "内容": "社会福祉法人　池田町社会福祉協議会指定居宅介護支援事業所【居宅介護支援】福井県今立郡池田町薮田第5号3番地１", "url": "https://www.kaigokensaku.mhlw.go.jp/18/index.php?action_kouhyou_detail_004_kani=true&JigyosyoCd=1871800031-00&ServiceCd=430&Type=search", "url2": "https://www.shakyo.or.jp/hp/827/" }, "geometry": { "type": "Point", "coordinates": [ 136.345991014155516, 35.895831003936394 ] } },
{ "type": "Feature", "properties": { "内容": "池田町幸寿苑居宅介護支援事業所【居宅介護支援】今立郡池田町常安21-1", "url": "https://www.kaigokensaku.mhlw.go.jp/18/index.php?action_kouhyou_detail_004_kani=true&JigyosyoCd=1871800130-00&ServiceCd=430&Type=search", "url2": "http://www.kenrakukai.jp/ikeda/index.html" }, "geometry": { "type": "Point", "coordinates": [ 136.343559082139507, 35.877734266252581 ] } },
{ "type": "Feature", "properties": { "内容": "ほのぼの苑居宅介護支援事業所【居宅介護支援】福井県南条郡南越前町鋳物師５－１０－１", "url": "https://www.kaigokensaku.mhlw.go.jp/18/index.php?action_kouhyou_detail_004_kani=true&JigyosyoCd=1871900104-00&ServiceCd=430&Type=search", "url2": "http://www.honobono-en.com/" }, "geometry": { "type": "Point", "coordinates": [ 136.197598200000016, 35.8416771 ] } },
{ "type": "Feature", "properties": { "内容": "南越前町社会福祉協議会今庄居宅介護支援事業所【居宅介護支援】福井県南条郡南越前町今庄86-5-2今庄福祉センター", "url": "https://www.kaigokensaku.mhlw.go.jp/18/index.php?action_kouhyou_detail_004_kani=true&JigyosyoCd=1871900203-00&ServiceCd=430&Type=search", "url2": null }, "geometry": { "type": "Point", "coordinates": [ 136.200834699999973, 35.7719996 ] } },
{ "type": "Feature", "properties": { "内容": "指定居宅介護支援事業所　「さざんかホール」【居宅介護支援】福井県丹生郡越前町朝日22字7-1", "url": "https://www.kaigokensaku.mhlw.go.jp/18/index.php?action_kouhyou_detail_004_kani=true&JigyosyoCd=1872000185-00&ServiceCd=430&Type=search", "url2": "http://www.kodoen.or.jp" }, "geometry": { "type": "Point", "coordinates": [ 136.120043500000094, 35.971325 ] } },
{ "type": "Feature", "properties": { "内容": "やすらぎ荘居宅介護支援事業所【居宅介護支援】福井県丹生郡越前町織田102-81", "url": "https://www.kaigokensaku.mhlw.go.jp/18/index.php?action_kouhyou_detail_004_kani=true&JigyosyoCd=1872000193-00&ServiceCd=430&Type=search", "url2": "http://ota-yasuragikai.com/" }, "geometry": { "type": "Point", "coordinates": [ 136.051489294553164, 35.958357629990445 ] } },
{ "type": "Feature", "properties": { "内容": "越前町社会福祉協議会　居宅介護支援事業所【居宅介護支援】福井県丹生郡越前町織田106-51-1", "url": "https://www.kaigokensaku.mhlw.go.jp/18/index.php?action_kouhyou_detail_004_kani=true&JigyosyoCd=1872000359-00&ServiceCd=430&Type=search", "url2": "http://www.e-shakyo.or.jp" }, "geometry": { "type": "Point", "coordinates": [ 136.047244037959331, 35.957295746478977 ] } },
{ "type": "Feature", "properties": { "内容": "海楽園居宅介護支援事業所【居宅介護支援】福井県丹生郡越前町米ノ46-1-1", "url": "https://www.kaigokensaku.mhlw.go.jp/18/index.php?action_kouhyou_detail_004_kani=true&JigyosyoCd=1872000052-00&ServiceCd=430&Type=search", "url2": "http://echizen-kairakuen.jp/" }, "geometry": { "type": "Point", "coordinates": [ 135.995867099999941, 35.8918781 ] } },
{ "type": "Feature", "properties": { "内容": "丹生ひまわりケアプランセンター【居宅介護支援】福井県丹生郡越前町四ツ杉3-10丹生ケアセンターひまわり荘", "url": "https://www.kaigokensaku.mhlw.go.jp/18/index.php?action_kouhyou_detail_004_kani=true&JigyosyoCd=1872000540-00&ServiceCd=430&Type=search", "url2": "http://www.sekishin-himawari.or.jp" }, "geometry": { "type": "Point", "coordinates": [ 136.0355446, 35.9607264 ] } },
{ "type": "Feature", "properties": { "内容": "おた居宅介護支援センター【居宅介護支援】福井県丹生郡越前町織田106-42-2", "url": "https://www.kaigokensaku.mhlw.go.jp/18/index.php?action_kouhyou_detail_004_kani=true&JigyosyoCd=1872000490-00&ServiceCd=430&Type=search", "url2": "https://ota.jadecom.or.jp/" }, "geometry": { "type": "Point", "coordinates": [ 136.04700989814765, 35.957876244447334 ] } },
{ "type": "Feature", "properties": { "内容": "美浜町居宅介護支援センター　湖岳の郷【居宅介護支援】福井県三方郡美浜町金山２－３－２７", "url": "https://www.kaigokensaku.mhlw.go.jp/18/index.php?action_kouhyou_detail_004_kani=true&JigyosyoCd=1872100035-00&ServiceCd=430&Type=search", "url2": "http://kogakunosato.jp/tokuyou/tokuyou.html" }, "geometry": { "type": "Point", "coordinates": [ 135.912805899999967, 35.5964555 ] } },
{ "type": "Feature", "properties": { "内容": "美浜町社会福祉協議会指定居宅介護支援事業所【居宅介護支援】福井県三方郡美浜町佐柿13-5", "url": "https://www.kaigokensaku.mhlw.go.jp/18/index.php?action_kouhyou_detail_004_kani=true&JigyosyoCd=1872100027-00&ServiceCd=430&Type=search", "url2": "http://www.mihamachoshakyo.com/" }, "geometry": { "type": "Point", "coordinates": [ 135.960624299999978, 35.612742600000011 ] } },
{ "type": "Feature", "properties": { "内容": "独立行政法人　地域医療機能推進機構　若狭高浜病院附属居宅介護支援センター【居宅介護支援】大飯郡高浜町宮崎８７－１４－２", "url": "https://www.kaigokensaku.mhlw.go.jp/18/index.php?action_kouhyou_detail_004_kani=true&JigyosyoCd=1852380011-00&ServiceCd=430&Type=search", "url2": "http://takahama.jcho.go.jp/rouken/" }, "geometry": { "type": "Point", "coordinates": [ 135.546282099999985, 35.4887754 ] } },
{ "type": "Feature", "properties": { "内容": "高浜町社会福祉協議会　指定居宅介護支援事業所【居宅介護支援】福井県大飯郡高浜町緑ヶ丘1-1-1高浜町社会福祉センター", "url": "https://www.kaigokensaku.mhlw.go.jp/18/index.php?action_kouhyou_detail_004_kani=true&JigyosyoCd=1872300023-00&ServiceCd=430&Type=search", "url2": "http://takahamashakyou.sunnyday.jp/" }, "geometry": { "type": "Point", "coordinates": [ 135.508076599999981, 35.492891500000034 ] } },
{ "type": "Feature", "properties": { "内容": "高浜けいあいの里居宅介護支援事業所【居宅介護支援】福井県大飯郡高浜町和田168-22", "url": "https://www.kaigokensaku.mhlw.go.jp/18/index.php?action_kouhyou_detail_004_kani=true&JigyosyoCd=1872300114-00&ServiceCd=430&Type=search", "url2": "http://www.yukokai.or.jp/" }, "geometry": { "type": "Point", "coordinates": [ 135.582448199999988, 35.4876814 ] } },
{ "type": "Feature", "properties": { "内容": "指定居宅介護支援事業所　和【居宅介護支援】福井県大飯郡高浜町和田117-91-2", "url": "https://www.kaigokensaku.mhlw.go.jp/18/index.php?action_kouhyou_detail_004_kani=true&JigyosyoCd=1872300064-00&ServiceCd=430&Type=search", "url2": "http://nagomi-takahama.com" }, "geometry": { "type": "Point", "coordinates": [ 135.576614639000667, 35.489286600354077 ] } },
{ "type": "Feature", "properties": { "内容": "株式会社高浜ケアサポート居宅介護支援事業所【居宅介護支援】福井県大飯郡高浜町小和田第64号3番地", "url": "https://www.kaigokensaku.mhlw.go.jp/18/index.php?action_kouhyou_detail_004_kani=true&JigyosyoCd=1872300155-00&ServiceCd=430&Type=search", "url2": null }, "geometry": { "type": "Point", "coordinates": [ 135.499405499999966, 35.4838115 ] } },
{ "type": "Feature", "properties": { "内容": "居宅介護支援　グっとサポート【居宅介護支援】福井県大飯郡高浜町薗部49-3", "url": "https://www.kaigokensaku.mhlw.go.jp/18/index.php?action_kouhyou_detail_004_kani=true&JigyosyoCd=1872300122-00&ServiceCd=430&Type=search", "url2": "https://g-support-takahama.com/" }, "geometry": { "type": "Point", "coordinates": [ 135.555721007007378, 35.487560254332365 ] } },
{ "type": "Feature", "properties": { "内容": "おおい町社会福祉協議会指定居宅介護支援事業所【居宅介護支援】福井県大飯郡おおい町名田庄下第6号1番地あっとほ～むいきいき館", "url": "https://www.kaigokensaku.mhlw.go.jp/18/index.php?action_kouhyou_detail_004_kani=true&JigyosyoCd=1872300148-00&ServiceCd=430&Type=search", "url2": "http://ohi-syakyo.or.jp/" }, "geometry": { "type": "Point", "coordinates": [ 135.643973, 35.407055 ] } },
{ "type": "Feature", "properties": { "内容": "居宅介護支援事業所わらく【居宅介護支援】福井県三方上中郡若狭町有田第11号20番地の10わらく", "url": "https://www.kaigokensaku.mhlw.go.jp/18/index.php?action_kouhyou_detail_004_kani=true&JigyosyoCd=1872400161-00&ServiceCd=430&Type=search", "url2": "http://www.s-a-care.co.jp" }, "geometry": { "type": "Point", "coordinates": [ 135.866691, 35.4845912 ] } },
{ "type": "Feature", "properties": { "内容": "ふらむはぁとリハマネジメント十村【居宅介護支援】福井県三方上中郡若狭町井崎47-2-1リリ・オキュペ", "url": "https://www.kaigokensaku.mhlw.go.jp/18/index.php?action_kouhyou_detail_004_kani=true&JigyosyoCd=1872400294-00&ServiceCd=430&Type=search", "url2": null }, "geometry": { "type": "Point", "coordinates": [ 135.899280099999942, 35.5129834 ] } },
{ "type": "Feature", "properties": { "内容": "レイクヒルズ美方病院　指定居宅介護支援事業所【居宅介護支援】福井県三方上中郡若狭町気山315-1-9レイクヒルズ美方病院　在宅支援室内", "url": "https://www.kaigokensaku.mhlw.go.jp/18/index.php?action_kouhyou_detail_004_kani=true&JigyosyoCd=1812410023-00&ServiceCd=430&Type=search", "url2": "http://www.obamahp-wakasa.jp/reiku/index.htm" }, "geometry": { "type": "Point", "coordinates": [ 135.913361399999985, 35.5847596 ] } },
{ "type": "Feature", "properties": { "内容": "ふらむはぁとリハマネジメント若狭【居宅介護支援】福井県三方上中郡若狭町井崎４７－２－１", "url": "https://www.kaigokensaku.mhlw.go.jp/18/index.php?action_kouhyou_detail_004_kani=true&JigyosyoCd=1872400351-00&ServiceCd=430&Type=search", "url2": "https://rerephysio.com/facility003/" }, "geometry": { "type": "Point", "coordinates": [ 135.8992858, 35.5129037 ] } },
{ "type": "Feature", "properties": { "内容": "介護老人保健施設ゆなみ　指定居宅介護支援事業所【居宅介護支援】福井県三方上中郡若狭町岩屋61-31", "url": "https://www.kaigokensaku.mhlw.go.jp/18/index.php?action_kouhyou_detail_004_kani=true&JigyosyoCd=1852480019-00&ServiceCd=430&Type=search", "url2": "http://www.tsurugaonsen-hp.or.jp/yunami/" }, "geometry": { "type": "Point", "coordinates": [ 135.894637182278387, 35.515128547048739 ] } },
{ "type": "Feature", "properties": { "内容": "居宅介護支援事業所　わかさ【居宅介護支援】福井県三方上中郡若狭町井崎40-80", "url": "https://www.kaigokensaku.mhlw.go.jp/18/index.php?action_kouhyou_detail_004_kani=true&JigyosyoCd=1872400070-00&ServiceCd=430&Type=search", "url2": "http://www.w-shakyo.or.jp/" }, "geometry": { "type": "Point", "coordinates": [ 135.895074605941772, 35.515404180974855 ] } },
{ "type": "Feature", "properties": { "内容": "社会福祉法人松寿会　指定居宅介護支援事業所　松寿苑【居宅介護支援】福井県三方上中郡若狭町井ノ口３２－６－１", "url": "https://www.kaigokensaku.mhlw.go.jp/18/index.php?action_kouhyou_detail_004_kani=true&JigyosyoCd=1872400047-00&ServiceCd=430&Type=search", "url2": "http://shojukai.jp/" }, "geometry": { "type": "Point", "coordinates": [ 135.854079588360605, 35.464381931253079 ] } },
{ "type": "Feature", "properties": { "内容": "支援センターよりどころ【居宅介護支援】福井県三方上中郡若狭町井ノ口第26号5番地の19サンポートスリーム203号", "url": "https://www.kaigokensaku.mhlw.go.jp/18/index.php?action_kouhyou_detail_004_kani=true&JigyosyoCd=1872400336-00&ServiceCd=430&Type=search", "url2": "https://www.yoridokoro2020.com/" }, "geometry": { "type": "Point", "coordinates": [ 135.849517014155566, 35.463987183958061 ] } },
{ "type": "Feature", "properties": { "内容": "居宅介護支援事業所わらく【居宅介護支援】福井県三方上中郡若狭町有田第11号20番地の10", "url": "https://www.kaigokensaku.mhlw.go.jp/18/index.php?action_kouhyou_detail_004_kani=true&JigyosyoCd=1872400286-00&ServiceCd=430&Type=search", "url2": "http://www.s-a-care.co.jp" }, "geometry": { "type": "Point", "coordinates": [ 135.867302099999961, 35.484760699999981 ] } }
]
}
