{
"type": "FeatureCollection",
"name": "geo_18_看護小規模多機能型居宅介護（複合型サービス）",
"crs": { "type": "name", "properties": { "name": "urn:ogc:def:crs:OGC:1.3:CRS84" } },
"features": [
{ "type": "Feature", "properties": { "内容": "ほのか西藤島【看護小規模多機能型居宅介護（複合型サービス）】福井県福井市三郎丸2丁目401番地", "url2": "https://www.kaigokensaku.mhlw.go.jp/18/index.php?action_kouhyou_detail_004_kani=true&JigyosyoCd=1890100751-00&ServiceCd=&Type=search" }, "geometry": { "type": "Point", "coordinates": [ 136.188440803288245, 36.076491156468414 ] } },
{ "type": "Feature", "properties": { "内容": "看護小規模多機能ホームレインボー二の宮【看護小規模多機能型居宅介護（複合型サービス）】福井県福井市二の宮２丁目８番21", "url2": "https://www.kaigokensaku.mhlw.go.jp/18/index.php?action_kouhyou_detail_004_kani=true&JigyosyoCd=1890101098-00&ServiceCd=&Type=search" }, "geometry": { "type": "Point", "coordinates": [ 136.224623253164708, 36.084578779175807 ] } },
{ "type": "Feature", "properties": { "内容": "看護小規模多機能型居宅介護　あったかホームひまわり【看護小規模多機能型居宅介護（複合型サービス）】福井県福井市下馬3丁目2302番地", "url2": "https://www.kaigokensaku.mhlw.go.jp/18/index.php?action_kouhyou_detail_004_kani=true&JigyosyoCd=1890100728-00&ServiceCd=&Type=search" }, "geometry": { "type": "Point", "coordinates": [ 136.235189843516508, 36.037404759339104 ] } },
{ "type": "Feature", "properties": { "内容": "いちご日和【看護小規模多機能型居宅介護（複合型サービス）】福井県福井市勝見3丁目20-12いちごの森1階", "url2": "https://www.kaigokensaku.mhlw.go.jp/18/index.php?action_kouhyou_detail_004_kani=true&JigyosyoCd=1890100736-00&ServiceCd=&Type=search" }, "geometry": { "type": "Point", "coordinates": [ 136.23376010000004, 36.053605 ] } },
{ "type": "Feature", "properties": { "内容": "看護小規模多機能ホームはなぞの【看護小規模多機能型居宅介護（複合型サービス）】福井県福井市松本１丁目５５番５号", "url2": "https://www.kaigokensaku.mhlw.go.jp/18/index.php?action_kouhyou_detail_004_kani=true&JigyosyoCd=1890101270-00&ServiceCd=&Type=search" }, "geometry": { "type": "Point", "coordinates": [ 136.2312742, 36.0760272 ] } },
{ "type": "Feature", "properties": { "内容": "看護多機能　向陽【看護小規模多機能型居宅介護（複合型サービス）】福井県福井市定正1丁目1325アーク向陽", "url2": "https://www.kaigokensaku.mhlw.go.jp/18/index.php?action_kouhyou_detail_004_kani=true&JigyosyoCd=1890100900-00&ServiceCd=&Type=search" }, "geometry": { "type": "Point", "coordinates": [ 136.227892200000042, 36.1179454 ] } },
{ "type": "Feature", "properties": { "内容": "やしろの郷【看護小規模多機能型居宅介護（複合型サービス）】福井市若杉町２５－１８－１", "url2": "https://www.kaigokensaku.mhlw.go.jp/18/index.php?action_kouhyou_detail_004_kani=true&JigyosyoCd=1890100777-00&ServiceCd=&Type=search" }, "geometry": { "type": "Point", "coordinates": [ 136.183436699999987, 36.05942 ] } },
{ "type": "Feature", "properties": { "内容": "看護小規模多機能型居宅介護　あったかホームひまわりサテライト【看護小規模多機能型居宅介護（複合型サービス）】福井市下六条町7号26番1", "url2": "https://www.kaigokensaku.mhlw.go.jp/18/index.php?action_kouhyou_detail_004_kani=true&JigyosyoCd=1890101080-00&ServiceCd=&Type=search" }, "geometry": { "type": "Point", "coordinates": [ 136.2351414, 36.027896 ] } },
{ "type": "Feature", "properties": { "内容": "敦賀ケアセンターかくだ「あおい」【看護小規模多機能型居宅介護（複合型サービス）】福井県敦賀市昭和町２丁目11-5", "url2": "https://www.kaigokensaku.mhlw.go.jp/18/index.php?action_kouhyou_detail_004_kani=true&JigyosyoCd=1890200213-00&ServiceCd=&Type=search" }, "geometry": { "type": "Point", "coordinates": [ 136.060990299999958, 35.6420253 ] } },
{ "type": "Feature", "properties": { "内容": "ふらむはぁとナーシングケア【看護小規模多機能型居宅介護（複合型サービス）】福井県小浜市遠敷7-301AYATTO", "url2": "https://www.kaigokensaku.mhlw.go.jp/18/index.php?action_kouhyou_detail_004_kani=true&JigyosyoCd=1890400052-00&ServiceCd=&Type=search" }, "geometry": { "type": "Point", "coordinates": [ 135.775901624146627, 35.485132431789886 ] } },
{ "type": "Feature", "properties": { "内容": "看護小規模多機能型居宅介護あったかホームさくら【看護小規模多機能型居宅介護（複合型サービス）】福井県大野市中津川32-33", "url2": "https://www.kaigokensaku.mhlw.go.jp/18/index.php?action_kouhyou_detail_004_kani=true&JigyosyoCd=1890500158-00&ServiceCd=&Type=search" }, "geometry": { "type": "Point", "coordinates": [ 136.4977331, 36.0004407 ] } },
{ "type": "Feature", "properties": { "内容": "活き生きほっと倶楽部鯖江【看護小規模多機能型居宅介護（複合型サービス）】福井県鯖江市鳥羽町107-70ほっとリハビリシステムズ鯖江事業所", "url2": "https://www.kaigokensaku.mhlw.go.jp/18/index.php?action_kouhyou_detail_004_kani=true&JigyosyoCd=1890700154-00&ServiceCd=&Type=search" }, "geometry": { "type": "Point", "coordinates": [ 136.199108173541248, 35.985771774405521 ] } },
{ "type": "Feature", "properties": { "内容": "あわら複合ケアサービス【看護小規模多機能型居宅介護（複合型サービス）】福井県あわら市二面2丁目302番地", "url2": "https://www.kaigokensaku.mhlw.go.jp/18/index.php?action_kouhyou_detail_004_kani=true&JigyosyoCd=1890800061-00&ServiceCd=&Type=search" }, "geometry": { "type": "Point", "coordinates": [ 136.20015622447977, 36.227298858942063 ] } },
{ "type": "Feature", "properties": { "内容": "看護小規模多機能ホームケアフルハウス【看護小規模多機能型居宅介護（複合型サービス）】福井県越前市広瀬町153-12-2", "url2": "https://www.kaigokensaku.mhlw.go.jp/18/index.php?action_kouhyou_detail_004_kani=true&JigyosyoCd=1890300302-00&ServiceCd=&Type=search" }, "geometry": { "type": "Point", "coordinates": [ 136.146672700000011, 35.8895426 ] } },
{ "type": "Feature", "properties": { "内容": "活き生きほっと倶楽部【看護小規模多機能型居宅介護（複合型サービス）】福井県越前市高木町111-2ほっと地域包括ケアセンター", "url2": "https://www.kaigokensaku.mhlw.go.jp/18/index.php?action_kouhyou_detail_004_kani=true&JigyosyoCd=1890300153-00&ServiceCd=&Type=search" }, "geometry": { "type": "Point", "coordinates": [ 136.191734787453811, 35.918770429428008 ] } },
{ "type": "Feature", "properties": { "内容": "看護小規模多機能ホームクローバー【看護小規模多機能型居宅介護（複合型サービス）】越前市杉尾町1-24-1", "url2": "https://www.kaigokensaku.mhlw.go.jp/18/index.php?action_kouhyou_detail_004_kani=true&JigyosyoCd=1890300344-00&ServiceCd=&Type=search" }, "geometry": { "type": "Point", "coordinates": [ 136.251854, 35.9204581 ] } },
{ "type": "Feature", "properties": { "内容": "看護小規模多機能ホームひだまり【看護小規模多機能型居宅介護（複合型サービス）】本多1丁目8-41", "url2": "https://www.kaigokensaku.mhlw.go.jp/18/index.php?action_kouhyou_detail_004_kani=true&JigyosyoCd=1890300229-00&ServiceCd=&Type=search" }, "geometry": { "type": "Point", "coordinates": [ 136.163765913491858, 35.905405827704094 ] } },
{ "type": "Feature", "properties": { "内容": "看護小規模多機能　縁の家シンシア【看護小規模多機能型居宅介護（複合型サービス）】福井県坂井市坂井町下兵庫132-6-1", "url2": "https://www.kaigokensaku.mhlw.go.jp/18/index.php?action_kouhyou_detail_004_kani=true&JigyosyoCd=1891700237-00&ServiceCd=&Type=search" }, "geometry": { "type": "Point", "coordinates": [ 136.201195687033078, 36.169149815946781 ] } },
{ "type": "Feature", "properties": { "内容": "デイホーム　ゆり【看護小規模多機能型居宅介護（複合型サービス）】福井県坂井市春江町本堂27ー1ー1地域密着型介護老人福祉施設ケアセンターゆり　４F", "url2": "https://www.kaigokensaku.mhlw.go.jp/18/index.php?action_kouhyou_detail_004_kani=true&JigyosyoCd=1891700120-00&ServiceCd=&Type=search" }, "geometry": { "type": "Point", "coordinates": [ 136.203934099999969, 36.1388055 ] } },
{ "type": "Feature", "properties": { "内容": "看護小規模多機能型居宅介護事業所かがやき【看護小規模多機能型居宅介護（複合型サービス）】三国町陣ヶ岡第13号3番地かがやき荘", "url2": "https://www.kaigokensaku.mhlw.go.jp/18/index.php?action_kouhyou_detail_004_kani=true&JigyosyoCd=1891700187-00&ServiceCd=&Type=search" }, "geometry": { "type": "Point", "coordinates": [ 136.136446, 36.2355373 ] } },
{ "type": "Feature", "properties": { "内容": "看護小規模多機能りんごの木【看護小規模多機能型居宅介護（複合型サービス）】福井県吉田郡永平寺町松岡松ヶ原1-307", "url2": "https://www.kaigokensaku.mhlw.go.jp/18/index.php?action_kouhyou_detail_004_kani=true&JigyosyoCd=1891600015-00&ServiceCd=&Type=search" }, "geometry": { "type": "Point", "coordinates": [ 136.290577326588192, 36.094714010640438 ] } },
{ "type": "Feature", "properties": { "内容": "看護小規模多機能ナーシングケアおた【看護小規模多機能型居宅介護（複合型サービス）】福井県丹生郡越前町織田106-42-2", "url2": "https://www.kaigokensaku.mhlw.go.jp/18/index.php?action_kouhyou_detail_004_kani=true&JigyosyoCd=1892000033-00&ServiceCd=&Type=search" }, "geometry": { "type": "Point", "coordinates": [ 136.047115464417999, 35.957764608982878 ] } }
]
}
