{
"type": "FeatureCollection",
"name": "geo_18_介護老人福祉施設",
"crs": { "type": "name", "properties": { "name": "urn:ogc:def:crs:OGC:1.3:CRS84" } },
"features": [
{ "type": "Feature", "properties": { "内容": "特別養護老人ホーム　愛寿苑【介護老人福祉施設】福井市若杉2丁目601", "url2": "https://www.kaigokensaku.mhlw.go.jp/18/index.php?action_kouhyou_detail_004_kani=true&JigyosyoCd=1870100391-00&ServiceCd=510&Type=search" }, "geometry": { "type": "Point", "coordinates": [ 136.190858100000014, 36.0552318 ] } },
{ "type": "Feature", "properties": { "内容": "特別養護老人ホームあさくら苑【介護老人福祉施設】福井市下六条町18-32", "url2": "https://www.kaigokensaku.mhlw.go.jp/18/index.php?action_kouhyou_detail_004_kani=true&JigyosyoCd=1870100409-00&ServiceCd=510&Type=search" }, "geometry": { "type": "Point", "coordinates": [ 136.229378099999963, 36.0351768 ] } },
{ "type": "Feature", "properties": { "内容": "特別養護老人ホーム　藤島園【介護老人福祉施設】福井市高木中央3-1701", "url2": "https://www.kaigokensaku.mhlw.go.jp/18/index.php?action_kouhyou_detail_004_kani=true&JigyosyoCd=1870100177-00&ServiceCd=510&Type=search" }, "geometry": { "type": "Point", "coordinates": [ 136.2396814, 36.0924394 ] } },
{ "type": "Feature", "properties": { "内容": "特別養護老人ホーム　高雄苑【介護老人福祉施設】福井県福井市本堂町５１字３３番地", "url2": "https://www.kaigokensaku.mhlw.go.jp/18/index.php?action_kouhyou_detail_004_kani=true&JigyosyoCd=1870100185-00&ServiceCd=510&Type=search" }, "geometry": { "type": "Point", "coordinates": [ 136.126684399999931, 36.0564834 ] } },
{ "type": "Feature", "properties": { "内容": "特別養護老人ホーム　あさむつ苑【介護老人福祉施設】福井市引目町第21号9番地の2", "url2": "https://www.kaigokensaku.mhlw.go.jp/18/index.php?action_kouhyou_detail_004_kani=true&JigyosyoCd=1870100227-00&ServiceCd=510&Type=search" }, "geometry": { "type": "Point", "coordinates": [ 136.19742240000005, 36.022397 ] } },
{ "type": "Feature", "properties": { "内容": "悠和園【介護老人福祉施設】福井市免鳥町22-74", "url2": "https://www.kaigokensaku.mhlw.go.jp/18/index.php?action_kouhyou_detail_004_kani=true&JigyosyoCd=1870100250-00&ServiceCd=510&Type=search" }, "geometry": { "type": "Point", "coordinates": [ 136.074891, 36.1309826 ] } },
{ "type": "Feature", "properties": { "内容": "特別養護老人ホーム宝珠苑【介護老人福祉施設】福井市内山梨子町2-3-1", "url2": "https://www.kaigokensaku.mhlw.go.jp/18/index.php?action_kouhyou_detail_004_kani=true&JigyosyoCd=1870100037-00&ServiceCd=510&Type=search" }, "geometry": { "type": "Point", "coordinates": [ 136.15733821349184, 36.134679943750186 ] } },
{ "type": "Feature", "properties": { "内容": "たんぽぽ苑【介護老人福祉施設】福井市石盛３丁目３０１番地", "url2": "https://www.kaigokensaku.mhlw.go.jp/18/index.php?action_kouhyou_detail_004_kani=true&JigyosyoCd=1870100045-00&ServiceCd=510&Type=search" }, "geometry": { "type": "Point", "coordinates": [ 136.236739300112362, 36.118588229135376 ] } },
{ "type": "Feature", "properties": { "内容": "足羽利生苑【介護老人福祉施設】福井県福井市栂野町20-7", "url2": "https://www.kaigokensaku.mhlw.go.jp/18/index.php?action_kouhyou_detail_004_kani=true&JigyosyoCd=1870100052-00&ServiceCd=510&Type=search" }, "geometry": { "type": "Point", "coordinates": [ 136.258015099999966, 36.0388432 ] } },
{ "type": "Feature", "properties": { "内容": "愛全園（従来型）【介護老人福祉施設】福井県福井市丸山町40-7", "url2": "https://www.kaigokensaku.mhlw.go.jp/18/index.php?action_kouhyou_detail_004_kani=true&JigyosyoCd=1870100060-00&ServiceCd=510&Type=search" }, "geometry": { "type": "Point", "coordinates": [ 136.251463699999931, 36.0776558 ] } },
{ "type": "Feature", "properties": { "内容": "介護老人福祉施設　文珠苑【介護老人福祉施設】福井県福井市北山町第35号5番地の１", "url2": "https://www.kaigokensaku.mhlw.go.jp/18/index.php?action_kouhyou_detail_004_kani=true&JigyosyoCd=1870100169-00&ServiceCd=510&Type=search" }, "geometry": { "type": "Point", "coordinates": [ 136.250863100000061, 36.0016067 ] } },
{ "type": "Feature", "properties": { "内容": "特別養護老人ホーム　美山貴寿苑【介護老人福祉施設】福井市市波町３１－２", "url2": "https://www.kaigokensaku.mhlw.go.jp/18/index.php?action_kouhyou_detail_004_kani=true&JigyosyoCd=1870101563-00&ServiceCd=510&Type=search" }, "geometry": { "type": "Point", "coordinates": [ 136.330821, 36.0162412 ] } },
{ "type": "Feature", "properties": { "内容": "すみれ荘【介護老人福祉施設】福井市島寺町８３－１", "url2": "https://www.kaigokensaku.mhlw.go.jp/18/index.php?action_kouhyou_detail_004_kani=true&JigyosyoCd=1870101597-00&ServiceCd=510&Type=search" }, "geometry": { "type": "Point", "coordinates": [ 136.14238649999993, 36.0174078 ] } },
{ "type": "Feature", "properties": { "内容": "こしの渚苑【介護老人福祉施設】福井県福井市蒲生町1-90-1", "url2": "https://www.kaigokensaku.mhlw.go.jp/18/index.php?action_kouhyou_detail_004_kani=true&JigyosyoCd=1870101639-00&ServiceCd=510&Type=search" }, "geometry": { "type": "Point", "coordinates": [ 136.011194599999953, 36.0382524 ] } },
{ "type": "Feature", "properties": { "内容": "HOMETOWNコスモス【介護老人福祉施設】福井県福井市帆谷町1字外山33", "url2": "https://www.kaigokensaku.mhlw.go.jp/18/index.php?action_kouhyou_detail_004_kani=true&JigyosyoCd=1870101803-00&ServiceCd=510&Type=search" }, "geometry": { "type": "Point", "coordinates": [ 136.233934, 36.005964 ] } },
{ "type": "Feature", "properties": { "内容": "モアヤング　こもれびホーム【介護老人福祉施設】福井県福井市和田中町東沖田30番地の１", "url2": "https://www.kaigokensaku.mhlw.go.jp/18/index.php?action_kouhyou_detail_004_kani=true&JigyosyoCd=1870101811-00&ServiceCd=510&Type=search" }, "geometry": { "type": "Point", "coordinates": [ 136.25740569128493, 36.050788454890672 ] } },
{ "type": "Feature", "properties": { "内容": "新田塚ハウス【介護老人福祉施設】福井県福井市江上町55-5", "url2": "https://www.kaigokensaku.mhlw.go.jp/18/index.php?action_kouhyou_detail_004_kani=true&JigyosyoCd=1870100466-00&ServiceCd=510&Type=search" }, "geometry": { "type": "Point", "coordinates": [ 136.164076483548001, 36.131077529478951 ] } },
{ "type": "Feature", "properties": { "内容": "愛全園（ユニット型）【介護老人福祉施設】福井市丸山町40-7", "url2": "https://www.kaigokensaku.mhlw.go.jp/18/index.php?action_kouhyou_detail_004_kani=true&JigyosyoCd=1870102686-00&ServiceCd=510&Type=search" }, "geometry": { "type": "Point", "coordinates": [ 136.251463699999931, 36.0776558 ] } },
{ "type": "Feature", "properties": { "内容": "こしの渚苑（ユニット型）【介護老人福祉施設】福井市蒲生町1-90-1こしの渚苑", "url2": "https://www.kaigokensaku.mhlw.go.jp/18/index.php?action_kouhyou_detail_004_kani=true&JigyosyoCd=1870102603-00&ServiceCd=510&Type=search" }, "geometry": { "type": "Point", "coordinates": [ 136.011194599999953, 36.0382524 ] } },
{ "type": "Feature", "properties": { "内容": "山翠苑【介護老人福祉施設】福井市堅達町２４－１", "url2": "https://www.kaigokensaku.mhlw.go.jp/18/index.php?action_kouhyou_detail_004_kani=true&JigyosyoCd=1870100441-00&ServiceCd=510&Type=search" }, "geometry": { "type": "Point", "coordinates": [ 136.271151300000042, 36.0749736 ] } },
{ "type": "Feature", "properties": { "内容": "特別養護老人ホーム　たぶのき【介護老人福祉施設】大願寺3丁目3-6", "url2": "https://www.kaigokensaku.mhlw.go.jp/18/index.php?action_kouhyou_detail_004_kani=true&JigyosyoCd=1870102884-00&ServiceCd=510&Type=search" }, "geometry": { "type": "Point", "coordinates": [ 136.228150689549238, 36.081690097566579 ] } },
{ "type": "Feature", "properties": { "内容": "特別養護老人ホーム　　眞盛苑【介護老人福祉施設】福井県敦賀市莇生野90号3番", "url2": "https://www.kaigokensaku.mhlw.go.jp/18/index.php?action_kouhyou_detail_004_kani=true&JigyosyoCd=1870200043-00&ServiceCd=510&Type=search" }, "geometry": { "type": "Point", "coordinates": [ 136.043886899999961, 35.6274017 ] } },
{ "type": "Feature", "properties": { "内容": "常磐荘【介護老人福祉施設】福井県敦賀市金山５０号１９番地の１", "url2": "https://www.kaigokensaku.mhlw.go.jp/18/index.php?action_kouhyou_detail_004_kani=true&JigyosyoCd=1870200092-00&ServiceCd=510&Type=search" }, "geometry": { "type": "Point", "coordinates": [ 136.030468683332799, 35.621808390223123 ] } },
{ "type": "Feature", "properties": { "内容": "特別養護老人ホーム　　眞盛苑【介護老人福祉施設】福井県敦賀市莇生野90号3番", "url2": "https://www.kaigokensaku.mhlw.go.jp/18/index.php?action_kouhyou_detail_004_kani=true&JigyosyoCd=1870200431-00&ServiceCd=510&Type=search" }, "geometry": { "type": "Point", "coordinates": [ 136.043886899999961, 35.6274017 ] } },
{ "type": "Feature", "properties": { "内容": "特別養護老人ホーム　渓山荘【介護老人福祉施設】福井県敦賀市中８１－１－５", "url2": "https://www.kaigokensaku.mhlw.go.jp/18/index.php?action_kouhyou_detail_004_kani=true&JigyosyoCd=1870200019-00&ServiceCd=510&Type=search" }, "geometry": { "type": "Point", "coordinates": [ 136.087853799999948, 35.6389014 ] } },
{ "type": "Feature", "properties": { "内容": "第2渓山荘ぽっぽ【介護老人福祉施設】福井県敦賀市鉄輪町1丁目２－５７", "url2": "https://www.kaigokensaku.mhlw.go.jp/18/index.php?action_kouhyou_detail_004_kani=true&JigyosyoCd=1870200316-00&ServiceCd=510&Type=search" }, "geometry": { "type": "Point", "coordinates": [ 136.073949125131207, 35.643052507226464 ] } },
{ "type": "Feature", "properties": { "内容": "特別養護老人ホーム　若狭ハイツ【介護老人福祉施設】小浜市阿納尻第５９号９番地の１", "url2": "https://www.kaigokensaku.mhlw.go.jp/18/index.php?action_kouhyou_detail_004_kani=true&JigyosyoCd=1870400049-00&ServiceCd=510&Type=search" }, "geometry": { "type": "Point", "coordinates": [ 135.762870264418069, 35.529606759525606 ] } },
{ "type": "Feature", "properties": { "内容": "特別養護老人ホーム　もみじの里【介護老人福祉施設】福井県小浜市東勢11号3番", "url2": "https://www.kaigokensaku.mhlw.go.jp/18/index.php?action_kouhyou_detail_004_kani=true&JigyosyoCd=1870400155-00&ServiceCd=510&Type=search" }, "geometry": { "type": "Point", "coordinates": [ 135.720410099999981, 35.482683 ] } },
{ "type": "Feature", "properties": { "内容": "特別養護老人ホームひまわり荘【介護老人福祉施設】福井県小浜市加茂2-52特別養護老人ホームひまわり荘", "url2": "https://www.kaigokensaku.mhlw.go.jp/18/index.php?action_kouhyou_detail_004_kani=true&JigyosyoCd=1870400122-00&ServiceCd=510&Type=search" }, "geometry": { "type": "Point", "coordinates": [ 135.8215993, 35.4924896 ] } },
{ "type": "Feature", "properties": { "内容": "福井県済生会聖和園【介護老人福祉施設】福井県大野市蕨生158-35", "url2": "https://www.kaigokensaku.mhlw.go.jp/18/index.php?action_kouhyou_detail_004_kani=true&JigyosyoCd=1870500020-00&ServiceCd=510&Type=search" }, "geometry": { "type": "Point", "coordinates": [ 136.546960200000058, 35.9819682 ] } },
{ "type": "Feature", "properties": { "内容": "特別養護老人ホーム大野和光園【介護老人福祉施設】福井県大野市篠座７９号１１番地", "url2": "https://www.kaigokensaku.mhlw.go.jp/18/index.php?action_kouhyou_detail_004_kani=true&JigyosyoCd=1870500038-00&ServiceCd=510&Type=search" }, "geometry": { "type": "Point", "coordinates": [ 136.500877922090126, 35.964895904142843 ] } },
{ "type": "Feature", "properties": { "内容": "特別養護老人ホーム　大野和光園【介護老人福祉施設】福井県大野市篠座７９号１１番地", "url2": "https://www.kaigokensaku.mhlw.go.jp/18/index.php?action_kouhyou_detail_004_kani=true&JigyosyoCd=1870500376-00&ServiceCd=510&Type=search" }, "geometry": { "type": "Point", "coordinates": [ 136.500698433729553, 35.965247906340124 ] } },
{ "type": "Feature", "properties": { "内容": "介護老人福祉施設　ビハーラ大野【介護老人福祉施設】牛ヶ原154-1-1", "url2": "https://www.kaigokensaku.mhlw.go.jp/18/index.php?action_kouhyou_detail_004_kani=true&JigyosyoCd=1870500467-00&ServiceCd=510&Type=search" }, "geometry": { "type": "Point", "coordinates": [ 136.465924200000018, 35.9938373 ] } },
{ "type": "Feature", "properties": { "内容": "特別養護老人ホーム　さつき苑（従来型）【介護老人福祉施設】福井県勝山市片瀬第１５号２２番地", "url2": "https://www.kaigokensaku.mhlw.go.jp/18/index.php?action_kouhyou_detail_004_kani=true&JigyosyoCd=1870600010-00&ServiceCd=510&Type=search" }, "geometry": { "type": "Point", "coordinates": [ 136.521571399999971, 36.0487165 ] } },
{ "type": "Feature", "properties": { "内容": "特別養護老人ホーム　さつき苑（ユニット型）【介護老人福祉施設】福井県勝山市片瀬第１５号２２番地", "url2": "https://www.kaigokensaku.mhlw.go.jp/18/index.php?action_kouhyou_detail_004_kani=true&JigyosyoCd=1870600184-00&ServiceCd=510&Type=search" }, "geometry": { "type": "Point", "coordinates": [ 136.521571399999971, 36.0487165 ] } },
{ "type": "Feature", "properties": { "内容": "シルバーケア九頭竜【介護老人福祉施設】福井県勝山市平泉寺町岩ヶ野第42号61番地", "url2": "https://www.kaigokensaku.mhlw.go.jp/18/index.php?action_kouhyou_detail_004_kani=true&JigyosyoCd=1870600200-00&ServiceCd=510&Type=search" }, "geometry": { "type": "Point", "coordinates": [ 136.546740900000032, 36.0133012 ] } },
{ "type": "Feature", "properties": { "内容": "特別養護老人ホームさくら荘【介護老人福祉施設】福井県勝山市北谷町中尾第13号16番地", "url2": "https://www.kaigokensaku.mhlw.go.jp/18/index.php?action_kouhyou_detail_004_kani=true&JigyosyoCd=1870600028-00&ServiceCd=510&Type=search" }, "geometry": { "type": "Point", "coordinates": [ 136.54333474047553, 36.098837129516589 ] } },
{ "type": "Feature", "properties": { "内容": "五岳園【介護老人福祉施設】福井県鯖江市漆原町20－8", "url2": "https://www.kaigokensaku.mhlw.go.jp/18/index.php?action_kouhyou_detail_004_kani=true&JigyosyoCd=1870700034-00&ServiceCd=510&Type=search" }, "geometry": { "type": "Point", "coordinates": [ 136.145520199999964, 35.9385881 ] } },
{ "type": "Feature", "properties": { "内容": "特別養護老人ホームことぶき荘【介護老人福祉施設】福井県鯖江市大野町3-1", "url2": "https://www.kaigokensaku.mhlw.go.jp/18/index.php?action_kouhyou_detail_004_kani=true&JigyosyoCd=1870700067-00&ServiceCd=510&Type=search" }, "geometry": { "type": "Point", "coordinates": [ 136.2283956, 35.9780763 ] } },
{ "type": "Feature", "properties": { "内容": "エレガントセニールガーデン【介護老人福祉施設】福井県鯖江市吉江町31-7-1", "url2": "https://www.kaigokensaku.mhlw.go.jp/18/index.php?action_kouhyou_detail_004_kani=true&JigyosyoCd=1870700166-00&ServiceCd=510&Type=search" }, "geometry": { "type": "Point", "coordinates": [ 136.168302, 35.986754 ] } },
{ "type": "Feature", "properties": { "内容": "特別養護老人ホームことぶき荘【介護老人福祉施設】福井県鯖江市大野町3-1", "url2": "https://www.kaigokensaku.mhlw.go.jp/18/index.php?action_kouhyou_detail_004_kani=true&JigyosyoCd=1870700463-00&ServiceCd=510&Type=search" }, "geometry": { "type": "Point", "coordinates": [ 136.2283956, 35.9780763 ] } },
{ "type": "Feature", "properties": { "内容": "あわら市金津雲雀ヶ丘寮介護老人福祉施設【介護老人福祉施設】あわら市春宮3丁目28-21", "url2": "https://www.kaigokensaku.mhlw.go.jp/18/index.php?action_kouhyou_detail_004_kani=true&JigyosyoCd=1870800297-00&ServiceCd=510&Type=search" }, "geometry": { "type": "Point", "coordinates": [ 136.227530800000068, 36.2199603 ] } },
{ "type": "Feature", "properties": { "内容": "あわら市金津雲雀ヶ丘寮介護老人福祉施設【介護老人福祉施設】あわら市春宮三丁目28-21", "url2": "https://www.kaigokensaku.mhlw.go.jp/18/index.php?action_kouhyou_detail_004_kani=true&JigyosyoCd=1870800073-00&ServiceCd=510&Type=search" }, "geometry": { "type": "Point", "coordinates": [ 136.227530800000068, 36.2199603 ] } },
{ "type": "Feature", "properties": { "内容": "特別養護老人ホーム　芦原メロン苑　（介護老人福祉施設）【介護老人福祉施設】福井県あわら市井江葭50-18", "url2": "https://www.kaigokensaku.mhlw.go.jp/18/index.php?action_kouhyou_detail_004_kani=true&JigyosyoCd=1870800016-00&ServiceCd=510&Type=search" }, "geometry": { "type": "Point", "coordinates": [ 136.218481, 36.2403604 ] } },
{ "type": "Feature", "properties": { "内容": "第３和上苑【介護老人福祉施設】福井県越前市高木町12-7-1", "url2": "https://www.kaigokensaku.mhlw.go.jp/18/index.php?action_kouhyou_detail_004_kani=true&JigyosyoCd=1870300728-00&ServiceCd=510&Type=search" }, "geometry": { "type": "Point", "coordinates": [ 136.190493899999979, 35.9282074 ] } },
{ "type": "Feature", "properties": { "内容": "第２和上苑【介護老人福祉施設】福井県越前市白崎町第34号2番地の１", "url2": "https://www.kaigokensaku.mhlw.go.jp/18/index.php?action_kouhyou_detail_004_kani=true&JigyosyoCd=1870300124-00&ServiceCd=510&Type=search" }, "geometry": { "type": "Point", "coordinates": [ 136.145103, 35.8644917 ] } },
{ "type": "Feature", "properties": { "内容": "第２水仙園【介護老人福祉施設】福井県越前市萱谷町４－９－１", "url2": "https://www.kaigokensaku.mhlw.go.jp/18/index.php?action_kouhyou_detail_004_kani=true&JigyosyoCd=1870300835-00&ServiceCd=510&Type=search" }, "geometry": { "type": "Point", "coordinates": [ 136.23272, 35.8787034 ] } },
{ "type": "Feature", "properties": { "内容": "特別養護老人ホーム　メゾンいまだて【介護老人福祉施設】福井県越前市東樫尾町８番３８号", "url2": "https://www.kaigokensaku.mhlw.go.jp/18/index.php?action_kouhyou_detail_004_kani=true&JigyosyoCd=1870300439-00&ServiceCd=510&Type=search" }, "geometry": { "type": "Point", "coordinates": [ 136.282945199999972, 35.9382156 ] } },
{ "type": "Feature", "properties": { "内容": "水仙園【介護老人福祉施設】越前市萱谷町４－９－１", "url2": "https://www.kaigokensaku.mhlw.go.jp/18/index.php?action_kouhyou_detail_004_kani=true&JigyosyoCd=1870300017-00&ServiceCd=510&Type=search" }, "geometry": { "type": "Point", "coordinates": [ 136.23272, 35.8787034 ] } },
{ "type": "Feature", "properties": { "内容": "介護老人福祉施設　豊楽園【介護老人福祉施設】福井県坂井市坂井町下関42-2", "url2": "https://www.kaigokensaku.mhlw.go.jp/18/index.php?action_kouhyou_detail_004_kani=true&JigyosyoCd=1871700090-00&ServiceCd=510&Type=search" }, "geometry": { "type": "Point", "coordinates": [ 136.227779026844843, 36.190997097728562 ] } },
{ "type": "Feature", "properties": { "内容": "特別養護老人ホーム　ガーデンハイツ春江【介護老人福祉施設】福井県坂井市春江町針原４８－２８－１", "url2": "https://www.kaigokensaku.mhlw.go.jp/18/index.php?action_kouhyou_detail_004_kani=true&JigyosyoCd=1871700108-00&ServiceCd=510&Type=search" }, "geometry": { "type": "Point", "coordinates": [ 136.207384100000013, 36.1286039 ] } },
{ "type": "Feature", "properties": { "内容": "特別養護老人ホーム　ガーデンハイツ春江【介護老人福祉施設】福井県坂井市春江町針原48-28-1", "url2": "https://www.kaigokensaku.mhlw.go.jp/18/index.php?action_kouhyou_detail_004_kani=true&JigyosyoCd=1871700934-00&ServiceCd=510&Type=search" }, "geometry": { "type": "Point", "coordinates": [ 136.207384100000013, 36.1286039 ] } },
{ "type": "Feature", "properties": { "内容": "介護老人福祉施設　長寿園（ユニット型）【介護老人福祉施設】福井県坂井市丸岡町八ケ郷２２－４", "url2": "https://www.kaigokensaku.mhlw.go.jp/18/index.php?action_kouhyou_detail_004_kani=true&JigyosyoCd=1871700967-00&ServiceCd=510&Type=search" }, "geometry": { "type": "Point", "coordinates": [ 136.2786754, 36.1606079 ] } },
{ "type": "Feature", "properties": { "内容": "特別養護老人ホーム白楽荘【介護老人福祉施設】福井県坂井市三国町梶49-18", "url2": "https://www.kaigokensaku.mhlw.go.jp/18/index.php?action_kouhyou_detail_004_kani=true&JigyosyoCd=1871700132-00&ServiceCd=510&Type=search" }, "geometry": { "type": "Point", "coordinates": [ 136.155039375393727, 36.246430452827234 ] } },
{ "type": "Feature", "properties": { "内容": "ひかり苑【介護老人福祉施設】福井県吉田郡永平寺町山王7-30", "url2": "https://www.kaigokensaku.mhlw.go.jp/18/index.php?action_kouhyou_detail_004_kani=true&JigyosyoCd=1871600282-00&ServiceCd=510&Type=search" }, "geometry": { "type": "Point", "coordinates": [ 136.3959853, 36.0800933 ] } },
{ "type": "Feature", "properties": { "内容": "ひかり苑【介護老人福祉施設】福井県吉田郡永平寺町山王7-30", "url2": "https://www.kaigokensaku.mhlw.go.jp/18/index.php?action_kouhyou_detail_004_kani=true&JigyosyoCd=1871600035-00&ServiceCd=510&Type=search" }, "geometry": { "type": "Point", "coordinates": [ 136.3959853, 36.0800933 ] } },
{ "type": "Feature", "properties": { "内容": "永平寺ハウス【介護老人福祉施設】吉田郡永平寺町けやき台813-1", "url2": "https://www.kaigokensaku.mhlw.go.jp/18/index.php?action_kouhyou_detail_004_kani=true&JigyosyoCd=1871600050-00&ServiceCd=510&Type=search" }, "geometry": { "type": "Point", "coordinates": [ 136.317498600000022, 36.0768645 ] } },
{ "type": "Feature", "properties": { "内容": "アニス松岡【介護老人福祉施設】福井県吉田郡永平寺町松岡椚第３１号７番地１", "url2": "https://www.kaigokensaku.mhlw.go.jp/18/index.php?action_kouhyou_detail_004_kani=true&JigyosyoCd=1871600142-00&ServiceCd=510&Type=search" }, "geometry": { "type": "Point", "coordinates": [ 136.297427079762201, 36.095109214709645 ] } },
{ "type": "Feature", "properties": { "内容": "池田町幸寿苑【介護老人福祉施設】福井県今立郡池田町常安２０－５", "url2": "https://www.kaigokensaku.mhlw.go.jp/18/index.php?action_kouhyou_detail_004_kani=true&JigyosyoCd=1871800072-00&ServiceCd=510&Type=search" }, "geometry": { "type": "Point", "coordinates": [ 136.343993599999976, 35.8776908 ] } },
{ "type": "Feature", "properties": { "内容": "ほのぼの苑【介護老人福祉施設】福井県南条郡南越前町鋳物師5-10-1", "url2": "https://www.kaigokensaku.mhlw.go.jp/18/index.php?action_kouhyou_detail_004_kani=true&JigyosyoCd=1871900096-00&ServiceCd=510&Type=search" }, "geometry": { "type": "Point", "coordinates": [ 136.197598200000016, 35.8416771 ] } },
{ "type": "Feature", "properties": { "内容": "特別養護老人ホーム　丹生ケアセンターひまわり荘【介護老人福祉施設】福井県丹生郡越前町四ツ杉3-10", "url2": "https://www.kaigokensaku.mhlw.go.jp/18/index.php?action_kouhyou_detail_004_kani=true&JigyosyoCd=1872000573-00&ServiceCd=510&Type=search" }, "geometry": { "type": "Point", "coordinates": [ 136.0355446, 35.9607264 ] } },
{ "type": "Feature", "properties": { "内容": "ユニット型指定介護老人福祉施設　第三光が丘ハウス【介護老人福祉施設】福井県丹生郡越前町朝日22字７-１", "url2": "https://www.kaigokensaku.mhlw.go.jp/18/index.php?action_kouhyou_detail_004_kani=true&JigyosyoCd=1872000011-00&ServiceCd=510&Type=search" }, "geometry": { "type": "Point", "coordinates": [ 136.119688, 35.9709529 ] } },
{ "type": "Feature", "properties": { "内容": "特別養護老人ホーム　やすらぎ荘【介護老人福祉施設】福井県丹生郡越前町織田１０２－８１", "url2": "https://www.kaigokensaku.mhlw.go.jp/18/index.php?action_kouhyou_detail_004_kani=true&JigyosyoCd=1872000029-00&ServiceCd=510&Type=search" }, "geometry": { "type": "Point", "coordinates": [ 136.05192691898813, 35.958478109132805 ] } },
{ "type": "Feature", "properties": { "内容": "シルバーハイツ宮崎【介護老人福祉施設】福井県丹生郡越前町小曽原75-35", "url2": "https://www.kaigokensaku.mhlw.go.jp/18/index.php?action_kouhyou_detail_004_kani=true&JigyosyoCd=1872000235-00&ServiceCd=510&Type=search" }, "geometry": { "type": "Point", "coordinates": [ 136.066489600000097, 35.9284175 ] } },
{ "type": "Feature", "properties": { "内容": "特別養護老人ホーム　海楽園【介護老人福祉施設】福井県丹生郡越前町米ノ46-1-1", "url2": "https://www.kaigokensaku.mhlw.go.jp/18/index.php?action_kouhyou_detail_004_kani=true&JigyosyoCd=1872000052-00&ServiceCd=510&Type=search" }, "geometry": { "type": "Point", "coordinates": [ 135.996106, 35.8918365 ] } },
{ "type": "Feature", "properties": { "内容": "特別養護老人ホーム　湖岳の郷【介護老人福祉施設】福井県三方郡美浜町金山2-3-27", "url2": "https://www.kaigokensaku.mhlw.go.jp/18/index.php?action_kouhyou_detail_004_kani=true&JigyosyoCd=1872100035-00&ServiceCd=510&Type=search" }, "geometry": { "type": "Point", "coordinates": [ 135.912805899999967, 35.5964555 ] } },
{ "type": "Feature", "properties": { "内容": "高浜けいあいの里【介護老人福祉施設】福井県大飯郡高浜町和田168－22", "url2": "https://www.kaigokensaku.mhlw.go.jp/18/index.php?action_kouhyou_detail_004_kani=true&JigyosyoCd=1872300098-00&ServiceCd=510&Type=search" }, "geometry": { "type": "Point", "coordinates": [ 135.582472100000018, 35.4874894 ] } },
{ "type": "Feature", "properties": { "内容": "楊梅苑【介護老人福祉施設】福井県大飯郡おおい町野尻２８－３７", "url2": "https://www.kaigokensaku.mhlw.go.jp/18/index.php?action_kouhyou_detail_004_kani=true&JigyosyoCd=1872300031-00&ServiceCd=510&Type=search" }, "geometry": { "type": "Point", "coordinates": [ 135.610770699999989, 35.4571065 ] } },
{ "type": "Feature", "properties": { "内容": "松寿苑（ユニット型）【介護老人福祉施設】福井県三方上中郡若狭町井ノ口32-6-1", "url2": "https://www.kaigokensaku.mhlw.go.jp/18/index.php?action_kouhyou_detail_004_kani=true&JigyosyoCd=1872400187-00&ServiceCd=510&Type=search" }, "geometry": { "type": "Point", "coordinates": [ 135.853764995353686, 35.464483257009555 ] } },
{ "type": "Feature", "properties": { "内容": "松寿苑（従来型）【介護老人福祉施設】福井県三方上中郡若狭町井ノ口32-6-1", "url2": "https://www.kaigokensaku.mhlw.go.jp/18/index.php?action_kouhyou_detail_004_kani=true&JigyosyoCd=1872400047-00&ServiceCd=510&Type=search" }, "geometry": { "type": "Point", "coordinates": [ 135.853925927894579, 35.464531318042781 ] } }
]
}
