{
"type": "FeatureCollection",
"name": "geo_18_訪問看護",
"crs": { "type": "name", "properties": { "name": "urn:ogc:def:crs:OGC:1.3:CRS84" } },
"features": [
{ "type": "Feature", "properties": { "内容": "訪問看護ステーション　仁里【訪問看護】福井県福井市文京5丁目10番1号", "url": "https://www.kaigokensaku.mhlw.go.jp/18/index.php?action_kouhyou_detail_004_kani=true&JigyosyoCd=1860190402-00&ServiceCd=130&Type=search", "url2": null }, "geometry": { "type": "Point", "coordinates": [ 136.206331399999954, 36.0758487 ] } },
{ "type": "Feature", "properties": { "内容": "しみず訪問看護ステーション【訪問看護】福井市グリーンハイツ4丁目174番", "url": "https://www.kaigokensaku.mhlw.go.jp/18/index.php?action_kouhyou_detail_004_kani=true&JigyosyoCd=1860190220-00&ServiceCd=130&Type=search", "url2": null }, "geometry": { "type": "Point", "coordinates": [ 136.16485560000001, 36.0443212 ] } },
{ "type": "Feature", "properties": { "内容": "訪問看護ステーションりりいふ【訪問看護】福井県福井市御幸２丁目１７－２２植原ビル１F‐C号室", "url": "https://www.kaigokensaku.mhlw.go.jp/18/index.php?action_kouhyou_detail_004_kani=true&JigyosyoCd=1860190527-00&ServiceCd=130&Type=search", "url2": "https://www.ririihu.com/" }, "geometry": { "type": "Point", "coordinates": [ 136.232546, 36.0556899 ] } },
{ "type": "Feature", "properties": { "内容": "ほのか訪問看護ステーション【訪問看護】三郎丸2-401", "url": "https://www.kaigokensaku.mhlw.go.jp/18/index.php?action_kouhyou_detail_004_kani=true&JigyosyoCd=1860190378-00&ServiceCd=130&Type=search", "url2": "http://www.care-unit.com/" }, "geometry": { "type": "Point", "coordinates": [ 136.188486535582001, 36.076580092939857 ] } },
{ "type": "Feature", "properties": { "内容": "訪問看護ステーションやわらぎ【訪問看護】福井県福井市下六条町217番4", "url": "https://www.kaigokensaku.mhlw.go.jp/18/index.php?action_kouhyou_detail_004_kani=true&JigyosyoCd=1860190253-00&ServiceCd=130&Type=search", "url2": "https://rokujyokoseikai.jp/nursing/" }, "geometry": { "type": "Point", "coordinates": [ 136.233926487171971, 36.036607708026729 ] } },
{ "type": "Feature", "properties": { "内容": "訪問看護ステーションデューン福井【訪問看護】福井県福井市日之出1-29-1KIMURAビル2階", "url": "https://www.kaigokensaku.mhlw.go.jp/18/index.php?action_kouhyou_detail_004_kani=true&JigyosyoCd=1860190360-00&ServiceCd=130&Type=search", "url2": null }, "geometry": { "type": "Point", "coordinates": [ 138.174694, 34.8318586 ] } },
{ "type": "Feature", "properties": { "内容": "たわらまち整形外科・内科クリニック【訪問看護】福井市文京２丁目１番１５号", "url": "https://www.kaigokensaku.mhlw.go.jp/18/index.php?action_kouhyou_detail_004_kani=true&JigyosyoCd=1810122190-00&ServiceCd=130&Type=search", "url2": "https://www.tawaramachi.jp" }, "geometry": { "type": "Point", "coordinates": [ 136.2172981, 36.0751606 ] } },
{ "type": "Feature", "properties": { "内容": "訪問看護ステーションりんごの木【訪問看護】福井県吉田郡永平寺町松岡松ヶ原1-307", "url": "https://www.kaigokensaku.mhlw.go.jp/18/index.php?action_kouhyou_detail_004_kani=true&JigyosyoCd=1861690038-00&ServiceCd=130&Type=search", "url2": "https://www.ringoemori.com/" }, "geometry": { "type": "Point", "coordinates": [ 136.290591731515832, 36.094707036615723 ] } },
{ "type": "Feature", "properties": { "内容": "ケアパイプ訪問看護ステーション【訪問看護】福井県福井市板垣4丁目602SHIRAKABA105号室", "url": "https://www.kaigokensaku.mhlw.go.jp/18/index.php?action_kouhyou_detail_004_kani=true&JigyosyoCd=1860190618-00&ServiceCd=130&Type=search", "url2": "https://liaccompany.com/carepipe.fukui/" }, "geometry": { "type": "Point", "coordinates": [ 136.2294961, 36.0456728 ] } },
{ "type": "Feature", "properties": { "内容": "ＳＯＭＰＯケア　福井　訪問看護【訪問看護】福井県福井市城東一丁目２番１３号", "url": "https://www.kaigokensaku.mhlw.go.jp/18/index.php?action_kouhyou_detail_004_kani=true&JigyosyoCd=1860190576-00&ServiceCd=130&Type=search", "url2": "http://www.sompocare.com" }, "geometry": { "type": "Point", "coordinates": [ 136.232106, 36.0602356 ] } },
{ "type": "Feature", "properties": { "内容": "地域看護ステーションみかんの木【訪問看護】福井県福井市田原1-2-20オレンジホームケアクリニック", "url": "https://www.kaigokensaku.mhlw.go.jp/18/index.php?action_kouhyou_detail_004_kani=true&JigyosyoCd=1860190329-00&ServiceCd=130&Type=search", "url2": "http://orangeclinic.jp" }, "geometry": { "type": "Point", "coordinates": [ 136.2168828, 36.071424200000017 ] } },
{ "type": "Feature", "properties": { "内容": "こぱんだ訪問看護ステーション【訪問看護】福井県福井市若杉2丁目1313", "url": "https://www.kaigokensaku.mhlw.go.jp/18/index.php?action_kouhyou_detail_004_kani=true&JigyosyoCd=1860190410-00&ServiceCd=130&Type=search", "url2": "https://copanda.jp" }, "geometry": { "type": "Point", "coordinates": [ 136.188658300000043, 36.056270500000018 ] } },
{ "type": "Feature", "properties": { "内容": "訪問看護ステーションゆい【訪問看護】福井県福井市舟橋1丁目304", "url": "https://www.kaigokensaku.mhlw.go.jp/18/index.php?action_kouhyou_detail_004_kani=true&JigyosyoCd=1860190519-00&ServiceCd=130&Type=search", "url2": "https://yui-maru-2021.com/" }, "geometry": { "type": "Point", "coordinates": [ 136.22491260000001, 36.0981861 ] } },
{ "type": "Feature", "properties": { "内容": "訪問看護あさがおステーション【訪問看護】福井市新保町１９字３５番１", "url": "https://www.kaigokensaku.mhlw.go.jp/18/index.php?action_kouhyou_detail_004_kani=true&JigyosyoCd=1860190238-00&ServiceCd=130&Type=search", "url2": "asagao@fukui-medix.com" }, "geometry": { "type": "Point", "coordinates": [ 136.258813199999963, 36.0851414 ] } },
{ "type": "Feature", "properties": { "内容": "みどりの森訪問看護ステ－ション【訪問看護】福井市文京２丁目６番１０号みどりの森　２階", "url": "https://www.kaigokensaku.mhlw.go.jp/18/index.php?action_kouhyou_detail_004_kani=true&JigyosyoCd=1860190113-00&ServiceCd=130&Type=search", "url2": "http://www.fmatsubara.com/" }, "geometry": { "type": "Point", "coordinates": [ 136.218067449073828, 36.077440350528242 ] } },
{ "type": "Feature", "properties": { "内容": "訪問看護ステーションkizuna（きずな）【訪問看護】福井県福井市新田塚１丁目55-1", "url": "https://www.kaigokensaku.mhlw.go.jp/18/index.php?action_kouhyou_detail_004_kani=true&JigyosyoCd=1860190667-00&ServiceCd=130&Type=search", "url2": "https://www.minorinokizuna.com" }, "geometry": { "type": "Point", "coordinates": [ 136.2057681, 36.093148 ] } },
{ "type": "Feature", "properties": { "内容": "訪問看護ステーションハートりんく【訪問看護】福井県福井市江端町32-42", "url": "https://www.kaigokensaku.mhlw.go.jp/18/index.php?action_kouhyou_detail_004_kani=true&JigyosyoCd=1860190584-00&ServiceCd=130&Type=search", "url2": "https://heartlink.life" }, "geometry": { "type": "Point", "coordinates": [ 136.210632906082111, 36.029262438294545 ] } },
{ "type": "Feature", "properties": { "内容": "訪問看護ひまわりステーション【訪問看護】福井市下六条町217番地", "url": "https://www.kaigokensaku.mhlw.go.jp/18/index.php?action_kouhyou_detail_004_kani=true&JigyosyoCd=1860190022-00&ServiceCd=130&Type=search", "url2": "http://www.koseikaigroup.jp" }, "geometry": { "type": "Point", "coordinates": [ 136.234072200000014, 36.0368627 ] } },
{ "type": "Feature", "properties": { "内容": "新田塚訪問看護ステーション【訪問看護】福井市新田塚1-42-1", "url": "https://www.kaigokensaku.mhlw.go.jp/18/index.php?action_kouhyou_detail_004_kani=true&JigyosyoCd=1860190030-00&ServiceCd=130&Type=search", "url2": "www.f-gh.jp" }, "geometry": { "type": "Point", "coordinates": [ 136.206336367905863, 36.092153754256799 ] } },
{ "type": "Feature", "properties": { "内容": "光陽訪問看護ステーション【訪問看護】福井市光陽３丁目９－２３", "url": "https://www.kaigokensaku.mhlw.go.jp/18/index.php?action_kouhyou_detail_004_kani=true&JigyosyoCd=1860190063-00&ServiceCd=130&Type=search", "url2": "http://www.fukui-min-iren.com/iryouseikyou/" }, "geometry": { "type": "Point", "coordinates": [ 136.195902, 36.0658138 ] } },
{ "type": "Feature", "properties": { "内容": "福井赤十字訪問看護ステーション【訪問看護】福井市月見２丁目４番１号", "url": "https://www.kaigokensaku.mhlw.go.jp/18/index.php?action_kouhyou_detail_004_kani=true&JigyosyoCd=1860190139-00&ServiceCd=130&Type=search", "url2": "http://www.fukui-med.jrc.or.jp/" }, "geometry": { "type": "Point", "coordinates": [ 136.212870299999963, 36.0475109 ] } },
{ "type": "Feature", "properties": { "内容": "いちご訪問看護ステーション【訪問看護】福井市西方1丁目2-11いちご在宅支援センター4階", "url": "https://www.kaigokensaku.mhlw.go.jp/18/index.php?action_kouhyou_detail_004_kani=true&JigyosyoCd=1860190188-00&ServiceCd=130&Type=search", "url2": "http://www.kenkoukai.or.jp" }, "geometry": { "type": "Point", "coordinates": [ 136.234540714854091, 36.053592787662545 ] } },
{ "type": "Feature", "properties": { "内容": "ひかり訪問看護ステーション板垣【訪問看護】福井県福井市板垣5丁目201番地", "url": "https://www.kaigokensaku.mhlw.go.jp/18/index.php?action_kouhyou_detail_004_kani=true&JigyosyoCd=1860190261-00&ServiceCd=130&Type=search", "url2": "https://www.hikarigroup.jp" }, "geometry": { "type": "Point", "coordinates": [ 136.22799373383782, 36.04425142298124 ] } },
{ "type": "Feature", "properties": { "内容": "千寿訪問看護ステーション【訪問看護】福井県福井市川合鷲塚町49-5", "url": "https://www.kaigokensaku.mhlw.go.jp/18/index.php?action_kouhyou_detail_004_kani=true&JigyosyoCd=1860190352-00&ServiceCd=130&Type=search", "url2": "http://www.senjukai.com" }, "geometry": { "type": "Point", "coordinates": [ 136.213011599999959, 36.1142721 ] } },
{ "type": "Feature", "properties": { "内容": "訪問看護ステーション　あったかホームひまわり【訪問看護】福井県福井市下馬3丁目2302番地", "url": "https://www.kaigokensaku.mhlw.go.jp/18/index.php?action_kouhyou_detail_004_kani=true&JigyosyoCd=1860190394-00&ServiceCd=130&Type=search", "url2": null }, "geometry": { "type": "Point", "coordinates": [ 136.2354527, 36.0376043 ] } },
{ "type": "Feature", "properties": { "内容": "訪問看護ステーションけやき【訪問看護】福井県福井市上森田6丁目109番地", "url": "https://www.kaigokensaku.mhlw.go.jp/18/index.php?action_kouhyou_detail_004_kani=true&JigyosyoCd=1860190436-00&ServiceCd=130&Type=search", "url2": "https://www.shine-fukui.com/" }, "geometry": { "type": "Point", "coordinates": [ 136.232915, 36.114933800000017 ] } },
{ "type": "Feature", "properties": { "内容": "新世紀ケア＋【訪問看護】福井県福井市栗森1丁目102番地", "url": "https://www.kaigokensaku.mhlw.go.jp/18/index.php?action_kouhyou_detail_004_kani=true&JigyosyoCd=1860190444-00&ServiceCd=130&Type=search", "url2": "https://www.big-advance.site/s/163/1455" }, "geometry": { "type": "Point", "coordinates": [ 136.2386272, 36.1163995 ] } },
{ "type": "Feature", "properties": { "内容": "訪問看護ステーション　元気と笑顔【訪問看護】福井県福井市四ツ井２丁目１１－１１", "url": "https://www.kaigokensaku.mhlw.go.jp/18/index.php?action_kouhyou_detail_004_kani=true&JigyosyoCd=1860190535-00&ServiceCd=130&Type=search", "url2": "genkitoegao-houkan-yotsui.com" }, "geometry": { "type": "Point", "coordinates": [ 136.2393377, 36.0680618 ] } },
{ "type": "Feature", "properties": { "内容": "訪問看護ステーションわかすぎ【訪問看護】福井県福井市若杉4丁目1602番地", "url": "https://www.kaigokensaku.mhlw.go.jp/18/index.php?action_kouhyou_detail_004_kani=true&JigyosyoCd=1860190600-00&ServiceCd=130&Type=search", "url2": "http://www.arigatou-ltd.co.jp" }, "geometry": { "type": "Point", "coordinates": [ 136.185253286508214, 36.056649136785815 ] } },
{ "type": "Feature", "properties": { "内容": "訪問看護ステーションほがらか【訪問看護】福井県福井市西谷２丁目４０４番地西谷ビルディング", "url": "https://www.kaigokensaku.mhlw.go.jp/18/index.php?action_kouhyou_detail_004_kani=true&JigyosyoCd=1860190626-00&ServiceCd=130&Type=search", "url2": "https://hogaraka-heart.jp/" }, "geometry": { "type": "Point", "coordinates": [ 136.204489, 36.0392497 ] } },
{ "type": "Feature", "properties": { "内容": "ハート訪問看護ステーション【訪問看護】福井県福井市新保2丁目228番地", "url": "https://www.kaigokensaku.mhlw.go.jp/18/index.php?action_kouhyou_detail_004_kani=true&JigyosyoCd=1860190634-00&ServiceCd=130&Type=search", "url2": "heart-houkan@fcvc.or.jp" }, "geometry": { "type": "Point", "coordinates": [ 136.250378899999987, 36.0778164 ] } },
{ "type": "Feature", "properties": { "内容": "花園訪問看護ステーション【訪問看護】福井県福井市松本１丁目５５番５号", "url": "https://www.kaigokensaku.mhlw.go.jp/18/index.php?action_kouhyou_detail_004_kani=true&JigyosyoCd=1860190659-00&ServiceCd=130&Type=search", "url2": null }, "geometry": { "type": "Point", "coordinates": [ 136.2312742, 36.0760272 ] } },
{ "type": "Feature", "properties": { "内容": "ケンコウ訪問看護ステーション【訪問看護】福井県福井市大手2-15-11", "url": "https://www.kaigokensaku.mhlw.go.jp/18/index.php?action_kouhyou_detail_004_kani=true&JigyosyoCd=1860190675-00&ServiceCd=130&Type=search", "url2": null }, "geometry": { "type": "Point", "coordinates": [ 136.225366400000013, 36.0663175 ] } },
{ "type": "Feature", "properties": { "内容": "訪問看護中央ステーション【訪問看護】福井市手寄1丁目7番23号駅東さくらビル", "url": "https://www.kaigokensaku.mhlw.go.jp/18/index.php?action_kouhyou_detail_004_kani=true&JigyosyoCd=1860190642-00&ServiceCd=130&Type=search", "url2": "https://fukui-medix.com" }, "geometry": { "type": "Point", "coordinates": [ 136.2225632, 36.0597881 ] } },
{ "type": "Feature", "properties": { "内容": "花訪問看護ステーション【訪問看護】福井県福井市文京5丁目17-26", "url": "https://www.kaigokensaku.mhlw.go.jp/18/index.php?action_kouhyou_detail_004_kani=true&JigyosyoCd=1860190501-00&ServiceCd=130&Type=search", "url2": "https://hana-nurse.com/" }, "geometry": { "type": "Point", "coordinates": [ 136.203660422282553, 36.077153784870426 ] } },
{ "type": "Feature", "properties": { "内容": "大和田訪問看護ステーション【訪問看護】福井県福井市大和田２丁目１０８番地", "url": "https://www.kaigokensaku.mhlw.go.jp/18/index.php?action_kouhyou_detail_004_kani=true&JigyosyoCd=1860190071-00&ServiceCd=130&Type=search", "url2": "http://www.yasukawa-hospital.jp/" }, "geometry": { "type": "Point", "coordinates": [ 136.2468503, 36.0951923 ] } },
{ "type": "Feature", "properties": { "内容": "あーる訪問看護ステーション【訪問看護】福井県福井市和田東2丁目1711番HASビル201号", "url": "https://www.kaigokensaku.mhlw.go.jp/18/index.php?action_kouhyou_detail_004_kani=true&JigyosyoCd=1860190717-00&ServiceCd=130&Type=search", "url2": "aru-houkan.com" }, "geometry": { "type": "Point", "coordinates": [ 136.2510279, 36.0490229 ] } },
{ "type": "Feature", "properties": { "内容": "福井県済生会訪問看護ステーション【訪問看護】福井市和田中町舟橋７番地１", "url": "https://www.kaigokensaku.mhlw.go.jp/18/index.php?action_kouhyou_detail_004_kani=true&JigyosyoCd=1860190048-00&ServiceCd=130&Type=search", "url2": "http://www.fukui-saiseikai.com" }, "geometry": { "type": "Point", "coordinates": [ 136.251502892539861, 36.047952117433269 ] } },
{ "type": "Feature", "properties": { "内容": "さくら病院訪問看護ステーション【訪問看護】福井県福井市下荒井町第21号４４ー1さくら病院", "url": "https://www.kaigokensaku.mhlw.go.jp/18/index.php?action_kouhyou_detail_004_kani=true&JigyosyoCd=1860190592-00&ServiceCd=130&Type=search", "url2": null }, "geometry": { "type": "Point", "coordinates": [ 136.208821100802624, 36.024915219720114 ] } },
{ "type": "Feature", "properties": { "内容": "訪問看護ステーションよつ葉ふくい【訪問看護】西谷1丁目1127番地西谷1丁目ビル1階", "url": "https://www.kaigokensaku.mhlw.go.jp/18/index.php?action_kouhyou_detail_004_kani=true&JigyosyoCd=1860190303-00&ServiceCd=130&Type=search", "url2": "http://www.mcare.co.jp/yotsuba/" }, "geometry": { "type": "Point", "coordinates": [ 136.208723550272339, 36.036096974146659 ] } },
{ "type": "Feature", "properties": { "内容": "ねこのあしあと【訪問看護】福井県福井市種池2-510", "url": "https://www.kaigokensaku.mhlw.go.jp/18/index.php?action_kouhyou_detail_004_kani=true&JigyosyoCd=1860190691-00&ServiceCd=130&Type=search", "url2": null }, "geometry": { "type": "Point", "coordinates": [ 136.189129799999989, 36.0378339 ] } },
{ "type": "Feature", "properties": { "内容": "訪問看護ステーション　なないろ【訪問看護】福井県福井市西方2丁目1-13", "url": "https://www.kaigokensaku.mhlw.go.jp/18/index.php?action_kouhyou_detail_004_kani=true&JigyosyoCd=1860190485-00&ServiceCd=130&Type=search", "url2": "https://7iro.fun" }, "geometry": { "type": "Point", "coordinates": [ 136.237795343007122, 36.053550629293696 ] } },
{ "type": "Feature", "properties": { "内容": "ゆうあい訪問看護ステーション【訪問看護】福井県福井市大願寺３丁目9-3", "url": "https://www.kaigokensaku.mhlw.go.jp/18/index.php?action_kouhyou_detail_004_kani=true&JigyosyoCd=1860190147-00&ServiceCd=130&Type=search", "url2": "http://fukui-youi.com/" }, "geometry": { "type": "Point", "coordinates": [ 136.228329300000041, 36.0843564 ] } },
{ "type": "Feature", "properties": { "内容": "訪問看護ステーションシンカイ福井【訪問看護】福井市丸山２丁目１４０５番", "url": "https://www.kaigokensaku.mhlw.go.jp/18/index.php?action_kouhyou_detail_004_kani=true&JigyosyoCd=1860190246-00&ServiceCd=130&Type=search", "url2": "http://www.houkan.com" }, "geometry": { "type": "Point", "coordinates": [ 136.2462918, 36.0737004 ] } },
{ "type": "Feature", "properties": { "内容": "訪問看護リハビリステーション　三栄ケアーズ元気ふくい【訪問看護】福井市三郎丸町21-19-5", "url": "https://www.kaigokensaku.mhlw.go.jp/18/index.php?action_kouhyou_detail_004_kani=true&JigyosyoCd=1860190311-00&ServiceCd=130&Type=search", "url2": "http://saneigenki.com" }, "geometry": { "type": "Point", "coordinates": [ 136.194485699999973, 36.08068980000003 ] } },
{ "type": "Feature", "properties": { "内容": "ひなた訪問看護ステーション【訪問看護】種池2丁目607きはちやしろビル　2階", "url": "https://www.kaigokensaku.mhlw.go.jp/18/index.php?action_kouhyou_detail_004_kani=true&JigyosyoCd=1860190279-00&ServiceCd=130&Type=search", "url2": "https://www.nursehome.jp/" }, "geometry": { "type": "Point", "coordinates": [ 136.188460208180942, 36.037454342970918 ] } },
{ "type": "Feature", "properties": { "内容": "仁愛訪問看護センター【訪問看護】福井市乾徳４丁目４番７号仁愛ビル4階", "url": "https://www.kaigokensaku.mhlw.go.jp/18/index.php?action_kouhyou_detail_004_kani=true&JigyosyoCd=1860190212-00&ServiceCd=130&Type=search", "url2": "http://www.jinai-cs.co.jp/jinhou/index.html" }, "geometry": { "type": "Point", "coordinates": [ 136.205609099999947, 36.0711715 ] } },
{ "type": "Feature", "properties": { "内容": "アトリエ訪問看護ステーション【訪問看護】福井県福井市八重巻東町9-6ノースフィールド201", "url": "https://www.kaigokensaku.mhlw.go.jp/18/index.php?action_kouhyou_detail_004_kani=true&JigyosyoCd=1860190709-00&ServiceCd=130&Type=search", "url2": "https://atelier-kango.com" }, "geometry": { "type": "Point", "coordinates": [ 136.22405697549695, 36.10658286722807 ] } },
{ "type": "Feature", "properties": { "内容": "医療法人敦賀温泉病院指定居宅介護支援事業所【訪問看護】福井県敦賀市吉河41号1番地5", "url": "https://www.kaigokensaku.mhlw.go.jp/18/index.php?action_kouhyou_detail_004_kani=true&JigyosyoCd=1810214120-00&ServiceCd=130&Type=search", "url2": "http://www.tsurugaonsen-hp.or.jp/" }, "geometry": { "type": "Point", "coordinates": [ 136.084798699999965, 35.6367821 ] } },
{ "type": "Feature", "properties": { "内容": "訪問看護ステーションこもれび【訪問看護】福井県敦賀市莇生野95-2-1", "url": "https://www.kaigokensaku.mhlw.go.jp/18/index.php?action_kouhyou_detail_004_kani=true&JigyosyoCd=1860290160-00&ServiceCd=130&Type=search", "url2": null }, "geometry": { "type": "Point", "coordinates": [ 136.0439605, 35.6279225 ] } },
{ "type": "Feature", "properties": { "内容": "敦賀市社会福祉協議会訪問看護ステーション「あいあい」【訪問看護】福井県敦賀市東洋町4番1号敦賀市福祉総合センター「あいあいプラザ」内", "url": "https://www.kaigokensaku.mhlw.go.jp/18/index.php?action_kouhyou_detail_004_kani=true&JigyosyoCd=1860290012-00&ServiceCd=130&Type=search", "url2": "http://tsurugashishakyo.ec-net.jp/" }, "geometry": { "type": "Point", "coordinates": [ 136.069566509539754, 35.643833182841725 ] } },
{ "type": "Feature", "properties": { "内容": "つるが生協訪問看護ステーション　ハピナス【訪問看護】福井県敦賀市公文名１号６番", "url": "https://www.kaigokensaku.mhlw.go.jp/18/index.php?action_kouhyou_detail_004_kani=true&JigyosyoCd=1860290020-00&ServiceCd=130&Type=search", "url2": "http://www.fukui-min-iren.com/iryouseikyou/" }, "geometry": { "type": "Point", "coordinates": [ 136.060157200000049, 35.623019 ] } },
{ "type": "Feature", "properties": { "内容": "敦賀ケアセンターかくだ【訪問看護】福井県敦賀市昭和町二丁目11番地5", "url": "https://www.kaigokensaku.mhlw.go.jp/18/index.php?action_kouhyou_detail_004_kani=true&JigyosyoCd=1860290038-00&ServiceCd=130&Type=search", "url2": "http://care-net.biz/18/kakuda/" }, "geometry": { "type": "Point", "coordinates": [ 136.061044970976809, 35.641945946336541 ] } },
{ "type": "Feature", "properties": { "内容": "地域看護ステーションブルーバード【訪問看護】敦賀市神楽町1-4-4キハラテナント1Fキハラテナント", "url": "https://www.kaigokensaku.mhlw.go.jp/18/index.php?action_kouhyou_detail_004_kani=true&JigyosyoCd=1860290053-00&ServiceCd=130&Type=search", "url2": "http://www.rehaplus.co.jp" }, "geometry": { "type": "Point", "coordinates": [ 136.07183783135244, 35.654260658693325 ] } },
{ "type": "Feature", "properties": { "内容": "訪問看護ステーション　こばやし【訪問看護】福井県敦賀市ひばりヶ丘町1057番", "url": "https://www.kaigokensaku.mhlw.go.jp/18/index.php?action_kouhyou_detail_004_kani=true&JigyosyoCd=1860290079-00&ServiceCd=130&Type=search", "url2": "http://care-koba.com/houmonkango/" }, "geometry": { "type": "Point", "coordinates": [ 136.041674443733882, 35.622364161683961 ] } },
{ "type": "Feature", "properties": { "内容": "ケアサービス一休さん訪問看護ステーション【訪問看護】敦賀市山泉73号905番地", "url": "https://www.kaigokensaku.mhlw.go.jp/18/index.php?action_kouhyou_detail_004_kani=true&JigyosyoCd=1860290087-00&ServiceCd=130&Type=search", "url2": null }, "geometry": { "type": "Point", "coordinates": [ 136.061423699999978, 35.6155643 ] } },
{ "type": "Feature", "properties": { "内容": "医療法人敦賀温泉病院訪問看護ステーション「夢」【訪問看護】福井県敦賀市吉河41号1番地5", "url": "https://www.kaigokensaku.mhlw.go.jp/18/index.php?action_kouhyou_detail_004_kani=true&JigyosyoCd=1860290111-00&ServiceCd=130&Type=search", "url2": "http://www.tsurugaonsen-hp.or.jp/" }, "geometry": { "type": "Point", "coordinates": [ 136.084798699999965, 35.6367821 ] } },
{ "type": "Feature", "properties": { "内容": "敬仁会24訪問看護ステーション【訪問看護】福井県敦賀市鉄輪町1丁目2-57", "url": "https://www.kaigokensaku.mhlw.go.jp/18/index.php?action_kouhyou_detail_004_kani=true&JigyosyoCd=1860290129-00&ServiceCd=130&Type=search", "url2": "https://kjinkai.jp/facility/poppo/24nursing/" }, "geometry": { "type": "Point", "coordinates": [ 136.0739456, 35.642983 ] } },
{ "type": "Feature", "properties": { "内容": "幸ナースサポート【訪問看護】福井県敦賀市平和町17-4", "url": "https://www.kaigokensaku.mhlw.go.jp/18/index.php?action_kouhyou_detail_004_kani=true&JigyosyoCd=1860290178-00&ServiceCd=130&Type=search", "url2": "fukushika.com" }, "geometry": { "type": "Point", "coordinates": [ 136.0611362, 35.6562791 ] } },
{ "type": "Feature", "properties": { "内容": "市立敦賀病院訪問看護ステーション　つなぐ【訪問看護】三島町１丁目６番６０号", "url": "https://www.kaigokensaku.mhlw.go.jp/18/index.php?action_kouhyou_detail_004_kani=true&JigyosyoCd=1860290152-00&ServiceCd=130&Type=search", "url2": "https://tsuruga-hp.jp" }, "geometry": { "type": "Point", "coordinates": [ 136.064869430163554, 35.652548696180567 ] } },
{ "type": "Feature", "properties": { "内容": "訪問看護ステーションくるり【訪問看護】福井県敦賀市木崎8-2-8", "url": "https://www.kaigokensaku.mhlw.go.jp/18/index.php?action_kouhyou_detail_004_kani=true&JigyosyoCd=1860290186-00&ServiceCd=130&Type=search", "url2": "https://meguri-care.com/" }, "geometry": { "type": "Point", "coordinates": [ 136.0469061, 35.638678 ] } },
{ "type": "Feature", "properties": { "内容": "医療法人　明峰会　指定訪問看護ステーション　めいほう【訪問看護】福井県敦賀市津内町3丁目6-38明峰クリニック2階", "url": "https://www.kaigokensaku.mhlw.go.jp/18/index.php?action_kouhyou_detail_004_kani=true&JigyosyoCd=1860290095-00&ServiceCd=130&Type=search", "url2": "http://www.meihoukai.com" }, "geometry": { "type": "Point", "coordinates": [ 136.070305599999983, 35.6476529 ] } },
{ "type": "Feature", "properties": { "内容": "ライジング訪問看護ステーション【訪問看護】福井県小浜市大手町5ー10芝田ビル2-2", "url": "https://www.kaigokensaku.mhlw.go.jp/18/index.php?action_kouhyou_detail_004_kani=true&JigyosyoCd=1860490059-00&ServiceCd=130&Type=search", "url2": "https://rising7110.jimdofree.com" }, "geometry": { "type": "Point", "coordinates": [ 135.745358769836486, 35.495817396136395 ] } },
{ "type": "Feature", "properties": { "内容": "ふらむはぁと訪問看護リハビリねっと小浜【訪問看護】福井県小浜市遠敷7丁目301AYATTO", "url": "https://www.kaigokensaku.mhlw.go.jp/18/index.php?action_kouhyou_detail_004_kani=true&JigyosyoCd=1860490042-00&ServiceCd=130&Type=search", "url2": "rerephysio.com" }, "geometry": { "type": "Point", "coordinates": [ 135.7814277, 35.4782321 ] } },
{ "type": "Feature", "properties": { "内容": "いきいき訪問看護リハビリステーション【訪問看護】福井県小浜市大手町3番5号", "url": "https://www.kaigokensaku.mhlw.go.jp/18/index.php?action_kouhyou_detail_004_kani=true&JigyosyoCd=1860490067-00&ServiceCd=130&Type=search", "url2": "https://earthcreature.webnode.jp/" }, "geometry": { "type": "Point", "coordinates": [ 135.7454171, 35.4948354 ] } },
{ "type": "Feature", "properties": { "内容": "一乗ハイツ訪問看護ステーション【訪問看護】福井県大野市牛ヶ原154-1-1", "url": "https://www.kaigokensaku.mhlw.go.jp/18/index.php?action_kouhyou_detail_004_kani=true&JigyosyoCd=1860590031-00&ServiceCd=130&Type=search", "url2": "http://fuku-koumyouji.jp/index.php/" }, "geometry": { "type": "Point", "coordinates": [ 136.465946499999973, 35.9937401 ] } },
{ "type": "Feature", "properties": { "内容": "訪問看護さくらステーション【訪問看護】福井県大野市中津川32-33", "url": "https://www.kaigokensaku.mhlw.go.jp/18/index.php?action_kouhyou_detail_004_kani=true&JigyosyoCd=1860590023-00&ServiceCd=130&Type=search", "url2": "http://koseikaigroup.jp" }, "geometry": { "type": "Point", "coordinates": [ 136.498698600000012, 36.0004586 ] } },
{ "type": "Feature", "properties": { "内容": "おくえつ訪問看護ステーション【訪問看護】福井県大野市春日173-7-1", "url": "https://www.kaigokensaku.mhlw.go.jp/18/index.php?action_kouhyou_detail_004_kani=true&JigyosyoCd=1860590064-00&ServiceCd=130&Type=search", "url2": "https://www.okuetu-houmonkango.com/" }, "geometry": { "type": "Point", "coordinates": [ 136.505016899999987, 35.9743825 ] } },
{ "type": "Feature", "properties": { "内容": "キラキラ訪問看護ステーション【訪問看護】大野市要町1-13", "url": "https://www.kaigokensaku.mhlw.go.jp/18/index.php?action_kouhyou_detail_004_kani=true&JigyosyoCd=1860590049-00&ServiceCd=130&Type=search", "url2": "http://www14.ocn.ne.jp/~kira.m/homecare/" }, "geometry": { "type": "Point", "coordinates": [ 136.489038599999958, 35.990482 ] } },
{ "type": "Feature", "properties": { "内容": "大野和光園訪問看護ステーション【訪問看護】福井県大野市春日三丁目１７１８", "url": "https://www.kaigokensaku.mhlw.go.jp/18/index.php?action_kouhyou_detail_004_kani=true&JigyosyoCd=1860590015-00&ServiceCd=130&Type=search", "url2": "http://www.ono-wakouen.jp/" }, "geometry": { "type": "Point", "coordinates": [ 136.497523699999988, 35.9734904 ] } },
{ "type": "Feature", "properties": { "内容": "独立行政法人地域医療機能推進機構福井勝山総合病院附属訪問看護ステーション【訪問看護】福井県勝山市長山町2丁目6番地21号", "url": "https://www.kaigokensaku.mhlw.go.jp/18/index.php?action_kouhyou_detail_004_kani=true&JigyosyoCd=1860690013-00&ServiceCd=130&Type=search", "url2": "http://fukui.jcho.go.jp/" }, "geometry": { "type": "Point", "coordinates": [ 136.506088800000043, 36.0708578 ] } },
{ "type": "Feature", "properties": { "内容": "さつき苑訪問看護ステーション【訪問看護】福井県勝山市片瀬第15号22番地", "url": "https://www.kaigokensaku.mhlw.go.jp/18/index.php?action_kouhyou_detail_004_kani=true&JigyosyoCd=1860690021-00&ServiceCd=130&Type=search", "url2": "http://www.satsuki.or.jp/" }, "geometry": { "type": "Point", "coordinates": [ 136.521571399999971, 36.0487165 ] } },
{ "type": "Feature", "properties": { "内容": "訪問看護ステーションリラックス【訪問看護】福井県鯖江市東鯖江4丁目8-2", "url": "https://www.kaigokensaku.mhlw.go.jp/18/index.php?action_kouhyou_detail_004_kani=true&JigyosyoCd=1860790078-00&ServiceCd=130&Type=search", "url2": "eiju2017.t@gmail.com" }, "geometry": { "type": "Point", "coordinates": [ 136.19855050000001, 35.9469464 ] } },
{ "type": "Feature", "properties": { "内容": "さばえ在宅看護センター【訪問看護】福井県鯖江市中野町48-27-1", "url": "https://www.kaigokensaku.mhlw.go.jp/18/index.php?action_kouhyou_detail_004_kani=true&JigyosyoCd=1860790086-00&ServiceCd=130&Type=search", "url2": null }, "geometry": { "type": "Point", "coordinates": [ 136.209265100000039, 35.9529631 ] } },
{ "type": "Feature", "properties": { "内容": "訪問看護ステーションさばえ【訪問看護】鯖江市旭町４丁目４－９木村病院内", "url": "https://www.kaigokensaku.mhlw.go.jp/18/index.php?action_kouhyou_detail_004_kani=true&JigyosyoCd=1860790011-00&ServiceCd=130&Type=search", "url2": "https://www.jujinkai.or.jp/zaitaku/service-01" }, "geometry": { "type": "Point", "coordinates": [ 136.186578584655763, 35.949121870652583 ] } },
{ "type": "Feature", "properties": { "内容": "みどり荘訪問看護ステーション【訪問看護】鯖江市中野町6-1-1", "url": "https://www.kaigokensaku.mhlw.go.jp/18/index.php?action_kouhyou_detail_004_kani=true&JigyosyoCd=1860790029-00&ServiceCd=130&Type=search", "url2": null }, "geometry": { "type": "Point", "coordinates": [ 136.206378977192173, 35.944799953273936 ] } },
{ "type": "Feature", "properties": { "内容": "コスモス訪問看護ステーション【訪問看護】福井県鯖江市本町２丁目３－１０", "url": "https://www.kaigokensaku.mhlw.go.jp/18/index.php?action_kouhyou_detail_004_kani=true&JigyosyoCd=1860790037-00&ServiceCd=130&Type=search", "url2": "http://www.takano-hp.jp/" }, "geometry": { "type": "Point", "coordinates": [ 136.183045648410001, 35.945379796129835 ] } },
{ "type": "Feature", "properties": { "内容": "公立丹南病院訪問看護ステーション【訪問看護】鯖江市三六町1-2-31", "url": "https://www.kaigokensaku.mhlw.go.jp/18/index.php?action_kouhyou_detail_004_kani=true&JigyosyoCd=1860790045-00&ServiceCd=130&Type=search", "url2": "http://www.jadecom.or.jp/jadecomhp/tannan/html/index.html" }, "geometry": { "type": "Point", "coordinates": [ 136.178063299999963, 35.9700732 ] } },
{ "type": "Feature", "properties": { "内容": "ドリーム訪問看護ステーション【訪問看護】東鯖江二丁目9番16号", "url": "https://www.kaigokensaku.mhlw.go.jp/18/index.php?action_kouhyou_detail_004_kani=true&JigyosyoCd=1860790052-00&ServiceCd=130&Type=search", "url2": "http://dream-create.wixsite.com/dreamcreate/blank-3" }, "geometry": { "type": "Point", "coordinates": [ 136.196312, 35.9482659 ] } },
{ "type": "Feature", "properties": { "内容": "なのはな訪問看護ステーション【訪問看護】福井県鯖江市大野町28号18番地", "url": "https://www.kaigokensaku.mhlw.go.jp/18/index.php?action_kouhyou_detail_004_kani=true&JigyosyoCd=1860790102-00&ServiceCd=130&Type=search", "url2": "www.nanohana-hns.com" }, "geometry": { "type": "Point", "coordinates": [ 136.2350585, 35.9734074 ] } },
{ "type": "Feature", "properties": { "内容": "加納訪問サービス【訪問看護】福井県あわら市花乃杜1丁目2-39", "url": "https://www.kaigokensaku.mhlw.go.jp/18/index.php?action_kouhyou_detail_004_kani=true&JigyosyoCd=1810810133-00&ServiceCd=130&Type=search", "url2": "http://www.kanouhp.jp/" }, "geometry": { "type": "Point", "coordinates": [ 136.224595099999988, 36.2160385 ] } },
{ "type": "Feature", "properties": { "内容": "訪問看護ステーションなるざリハビリサービス【訪問看護】福井県あわら市二面2丁目302番地", "url": "https://www.kaigokensaku.mhlw.go.jp/18/index.php?action_kouhyou_detail_004_kani=true&JigyosyoCd=1860890027-00&ServiceCd=130&Type=search", "url2": "http://www.naruza.jp/" }, "geometry": { "type": "Point", "coordinates": [ 136.200547101852408, 36.227206062142393 ] } },
{ "type": "Feature", "properties": { "内容": "坂井地区医師会訪問看護ステーション【訪問看護】福井県あわら市東善寺5-27", "url": "https://www.kaigokensaku.mhlw.go.jp/18/index.php?action_kouhyou_detail_004_kani=true&JigyosyoCd=1860890019-00&ServiceCd=130&Type=search", "url2": "http://sakai-med.com" }, "geometry": { "type": "Point", "coordinates": [ 136.218323599999962, 36.2111778 ] } },
{ "type": "Feature", "properties": { "内容": "あわら病院訪問看護ステーションアイリス【訪問看護】福井県あわら市北潟２３８－１", "url": "https://www.kaigokensaku.mhlw.go.jp/18/index.php?action_kouhyou_detail_004_kani=true&JigyosyoCd=1860890035-00&ServiceCd=130&Type=search", "url2": "http://awara-hosp.jp" }, "geometry": { "type": "Point", "coordinates": [ 136.211936199999968, 36.2557974 ] } },
{ "type": "Feature", "properties": { "内容": "東武内科外科クリニック【訪問看護】福井県越前市横市町６-３", "url": "https://www.kaigokensaku.mhlw.go.jp/18/index.php?action_kouhyou_detail_004_kani=true&JigyosyoCd=1810314649-00&ServiceCd=130&Type=search", "url2": "http://www.myclinic.ne.jp/toubu/" }, "geometry": { "type": "Point", "coordinates": [ 136.192527499999983, 35.9094708 ] } },
{ "type": "Feature", "properties": { "内容": "訪問看護ステーションこころ【訪問看護】福井県越前市家久町90-8-31", "url": "https://www.kaigokensaku.mhlw.go.jp/18/index.php?action_kouhyou_detail_004_kani=true&JigyosyoCd=1860390150-00&ServiceCd=130&Type=search", "url2": "https://cocoronogoudougaisha.my.canva.site/" }, "geometry": { "type": "Point", "coordinates": [ 136.167901, 35.9231516 ] } },
{ "type": "Feature", "properties": { "内容": "訪問看護ステーションいまだて【訪問看護】福井県越前市粟田部町３３－１", "url": "https://www.kaigokensaku.mhlw.go.jp/18/index.php?action_kouhyou_detail_004_kani=true&JigyosyoCd=1860390135-00&ServiceCd=130&Type=search", "url2": "http://www.imadatechuo-hp.com/index.html" }, "geometry": { "type": "Point", "coordinates": [ 136.244086, 35.9171079 ] } },
{ "type": "Feature", "properties": { "内容": "医療法人野尻医院【訪問看護】福井県越前市1丁目12-37", "url": "https://www.kaigokensaku.mhlw.go.jp/18/index.php?action_kouhyou_detail_004_kani=true&JigyosyoCd=1810314482-00&ServiceCd=130&Type=search", "url2": "http://www.nojiri-iin.jp/" }, "geometry": { "type": "Point", "coordinates": [ 136.159769500000039, 35.9089754 ] } },
{ "type": "Feature", "properties": { "内容": "すずらん看護サービスステーション【訪問看護】越前市中央２－９－４０", "url": "https://www.kaigokensaku.mhlw.go.jp/18/index.php?action_kouhyou_detail_004_kani=true&JigyosyoCd=1860390010-00&ServiceCd=130&Type=search", "url2": "http:/aiki-hp.jp" }, "geometry": { "type": "Point", "coordinates": [ 136.156442199999987, 35.9026927 ] } },
{ "type": "Feature", "properties": { "内容": "訪問看護ステーション府中【訪問看護】福井県越前市府中1丁目3号5番地", "url": "https://www.kaigokensaku.mhlw.go.jp/18/index.php?action_kouhyou_detail_004_kani=true&JigyosyoCd=1860390036-00&ServiceCd=130&Type=search", "url2": "http://www2.interbroad.or.jp/hayasi/" }, "geometry": { "type": "Point", "coordinates": [ 136.169991221277883, 35.901752354784044 ] } },
{ "type": "Feature", "properties": { "内容": "さわやか訪問看護ステーション【訪問看護】福井県越前市塚町２１４番地医療法人　笠原病院　１Ｆ", "url": "https://www.kaigokensaku.mhlw.go.jp/18/index.php?action_kouhyou_detail_004_kani=true&JigyosyoCd=1860390044-00&ServiceCd=130&Type=search", "url2": "http://www.kasahara-hosp.or.jp/" }, "geometry": { "type": "Point", "coordinates": [ 136.191844100000026, 35.91607 ] } },
{ "type": "Feature", "properties": { "内容": "しくら訪問看護ステーション【訪問看護】福井県越前市今宿町８－１", "url": "https://www.kaigokensaku.mhlw.go.jp/18/index.php?action_kouhyou_detail_004_kani=true&JigyosyoCd=1860390051-00&ServiceCd=130&Type=search", "url2": "http://www.ikebata.jp/shikurahoumonkango.html" }, "geometry": { "type": "Point", "coordinates": [ 136.169917100000021, 35.8654366 ] } },
{ "type": "Feature", "properties": { "内容": "ほっとリハビリ訪問看護ステーション【訪問看護】福井県越前市高木町111-2", "url": "https://www.kaigokensaku.mhlw.go.jp/18/index.php?action_kouhyou_detail_004_kani=true&JigyosyoCd=1860390069-00&ServiceCd=130&Type=search", "url2": "http://www.hotreha.com" }, "geometry": { "type": "Point", "coordinates": [ 136.191769, 35.918681606316802 ] } },
{ "type": "Feature", "properties": { "内容": "ケアフルハウス訪問看護ステーション【訪問看護】越前市広瀬町153-12-3ケアフルハウス", "url": "https://www.kaigokensaku.mhlw.go.jp/18/index.php?action_kouhyou_detail_004_kani=true&JigyosyoCd=1860390085-00&ServiceCd=130&Type=search", "url2": "http://carefull.co.jp/" }, "geometry": { "type": "Point", "coordinates": [ 136.146887290213044, 35.88977809845322 ] } },
{ "type": "Feature", "properties": { "内容": "訪問看護ステーションひだまり【訪問看護】本多1丁目8-41", "url": "https://www.kaigokensaku.mhlw.go.jp/18/index.php?action_kouhyou_detail_004_kani=true&JigyosyoCd=1860390127-00&ServiceCd=130&Type=search", "url2": "http://www.tsukioka-med.com" }, "geometry": { "type": "Point", "coordinates": [ 136.163798100000037, 35.9052972 ] } },
{ "type": "Feature", "properties": { "内容": "訪問看護ステーションえちぜん【訪問看護】福井県越前市国高２丁目44-3-9松原ビル1階西", "url": "https://www.kaigokensaku.mhlw.go.jp/18/index.php?action_kouhyou_detail_004_kani=true&JigyosyoCd=1860390168-00&ServiceCd=130&Type=search", "url2": "echizen22.com" }, "geometry": { "type": "Point", "coordinates": [ 136.1870936, 35.9082352 ] } },
{ "type": "Feature", "properties": { "内容": "訪問看護ステーション　サンライフ小野谷【訪問看護】福井県越前市蓬莱町6-24", "url": "https://www.kaigokensaku.mhlw.go.jp/18/index.php?action_kouhyou_detail_004_kani=true&JigyosyoCd=1860390184-00&ServiceCd=130&Type=search", "url2": "http://http://sunlifeonodani.jp/" }, "geometry": { "type": "Point", "coordinates": [ 136.1671143, 35.9021444 ] } },
{ "type": "Feature", "properties": { "内容": "ライフケアリング蕾【訪問看護】福井県越前市瓜生町31-12階", "url": "https://www.kaigokensaku.mhlw.go.jp/18/index.php?action_kouhyou_detail_004_kani=true&JigyosyoCd=1860390143-00&ServiceCd=130&Type=search", "url2": "http://www.ichibankaigo" }, "geometry": { "type": "Point", "coordinates": [ 136.1773756, 35.9261318 ] } },
{ "type": "Feature", "properties": { "内容": "みんと訪問看護ステーション【訪問看護】府中2丁目2－23Sビル1F北", "url": "https://www.kaigokensaku.mhlw.go.jp/18/index.php?action_kouhyou_detail_004_kani=true&JigyosyoCd=1860390176-00&ServiceCd=130&Type=search", "url2": null }, "geometry": { "type": "Point", "coordinates": [ 139.4831226, 35.6775112 ] } },
{ "type": "Feature", "properties": { "内容": "春江病院訪問看護ステーション【訪問看護】福井県坂井市春江町針原65-7春江病院内", "url": "https://www.kaigokensaku.mhlw.go.jp/18/index.php?action_kouhyou_detail_004_kani=true&JigyosyoCd=1861790069-00&ServiceCd=130&Type=search", "url2": "http://www.harue-hp.org/" }, "geometry": { "type": "Point", "coordinates": [ 136.213837548804833, 36.123174630343669 ] } },
{ "type": "Feature", "properties": { "内容": "ハート＆ハート訪問看護ステーション【訪問看護】福井県坂井市春江町西長田40-46", "url": "https://www.kaigokensaku.mhlw.go.jp/18/index.php?action_kouhyou_detail_004_kani=true&JigyosyoCd=1861790077-00&ServiceCd=130&Type=search", "url2": "houmonkango@heart2-caring.co.jp" }, "geometry": { "type": "Point", "coordinates": [ 136.200885659812116, 36.156725327867193 ] } },
{ "type": "Feature", "properties": { "内容": "坂井市立三国病院　訪問看護ステーション【訪問看護】福井県坂井市三国町中央1丁目2-34", "url": "https://www.kaigokensaku.mhlw.go.jp/18/index.php?action_kouhyou_detail_004_kani=true&JigyosyoCd=1861790085-00&ServiceCd=130&Type=search", "url2": "http://www.city.fukui-sakai.lg.jp/byouin/" }, "geometry": { "type": "Point", "coordinates": [ 136.1578518, 36.2158214 ] } },
{ "type": "Feature", "properties": { "内容": "シンシアパーム株式会社　シンシア訪問看護ステーション【訪問看護】福井県坂井市坂井町下兵庫132-6-1", "url": "https://www.kaigokensaku.mhlw.go.jp/18/index.php?action_kouhyou_detail_004_kani=true&JigyosyoCd=1861790051-00&ServiceCd=130&Type=search", "url2": "https://sincerepalm.com" }, "geometry": { "type": "Point", "coordinates": [ 136.201239083086392, 36.169171705150674 ] } },
{ "type": "Feature", "properties": { "内容": "ハートフル訪問看護ステーション【訪問看護】福井県坂井市丸岡町一本田中29字5の1プラザクシヤ2階", "url": "https://www.kaigokensaku.mhlw.go.jp/18/index.php?action_kouhyou_detail_004_kani=true&JigyosyoCd=1861790036-00&ServiceCd=130&Type=search", "url2": "http://www.hf-care.jp/" }, "geometry": { "type": "Point", "coordinates": [ 136.263763299999965, 36.153777700000035 ] } },
{ "type": "Feature", "properties": { "内容": "トゥモローズ訪問看護・リハセンター【訪問看護】福井県坂井市坂井町下新庄第１８号１５番地１", "url": "https://www.kaigokensaku.mhlw.go.jp/18/index.php?action_kouhyou_detail_004_kani=true&JigyosyoCd=1861790044-00&ServiceCd=130&Type=search", "url2": "http://www.tomorrows-reha.com" }, "geometry": { "type": "Point", "coordinates": [ 136.225064352661661, 36.167080314850431 ] } },
{ "type": "Feature", "properties": { "内容": "ひかり訪問看護ステーション【訪問看護】吉田郡永平寺町山王7-28", "url": "https://www.kaigokensaku.mhlw.go.jp/18/index.php?action_kouhyou_detail_004_kani=true&JigyosyoCd=1861690012-00&ServiceCd=130&Type=search", "url2": "http://www.hikarigroup.jp/" }, "geometry": { "type": "Point", "coordinates": [ 136.397801800000025, 36.0795601 ] } },
{ "type": "Feature", "properties": { "内容": "永平寺町立在宅訪問診療所【訪問看護】福井県吉田郡永平寺町松岡兼定島第38号45番地", "url": "https://www.kaigokensaku.mhlw.go.jp/18/index.php?action_kouhyou_detail_004_kani=true&JigyosyoCd=1811614179-00&ServiceCd=130&Type=search", "url2": "https://www.hosp.u-fukui.ac.jp/eiheiji-sinryou/" }, "geometry": { "type": "Point", "coordinates": [ 136.288700799999987, 36.1066702 ] } },
{ "type": "Feature", "properties": { "内容": "国民健康保険　池田町診療所　訪問看護【訪問看護】福井県今立郡池田町薮田５－３－１国民健康保険　池田町診療所", "url": "https://www.kaigokensaku.mhlw.go.jp/18/index.php?action_kouhyou_detail_004_kani=true&JigyosyoCd=1811814126-00&ServiceCd=130&Type=search", "url2": "https://www.town.ikeda.jp" }, "geometry": { "type": "Point", "coordinates": [ 136.346227048548826, 35.896209072917351 ] } },
{ "type": "Feature", "properties": { "内容": "医療法人加藤医院【訪問看護】福井県南条郡南越前町東大道２５号２７番地", "url": "https://www.kaigokensaku.mhlw.go.jp/18/index.php?action_kouhyou_detail_004_kani=true&JigyosyoCd=1811914033-00&ServiceCd=130&Type=search", "url2": null }, "geometry": { "type": "Point", "coordinates": [ 136.192040799999972, 35.8366944 ] } },
{ "type": "Feature", "properties": { "内容": "南越前町国民健康保険　今庄診療所【訪問看護】福井県南条郡南越前町今庄第８４号２４番地の１", "url": "https://www.kaigokensaku.mhlw.go.jp/18/index.php?action_kouhyou_detail_004_kani=true&JigyosyoCd=1811914124-00&ServiceCd=130&Type=search", "url2": null }, "geometry": { "type": "Point", "coordinates": [ 136.200320799999986, 35.7730495 ] } },
{ "type": "Feature", "properties": { "内容": "おた訪問看護ステーション【訪問看護】福井県丹生郡越前町織田106-42-2", "url": "https://www.kaigokensaku.mhlw.go.jp/18/index.php?action_kouhyou_detail_004_kani=true&JigyosyoCd=1862090030-00&ServiceCd=130&Type=search", "url2": "https://ota.jadecom.or.jp/" }, "geometry": { "type": "Point", "coordinates": [ 136.047085, 35.957767688813966 ] } },
{ "type": "Feature", "properties": { "内容": "訪問看護リハビリステーション｢すまいる｣【訪問看護】福井県三方郡美浜町笹田第１２号２番地の１", "url": "https://www.kaigokensaku.mhlw.go.jp/18/index.php?action_kouhyou_detail_004_kani=true&JigyosyoCd=1862190038-00&ServiceCd=130&Type=search", "url2": "http://www1.kl.mmnet-ai.ne.jp/~slac/" }, "geometry": { "type": "Point", "coordinates": [ 135.901999788793972, 35.612825807730687 ] } },
{ "type": "Feature", "properties": { "内容": "えん訪問看護ステーション【訪問看護】福井県三方郡美浜町金山37号28番地", "url": "https://www.kaigokensaku.mhlw.go.jp/18/index.php?action_kouhyou_detail_004_kani=true&JigyosyoCd=1862190053-00&ServiceCd=130&Type=search", "url2": "https://enishi-en.co.jp" }, "geometry": { "type": "Point", "coordinates": [ 135.928263099999981, 35.6006883 ] } },
{ "type": "Feature", "properties": { "内容": "若狭高浜病院附属訪問看護ステーション【訪問看護】福井県大飯郡高浜町宮崎87-14-2", "url": "https://www.kaigokensaku.mhlw.go.jp/18/index.php?action_kouhyou_detail_004_kani=true&JigyosyoCd=1862390018-00&ServiceCd=130&Type=search", "url2": null }, "geometry": { "type": "Point", "coordinates": [ 135.547564127786217, 35.489110119055844 ] } },
{ "type": "Feature", "properties": { "内容": "訪問看護ステーション　グっとサポート【訪問看護】福井県大飯郡高浜町薗部47-4", "url": "https://www.kaigokensaku.mhlw.go.jp/18/index.php?action_kouhyou_detail_004_kani=true&JigyosyoCd=1862390034-00&ServiceCd=130&Type=search", "url2": "http://goodsupport.hannnari.com/" }, "geometry": { "type": "Point", "coordinates": [ 135.55935018777609, 35.486803437297553 ] } },
{ "type": "Feature", "properties": { "内容": "tetote訪問看護ステーション【訪問看護】福井県大飯郡高浜町三明第3号34番地", "url": "https://www.kaigokensaku.mhlw.go.jp/18/index.php?action_kouhyou_detail_004_kani=true&JigyosyoCd=1862390042-00&ServiceCd=130&Type=search", "url2": "tetote0201.net" }, "geometry": { "type": "Point", "coordinates": [ 135.547911113519774, 35.491432999908248 ] } },
{ "type": "Feature", "properties": { "内容": "訪問看護ステーションであい【訪問看護】福井県大飯郡高浜町青１字宮ヶ谷１号３番地１", "url": "https://www.kaigokensaku.mhlw.go.jp/18/index.php?action_kouhyou_detail_004_kani=true&JigyosyoCd=1862390059-00&ServiceCd=130&Type=search", "url2": "r.goope.jp/taka-care/" }, "geometry": { "type": "Point", "coordinates": [ 135.499109299999986, 35.4814912 ] } },
{ "type": "Feature", "properties": { "内容": "おおい町国民健康保険名田庄診療所【訪問看護】福井県大飯郡おおい町名田庄下６－１", "url": "https://www.kaigokensaku.mhlw.go.jp/18/index.php?action_kouhyou_detail_004_kani=true&JigyosyoCd=1812314142-00&ServiceCd=130&Type=search", "url2": "http://www.town.ohi.fukui.jp/object/object08/8003/p10475.html" }, "geometry": { "type": "Point", "coordinates": [ 135.643975899999987, 35.4070517 ] } },
{ "type": "Feature", "properties": { "内容": "おおい町保健・医療・福祉総合施設診療所【訪問看護】福井県大飯郡おおい町本郷第92号51番地1", "url": "https://www.kaigokensaku.mhlw.go.jp/18/index.php?action_kouhyou_detail_004_kani=true&JigyosyoCd=1812314175-00&ServiceCd=130&Type=search", "url2": "http://www.jadecom.or.jp/jadecomhp/nagomi/html/index.html" }, "geometry": { "type": "Point", "coordinates": [ 135.624178, 35.474744 ] } },
{ "type": "Feature", "properties": { "内容": "若狭町国民健康保険上中診療所【訪問看護】福井県三方上中郡若狭町市場第１９号５番地", "url": "https://www.kaigokensaku.mhlw.go.jp/18/index.php?action_kouhyou_detail_004_kani=true&JigyosyoCd=1812410130-00&ServiceCd=130&Type=search", "url2": "http://www.town.fukui-wakasa.lg.jp" }, "geometry": { "type": "Point", "coordinates": [ 135.85787115581968, 35.461777592001717 ] } },
{ "type": "Feature", "properties": { "内容": "訪問看護ステーション　わかさ【訪問看護】福井県三方上中郡若狭町井崎40-80地域福祉センター泉", "url": "https://www.kaigokensaku.mhlw.go.jp/18/index.php?action_kouhyou_detail_004_kani=true&JigyosyoCd=1862490016-00&ServiceCd=130&Type=search", "url2": "http://www.w-shakyo.or.jp/" }, "geometry": { "type": "Point", "coordinates": [ 135.895218234770908, 35.515523034705943 ] } },
{ "type": "Feature", "properties": { "内容": "訪問看護ステーションわらく【訪問看護】上吉田1-25-1", "url": "https://www.kaigokensaku.mhlw.go.jp/18/index.php?action_kouhyou_detail_004_kani=true&JigyosyoCd=1862490040-00&ServiceCd=130&Type=search", "url2": "http://www.s-a-care.co.jp/" }, "geometry": { "type": "Point", "coordinates": [ 135.868426180429964, 35.472571460354544 ] } }
]
}
