{
"type": "FeatureCollection",
"name": "geo_18_通所リハビリテーション",
"crs": { "type": "name", "properties": { "name": "urn:ogc:def:crs:OGC:1.3:CRS84" } },
"features": [
{ "type": "Feature", "properties": { "内容": "医療法人堀の宮整形外科【通所リハビリテーション】福井県福井市堀の宮１丁目１２４番地", "url": "https://www.kaigokensaku.mhlw.go.jp/18/index.php?action_kouhyou_detail_004_kani=true&JigyosyoCd=1810120160-00&ServiceCd=160&Type=search", "url2": null }, "geometry": { "type": "Point", "coordinates": [ 136.197260886806362, 36.080115765050287 ] } },
{ "type": "Feature", "properties": { "内容": "医療法人堀の宮整形外科【通所リハビリテーション】福井県福井市堀ノ宮1丁目124番地", "url": "https://www.kaigokensaku.mhlw.go.jp/18/index.php?action_kouhyou_detail_004_kani=true&JigyosyoCd=1810122091-00&ServiceCd=160&Type=search", "url2": null }, "geometry": { "type": "Point", "coordinates": [ 136.1972839, 36.080101 ] } },
{ "type": "Feature", "properties": { "内容": "佐藤整形形成外科通所リハビリテーション【通所リハビリテーション】福井県福井市桃園１－１－２", "url": "https://www.kaigokensaku.mhlw.go.jp/18/index.php?action_kouhyou_detail_004_kani=true&JigyosyoCd=1810121416-00&ServiceCd=160&Type=search", "url2": null }, "geometry": { "type": "Point", "coordinates": [ 136.2031098, 36.0622254 ] } },
{ "type": "Feature", "properties": { "内容": "安土整形デイケアセンター【通所リハビリテーション】福井県福井市中央2丁目７－１９", "url": "https://www.kaigokensaku.mhlw.go.jp/18/index.php?action_kouhyou_detail_004_kani=true&JigyosyoCd=1810121796-00&ServiceCd=160&Type=search", "url2": "https://bls-acls-pals-fa-fukui.jp/" }, "geometry": { "type": "Point", "coordinates": [ 136.2181498, 36.0591065 ] } },
{ "type": "Feature", "properties": { "内容": "ひかりデイケア【通所リハビリテーション】福井市板垣5丁目201", "url": "https://www.kaigokensaku.mhlw.go.jp/18/index.php?action_kouhyou_detail_004_kani=true&JigyosyoCd=1850180058-00&ServiceCd=160&Type=search", "url2": "http://www.hikarigroup.jp" }, "geometry": { "type": "Point", "coordinates": [ 136.2280878597401, 36.044175101058016 ] } },
{ "type": "Feature", "properties": { "内容": "デイケア　さら【通所リハビリテーション】福井市三十八社町10-8", "url": "https://www.kaigokensaku.mhlw.go.jp/18/index.php?action_kouhyou_detail_004_kani=true&JigyosyoCd=1810120517-00&ServiceCd=160&Type=search", "url2": "iwakiiin.com" }, "geometry": { "type": "Point", "coordinates": [ 136.193929600000047, 35.9969835 ] } },
{ "type": "Feature", "properties": { "内容": "デイケア　すいせん【通所リハビリテーション】福井市蒲生町１－９１－１", "url": "https://www.kaigokensaku.mhlw.go.jp/18/index.php?action_kouhyou_detail_004_kani=true&JigyosyoCd=1810120947-00&ServiceCd=160&Type=search", "url2": null }, "geometry": { "type": "Point", "coordinates": [ 136.011030600000026, 36.0386829 ] } },
{ "type": "Feature", "properties": { "内容": "医療法人文殊会片山整形外科【通所リハビリテーション】福井県福井市江端町13-15-4", "url": "https://www.kaigokensaku.mhlw.go.jp/18/index.php?action_kouhyou_detail_004_kani=true&JigyosyoCd=1810119691-00&ServiceCd=160&Type=search", "url2": null }, "geometry": { "type": "Point", "coordinates": [ 136.2134011, 36.0322175 ] } },
{ "type": "Feature", "properties": { "内容": "福井リハビリテーション病院通所リハビリテーション事業所【通所リハビリテーション】福井市南楢原町20字大畑2番地", "url": "https://www.kaigokensaku.mhlw.go.jp/18/index.php?action_kouhyou_detail_004_kani=true&JigyosyoCd=1810118198-00&ServiceCd=160&Type=search", "url2": "http://www.otaki-hp.or.jp/group/fukui-rehabilitation/" }, "geometry": { "type": "Point", "coordinates": [ 136.179890600000022, 36.0973347 ] } },
{ "type": "Feature", "properties": { "内容": "通所リハビリテーションロコモケア【通所リハビリテーション】福井県福井市北四ツ居3-14-12大森整形外科リウマチ科", "url": "https://www.kaigokensaku.mhlw.go.jp/18/index.php?action_kouhyou_detail_004_kani=true&JigyosyoCd=1810120814-00&ServiceCd=160&Type=search", "url2": "https://omori-seikei.or.jp" }, "geometry": { "type": "Point", "coordinates": [ 136.245650299999966, 36.067665 ] } },
{ "type": "Feature", "properties": { "内容": "福井総合クリニック【通所リハビリテーション】福井県福井市新田塚1丁目42番1号", "url": "https://www.kaigokensaku.mhlw.go.jp/18/index.php?action_kouhyou_detail_004_kani=true&JigyosyoCd=1810121408-00&ServiceCd=160&Type=search", "url2": "https://www.f-gh.jp/fgc/fgc.html" }, "geometry": { "type": "Point", "coordinates": [ 136.20635824944145, 36.092100694851176 ] } },
{ "type": "Feature", "properties": { "内容": "九頭竜長生苑通所リハビリテーション事業所【通所リハビリテーション】福井市寺前町２－２－２", "url": "https://www.kaigokensaku.mhlw.go.jp/18/index.php?action_kouhyou_detail_004_kani=true&JigyosyoCd=1850180033-00&ServiceCd=160&Type=search", "url2": "http://www.fukusenkai.jp/" }, "geometry": { "type": "Point", "coordinates": [ 136.234229199999959, 36.1032184 ] } },
{ "type": "Feature", "properties": { "内容": "介護老人保健施設　アルマ千寿【通所リハビリテーション】福井県福井市川合鷲塚町４９－５", "url": "https://www.kaigokensaku.mhlw.go.jp/18/index.php?action_kouhyou_detail_004_kani=true&JigyosyoCd=1850180066-00&ServiceCd=160&Type=search", "url2": "http://www.senjukai.com" }, "geometry": { "type": "Point", "coordinates": [ 136.212614633065755, 36.113284031148893 ] } },
{ "type": "Feature", "properties": { "内容": "新田塚ハイツ【通所リハビリテーション】福井市新田塚町５０６番地", "url": "https://www.kaigokensaku.mhlw.go.jp/18/index.php?action_kouhyou_detail_004_kani=true&JigyosyoCd=1850180074-00&ServiceCd=160&Type=search", "url2": "https://www.f-gh.jp/househeights/househeights.html" }, "geometry": { "type": "Point", "coordinates": [ 136.210186900000053, 36.0882389 ] } },
{ "type": "Feature", "properties": { "内容": "福井県済生会介護老人保健施設ケアホーム・さいせい【通所リハビリテーション】福井市和田中町徳万28", "url": "https://www.kaigokensaku.mhlw.go.jp/18/index.php?action_kouhyou_detail_004_kani=true&JigyosyoCd=1850180082-00&ServiceCd=160&Type=search", "url2": "https://carehomesaisei-fukui-saiseikai.com" }, "geometry": { "type": "Point", "coordinates": [ 136.252949015652462, 36.046221127927055 ] } },
{ "type": "Feature", "properties": { "内容": "介護老人保健施設　あじさい【通所リハビリテーション】福井県福井市西下野町１５－１２", "url": "https://www.kaigokensaku.mhlw.go.jp/18/index.php?action_kouhyou_detail_004_kani=true&JigyosyoCd=1850180090-00&ServiceCd=160&Type=search", "url2": "http://www.kotobukinokai.com/" }, "geometry": { "type": "Point", "coordinates": [ 136.16448349999996, 36.0653853 ] } },
{ "type": "Feature", "properties": { "内容": "通所リハビリテーションさくら【通所リハビリテーション】福井市花堂東2丁目408番地", "url": "https://www.kaigokensaku.mhlw.go.jp/18/index.php?action_kouhyou_detail_004_kani=true&JigyosyoCd=1850180108-00&ServiceCd=160&Type=search", "url2": "https://www.sensuikai.jp/sakura/" }, "geometry": { "type": "Point", "coordinates": [ 136.222817099999929, 36.041787 ] } },
{ "type": "Feature", "properties": { "内容": "福井厚生病院　通所リハビリセンター【通所リハビリテーション】福井市下六条町217番地", "url": "https://www.kaigokensaku.mhlw.go.jp/18/index.php?action_kouhyou_detail_004_kani=true&JigyosyoCd=1870101365-00&ServiceCd=160&Type=search", "url2": "http://koseikaigroup.jp/kaigo/kayou/tuusho_riha/" }, "geometry": { "type": "Point", "coordinates": [ 136.234072200000014, 36.0368627 ] } },
{ "type": "Feature", "properties": { "内容": "光陽生協クリニックデイケアさんさん【通所リハビリテーション】福井市光陽３丁目９－２３", "url": "https://www.kaigokensaku.mhlw.go.jp/18/index.php?action_kouhyou_detail_004_kani=true&JigyosyoCd=1870101522-00&ServiceCd=160&Type=search", "url2": "http://www.fukui-min-iren.com/iryouseikyou/" }, "geometry": { "type": "Point", "coordinates": [ 136.195902, 36.0658138 ] } },
{ "type": "Feature", "properties": { "内容": "通所リハ　健康の家【通所リハビリテーション】福井県福井市西方1丁目2-11いちご在宅支援センター1・2F", "url": "https://www.kaigokensaku.mhlw.go.jp/18/index.php?action_kouhyou_detail_004_kani=true&JigyosyoCd=1810119840-00&ServiceCd=160&Type=search", "url2": "http://www.kenkoukai.or.jp" }, "geometry": { "type": "Point", "coordinates": [ 136.234507399999984, 36.053886126664487 ] } },
{ "type": "Feature", "properties": { "内容": "ひらいデイ・ケア健康館【通所リハビリテーション】福井市渕４丁目1813番地", "url": "https://www.kaigokensaku.mhlw.go.jp/18/index.php?action_kouhyou_detail_004_kani=true&JigyosyoCd=1810119907-00&ServiceCd=160&Type=search", "url2": "http://www.hirainaikashoukakika.org/" }, "geometry": { "type": "Point", "coordinates": [ 136.182073, 36.0455021 ] } },
{ "type": "Feature", "properties": { "内容": "山内整形外科【通所リハビリテーション】大宮4-13-18", "url": "https://www.kaigokensaku.mhlw.go.jp/18/index.php?action_kouhyou_detail_004_kani=true&JigyosyoCd=1810121630-00&ServiceCd=160&Type=search", "url2": "http://www.yamauchi-seikei.jp" }, "geometry": { "type": "Point", "coordinates": [ 136.207881400000019, 36.0821396 ] } },
{ "type": "Feature", "properties": { "内容": "福井ケアセンター　通所リハビリテーション事業所【通所リハビリテーション】福井県福井市乾徳４丁目５番８号", "url": "https://www.kaigokensaku.mhlw.go.jp/18/index.php?action_kouhyou_detail_004_kani=true&JigyosyoCd=1850180025-00&ServiceCd=160&Type=search", "url2": "http://www.otaki-hp.or.jp/" }, "geometry": { "type": "Point", "coordinates": [ 136.2050203, 36.0714381 ] } },
{ "type": "Feature", "properties": { "内容": "デイケアセンター　あいあい苑【通所リハビリテーション】福井市加茂河原３丁目８－２０", "url": "https://www.kaigokensaku.mhlw.go.jp/18/index.php?action_kouhyou_detail_004_kani=true&JigyosyoCd=1810119469-00&ServiceCd=160&Type=search", "url2": "http://www.miyazakiclinic.net/" }, "geometry": { "type": "Point", "coordinates": [ 136.19191909999995, 36.0627503 ] } },
{ "type": "Feature", "properties": { "内容": "デイケア華みずき【通所リハビリテーション】福井県福井市種池1丁目101", "url": "https://www.kaigokensaku.mhlw.go.jp/18/index.php?action_kouhyou_detail_004_kani=true&JigyosyoCd=1810120376-00&ServiceCd=160&Type=search", "url2": "http://tanaka-seikeiganka.com/" }, "geometry": { "type": "Point", "coordinates": [ 136.192294299999958, 36.035562 ] } },
{ "type": "Feature", "properties": { "内容": "たわらまち整形外科・内科クリニック【通所リハビリテーション】福井県福井市文京2丁目1番15号", "url": "https://www.kaigokensaku.mhlw.go.jp/18/index.php?action_kouhyou_detail_004_kani=true&JigyosyoCd=1810122190-00&ServiceCd=160&Type=search", "url2": "http://tawaramachi.jp" }, "geometry": { "type": "Point", "coordinates": [ 136.2172981, 36.0751606 ] } },
{ "type": "Feature", "properties": { "内容": "ヴィラ岩井【通所リハビリテーション】福井市日之出２丁目１３－２", "url": "https://www.kaigokensaku.mhlw.go.jp/18/index.php?action_kouhyou_detail_004_kani=true&JigyosyoCd=1850180041-00&ServiceCd=160&Type=search", "url2": "http://www.horae.dti.ne.jp/~akio-i/" }, "geometry": { "type": "Point", "coordinates": [ 136.227340499999968, 36.0636228 ] } },
{ "type": "Feature", "properties": { "内容": "さくら病院通所リハビリセンター【通所リハビリテーション】福井市下荒井町第21号44番地の1", "url": "https://www.kaigokensaku.mhlw.go.jp/18/index.php?action_kouhyou_detail_004_kani=true&JigyosyoCd=1810120756-00&ServiceCd=160&Type=search", "url2": "http://www.senjukai.com" }, "geometry": { "type": "Point", "coordinates": [ 136.208959523942525, 36.024997984413361 ] } },
{ "type": "Feature", "properties": { "内容": "福井温泉病院【通所リハビリテーション】福井県福井市天菅生町7-1", "url": "https://www.kaigokensaku.mhlw.go.jp/18/index.php?action_kouhyou_detail_004_kani=true&JigyosyoCd=1810120178-00&ServiceCd=160&Type=search", "url2": "http://www.fukuionsen.jp" }, "geometry": { "type": "Point", "coordinates": [ 136.169389300000034, 36.1210508 ] } },
{ "type": "Feature", "properties": { "内容": "医療法人駅東整形外科通所リハビリテーション　「ケアルームげんき」【通所リハビリテーション】福井市日之出２丁目１２－２", "url": "https://www.kaigokensaku.mhlw.go.jp/18/index.php?action_kouhyou_detail_004_kani=true&JigyosyoCd=1810121333-00&ServiceCd=160&Type=search", "url2": null }, "geometry": { "type": "Point", "coordinates": [ 136.226789757672123, 36.063003272090185 ] } },
{ "type": "Feature", "properties": { "内容": "通所リハビリセンター　いずみ【通所リハビリテーション】福井県敦賀市鉄輪町1丁目2-55", "url": "https://www.kaigokensaku.mhlw.go.jp/18/index.php?action_kouhyou_detail_004_kani=true&JigyosyoCd=1810214880-00&ServiceCd=160&Type=search", "url2": "http://www.izumigaoka.jp" }, "geometry": { "type": "Point", "coordinates": [ 136.07300077605737, 35.643640504767326 ] } },
{ "type": "Feature", "properties": { "内容": "通所リハビリテーション「じゃらん」【通所リハビリテーション】福井県敦賀市昭和町2-2801", "url": "https://www.kaigokensaku.mhlw.go.jp/18/index.php?action_kouhyou_detail_004_kani=true&JigyosyoCd=1850280023-00&ServiceCd=160&Type=search", "url2": "http://meihoukai.com/jyaran/" }, "geometry": { "type": "Point", "coordinates": [ 136.063556699999907, 35.6402478 ] } },
{ "type": "Feature", "properties": { "内容": "医療法人敦賀温泉病院　デイケアゆらり【通所リハビリテーション】福井県敦賀市吉河41号1番地5", "url": "https://www.kaigokensaku.mhlw.go.jp/18/index.php?action_kouhyou_detail_004_kani=true&JigyosyoCd=1810214120-00&ServiceCd=160&Type=search", "url2": "http://www.tsurugaonsen-hp.or.jp/" }, "geometry": { "type": "Point", "coordinates": [ 136.084798699999965, 35.6367821 ] } },
{ "type": "Feature", "properties": { "内容": "介護老人保健施設アクール若狭【通所リハビリテーション】福井県小浜市大手町2-2", "url": "https://www.kaigokensaku.mhlw.go.jp/18/index.php?action_kouhyou_detail_004_kani=true&JigyosyoCd=1850480011-00&ServiceCd=160&Type=search", "url2": "http://www.obamahp-wakasa.jp/aculu/" }, "geometry": { "type": "Point", "coordinates": [ 135.74668, 35.4942738 ] } },
{ "type": "Feature", "properties": { "内容": "医療法人三愛会　中山クリニック【通所リハビリテーション】福井県小浜市多田2-2-1", "url": "https://www.kaigokensaku.mhlw.go.jp/18/index.php?action_kouhyou_detail_004_kani=true&JigyosyoCd=1810414357-00&ServiceCd=160&Type=search", "url2": "https://rerephysio.com" }, "geometry": { "type": "Point", "coordinates": [ 135.770719899999989, 35.4868109 ] } },
{ "type": "Feature", "properties": { "内容": "ビハーラ大野デイケアセンター【通所リハビリテーション】福井県大野市牛ヶ原154-1-1", "url": "https://www.kaigokensaku.mhlw.go.jp/18/index.php?action_kouhyou_detail_004_kani=true&JigyosyoCd=1850580000-00&ServiceCd=160&Type=search", "url2": null }, "geometry": { "type": "Point", "coordinates": [ 136.465946499999973, 35.9937401 ] } },
{ "type": "Feature", "properties": { "内容": "キラキラデイ・ケアセンター【通所リハビリテーション】福井県大野市　要町１－１３(医）キラキラ会松田病院内", "url": "https://www.kaigokensaku.mhlw.go.jp/18/index.php?action_kouhyou_detail_004_kani=true&JigyosyoCd=1810514347-00&ServiceCd=160&Type=search", "url2": "http://www.kirakirakai-matsuda.or.jp" }, "geometry": { "type": "Point", "coordinates": [ 136.489038599999958, 35.990482 ] } },
{ "type": "Feature", "properties": { "内容": "医療法人　尾崎整形外科　介護保険部【通所リハビリテーション】福井県大野市明倫町１０－７", "url": "https://www.kaigokensaku.mhlw.go.jp/18/index.php?action_kouhyou_detail_004_kani=true&JigyosyoCd=1810514339-00&ServiceCd=160&Type=search", "url2": null }, "geometry": { "type": "Point", "coordinates": [ 136.489880200000016, 35.9832748 ] } },
{ "type": "Feature", "properties": { "内容": "介護老人保健施設　鷲巣苑【通所リハビリテーション】福井県勝山市北郷町坂東島第８号２番地", "url": "https://www.kaigokensaku.mhlw.go.jp/18/index.php?action_kouhyou_detail_004_kani=true&JigyosyoCd=1850680016-00&ServiceCd=160&Type=search", "url2": "http://www.washisuen.com/" }, "geometry": { "type": "Point", "coordinates": [ 136.424068799999986, 36.0810274 ] } },
{ "type": "Feature", "properties": { "内容": "福井勝山総合病院附属介護老人保健施設【通所リハビリテーション】福井県勝山市長山町2-6-21", "url": "https://www.kaigokensaku.mhlw.go.jp/18/index.php?action_kouhyou_detail_004_kani=true&JigyosyoCd=1850680032-00&ServiceCd=160&Type=search", "url2": "http://fukui.jcho.go.jp/rouken/" }, "geometry": { "type": "Point", "coordinates": [ 136.506088800000043, 36.0708578 ] } },
{ "type": "Feature", "properties": { "内容": "デイケアさばえ【通所リハビリテーション】鯖江市旭町４丁目９－１０", "url": "https://www.kaigokensaku.mhlw.go.jp/18/index.php?action_kouhyou_detail_004_kani=true&JigyosyoCd=1810714095-00&ServiceCd=160&Type=search", "url2": "http://www.jujinkai.or.jp" }, "geometry": { "type": "Point", "coordinates": [ 136.188343499999974, 35.9497182 ] } },
{ "type": "Feature", "properties": { "内容": "公立丹南病院　通所リハビリテーションセンター　なごみの里【通所リハビリテーション】福井県鯖江市三六町1丁目2-31", "url": "https://www.kaigokensaku.mhlw.go.jp/18/index.php?action_kouhyou_detail_004_kani=true&JigyosyoCd=1810714582-00&ServiceCd=160&Type=search", "url2": "http://www.jadecom.or.jp/jadecomhp/tannan/html/bumonlist/index_18.html" }, "geometry": { "type": "Point", "coordinates": [ 136.178063299999963, 35.9700732 ] } },
{ "type": "Feature", "properties": { "内容": "みどり荘デイケアセンター【通所リハビリテーション】鯖江市中野町33-20-1", "url": "https://www.kaigokensaku.mhlw.go.jp/18/index.php?action_kouhyou_detail_004_kani=true&JigyosyoCd=1850780022-00&ServiceCd=160&Type=search", "url2": "http://higashiyamakai.org/m_kaigo/" }, "geometry": { "type": "Point", "coordinates": [ 136.2061218, 35.9475163 ] } },
{ "type": "Feature", "properties": { "内容": "神明ケアセンター　通所リハビリテーション【通所リハビリテーション】福井県鯖江市幸町1丁目2-2", "url": "https://www.kaigokensaku.mhlw.go.jp/18/index.php?action_kouhyou_detail_004_kani=true&JigyosyoCd=1850780030-00&ServiceCd=160&Type=search", "url2": null }, "geometry": { "type": "Point", "coordinates": [ 136.1810822, 35.9731367 ] } },
{ "type": "Feature", "properties": { "内容": "リハビリセンター王山【通所リハビリテーション】福井県鯖江市旭町１丁目3番22号", "url": "https://www.kaigokensaku.mhlw.go.jp/18/index.php?action_kouhyou_detail_004_kani=true&JigyosyoCd=1850780014-00&ServiceCd=160&Type=search", "url2": "http://www4.ttn.ne.jp/~ohzan/" }, "geometry": { "type": "Point", "coordinates": [ 136.188344340475396, 35.944217680526606 ] } },
{ "type": "Feature", "properties": { "内容": "加納病院　加納デイケア【通所リハビリテーション】福井県あわら市花乃杜１丁目２－３９", "url": "https://www.kaigokensaku.mhlw.go.jp/18/index.php?action_kouhyou_detail_004_kani=true&JigyosyoCd=1810810133-00&ServiceCd=160&Type=search", "url2": "http://www.kanouhp.jp/" }, "geometry": { "type": "Point", "coordinates": [ 136.224595099999988, 36.2160385 ] } },
{ "type": "Feature", "properties": { "内容": "ナイスケア木村【通所リハビリテーション】福井県あわら市市姫3丁目23番4号", "url": "https://www.kaigokensaku.mhlw.go.jp/18/index.php?action_kouhyou_detail_004_kani=true&JigyosyoCd=1850880012-00&ServiceCd=160&Type=search", "url2": "http://kimura-hospital.jp/" }, "geometry": { "type": "Point", "coordinates": [ 136.22837, 36.2091948 ] } },
{ "type": "Feature", "properties": { "内容": "木村病院【通所リハビリテーション】北金津57-25", "url": "https://www.kaigokensaku.mhlw.go.jp/18/index.php?action_kouhyou_detail_004_kani=true&JigyosyoCd=1810810190-00&ServiceCd=160&Type=search", "url2": "http://kimura-hospital.jp" }, "geometry": { "type": "Point", "coordinates": [ 136.217594800000029, 36.2166447 ] } },
{ "type": "Feature", "properties": { "内容": "サンライフ　クリニック（介護予防）通所リハビリテーション　サンライフリハセンター【通所リハビリテーション】福井県越前市蓬莱町6-24", "url": "https://www.kaigokensaku.mhlw.go.jp/18/index.php?action_kouhyou_detail_004_kani=true&JigyosyoCd=1810314896-00&ServiceCd=160&Type=search", "url2": "http://sunlifeonodani.jp/" }, "geometry": { "type": "Point", "coordinates": [ 136.167276087171899, 35.90213735101424 ] } },
{ "type": "Feature", "properties": { "内容": "医療法人　林病院リハビリテーションセンター　通所事業部【通所リハビリテーション】福井県越前市府中１丁目3号5番地", "url": "https://www.kaigokensaku.mhlw.go.jp/18/index.php?action_kouhyou_detail_004_kani=true&JigyosyoCd=1810314383-00&ServiceCd=160&Type=search", "url2": "http://www.hayashi-hospital.or.jp/" }, "geometry": { "type": "Point", "coordinates": [ 136.169915056483433, 35.902934245360605 ] } },
{ "type": "Feature", "properties": { "内容": "シルバーハイツ武生　通所リハビリテーション【通所リハビリテーション】越前市中央2-9-40", "url": "https://www.kaigokensaku.mhlw.go.jp/18/index.php?action_kouhyou_detail_004_kani=true&JigyosyoCd=1850380013-00&ServiceCd=160&Type=search", "url2": "http://aiki-hp.jp/" }, "geometry": { "type": "Point", "coordinates": [ 136.156442199999987, 35.9026927 ] } },
{ "type": "Feature", "properties": { "内容": "介護老人保健施設　シルバーケア藤【通所リハビリテーション】福井県越前市北府３丁目５番１号", "url": "https://www.kaigokensaku.mhlw.go.jp/18/index.php?action_kouhyou_detail_004_kani=true&JigyosyoCd=1850380021-00&ServiceCd=160&Type=search", "url2": null }, "geometry": { "type": "Point", "coordinates": [ 136.164952299999982, 35.9109781 ] } },
{ "type": "Feature", "properties": { "内容": "デイケアしくら【通所リハビリテーション】福井県越前市今宿町８－１", "url": "https://www.kaigokensaku.mhlw.go.jp/18/index.php?action_kouhyou_detail_004_kani=true&JigyosyoCd=1870300157-00&ServiceCd=160&Type=search", "url2": "http://www.ikebata.jp" }, "geometry": { "type": "Point", "coordinates": [ 136.169917100000021, 35.8654366 ] } },
{ "type": "Feature", "properties": { "内容": "デイケアはながたみ【通所リハビリテーション】福井県越前市粟田部町３３－１", "url": "https://www.kaigokensaku.mhlw.go.jp/18/index.php?action_kouhyou_detail_004_kani=true&JigyosyoCd=1870300462-00&ServiceCd=160&Type=search", "url2": "www.imadatechuo-hp.com" }, "geometry": { "type": "Point", "coordinates": [ 136.24348770000006, 35.9169877 ] } },
{ "type": "Feature", "properties": { "内容": "藤田神経内科病院【通所リハビリテーション】福井県坂井市丸岡町羽崎31-12-1", "url": "https://www.kaigokensaku.mhlw.go.jp/18/index.php?action_kouhyou_detail_004_kani=true&JigyosyoCd=1811714268-00&ServiceCd=160&Type=search", "url2": "http://akanekai.net" }, "geometry": { "type": "Point", "coordinates": [ 136.262622599999986, 36.1154185 ] } },
{ "type": "Feature", "properties": { "内容": "通所リハビリテーション　はるさか【通所リハビリテーション】春江町中筋第100号77番地", "url": "https://www.kaigokensaku.mhlw.go.jp/18/index.php?action_kouhyou_detail_004_kani=true&JigyosyoCd=1871700975-00&ServiceCd=160&Type=search", "url2": null }, "geometry": { "type": "Point", "coordinates": [ 136.2361783, 36.1273938 ] } },
{ "type": "Feature", "properties": { "内容": "宮崎病院　通所リハビリテーション【通所リハビリテーション】坂井市三国町北本町2-2-6", "url": "https://www.kaigokensaku.mhlw.go.jp/18/index.php?action_kouhyou_detail_004_kani=true&JigyosyoCd=1811715133-00&ServiceCd=160&Type=search", "url2": "http://www.miyazaki-hp.com/" }, "geometry": { "type": "Point", "coordinates": [ 136.149079300000039, 36.2163367 ] } },
{ "type": "Feature", "properties": { "内容": "坂井市立三国病院【通所リハビリテーション】福井県坂井市三国町中央1丁目2-34", "url": "https://www.kaigokensaku.mhlw.go.jp/18/index.php?action_kouhyou_detail_004_kani=true&JigyosyoCd=1811715208-00&ServiceCd=160&Type=search", "url2": "http://www.city.fukui-sakai.lg.jp/byouin/" }, "geometry": { "type": "Point", "coordinates": [ 136.1578518, 36.2158214 ] } },
{ "type": "Feature", "properties": { "内容": "春江病院通所リハビリテーション【通所リハビリテーション】福井県坂井市春江町針原第65号7番地春江病院", "url": "https://www.kaigokensaku.mhlw.go.jp/18/index.php?action_kouhyou_detail_004_kani=true&JigyosyoCd=1811715323-00&ServiceCd=160&Type=search", "url2": "http://www.harue-hp.org/" }, "geometry": { "type": "Point", "coordinates": [ 136.212678, 36.1238656 ] } },
{ "type": "Feature", "properties": { "内容": "ディーパあかね【通所リハビリテーション】福井県坂井市丸岡町羽崎31-11-3", "url": "https://www.kaigokensaku.mhlw.go.jp/18/index.php?action_kouhyou_detail_004_kani=true&JigyosyoCd=1851780013-00&ServiceCd=160&Type=search", "url2": "http://akanekai.net" }, "geometry": { "type": "Point", "coordinates": [ 136.262623500000018, 36.1151158 ] } },
{ "type": "Feature", "properties": { "内容": "坂井ケアセンター通所リハビリテーション【通所リハビリテーション】福井県坂井市坂井町折戸第１号５８番地", "url": "https://www.kaigokensaku.mhlw.go.jp/18/index.php?action_kouhyou_detail_004_kani=true&JigyosyoCd=1851780021-00&ServiceCd=160&Type=search", "url2": "https://sakaicare.com/" }, "geometry": { "type": "Point", "coordinates": [ 136.170241199999964, 36.1713585 ] } },
{ "type": "Feature", "properties": { "内容": "東尋坊ひまわりの丘　通所リハビリテーションサービス【通所リハビリテーション】福井県坂井市三国町陣ヶ岡16-13-18", "url": "https://www.kaigokensaku.mhlw.go.jp/18/index.php?action_kouhyou_detail_004_kani=true&JigyosyoCd=1851780047-00&ServiceCd=160&Type=search", "url2": "http://fj-g.jp/" }, "geometry": { "type": "Point", "coordinates": [ 136.142114799999945, 36.2383927 ] } },
{ "type": "Feature", "properties": { "内容": "シルバーケア日野【通所リハビリテーション】南条郡南越前町東大道33-10-1", "url": "https://www.kaigokensaku.mhlw.go.jp/18/index.php?action_kouhyou_detail_004_kani=true&JigyosyoCd=1851980019-00&ServiceCd=160&Type=search", "url2": null }, "geometry": { "type": "Point", "coordinates": [ 136.19421, 35.8336476 ] } },
{ "type": "Feature", "properties": { "内容": "今庄老人保健施設　今庄通所リハビリテーション事業所【通所リハビリテーション】福井県南条郡南越前町今庄84-26", "url": "https://www.kaigokensaku.mhlw.go.jp/18/index.php?action_kouhyou_detail_004_kani=true&JigyosyoCd=1851980035-00&ServiceCd=160&Type=search", "url2": "https:www.town.minamiechizen.lg.jp/sisetu/3004/p001123.html" }, "geometry": { "type": "Point", "coordinates": [ 136.200634700000023, 35.7724385 ] } },
{ "type": "Feature", "properties": { "内容": "丹生ケアセンターひまわり荘　通所リハビリテーション【通所リハビリテーション】福井県丹生郡越前町四ツ杉３－１０", "url": "https://www.kaigokensaku.mhlw.go.jp/18/index.php?action_kouhyou_detail_004_kani=true&JigyosyoCd=1852080025-00&ServiceCd=160&Type=search", "url2": "http://www.sekishin-himawari.or.jp/otahima/" }, "geometry": { "type": "Point", "coordinates": [ 136.035115446557654, 35.960778504770644 ] } },
{ "type": "Feature", "properties": { "内容": "独立行政法人　地域医療機能推進機構　若狭高浜病院附属介護老人保健施設【通所リハビリテーション】大飯郡高浜町宮崎８７－１４－２", "url": "https://www.kaigokensaku.mhlw.go.jp/18/index.php?action_kouhyou_detail_004_kani=true&JigyosyoCd=1852380011-00&ServiceCd=160&Type=search", "url2": "http://takahama.jcho.go.jp/rouken/" }, "geometry": { "type": "Point", "coordinates": [ 135.546282099999985, 35.4887754 ] } },
{ "type": "Feature", "properties": { "内容": "介護老人保健施設なごみ　通所リハビリテーション【通所リハビリテーション】福井県大飯郡おおい町本郷第92号51番地1", "url": "https://www.kaigokensaku.mhlw.go.jp/18/index.php?action_kouhyou_detail_004_kani=true&JigyosyoCd=1852380029-00&ServiceCd=160&Type=search", "url2": "http://nagomi-ohi.com/" }, "geometry": { "type": "Point", "coordinates": [ 135.624178, 35.474744 ] } },
{ "type": "Feature", "properties": { "内容": "若狭町国民健康保険上中診療所【通所リハビリテーション】福井県三方上中郡若狭町市場第19号5番地", "url": "https://www.kaigokensaku.mhlw.go.jp/18/index.php?action_kouhyou_detail_004_kani=true&JigyosyoCd=1812410130-00&ServiceCd=160&Type=search", "url2": "http://kaminakashinryojo.jp" }, "geometry": { "type": "Point", "coordinates": [ 135.8579082, 35.4618296 ] } },
{ "type": "Feature", "properties": { "内容": "介護老人保健施設　ゆなみ【通所リハビリテーション】福井県三方上中郡若狭町岩屋61-31", "url": "https://www.kaigokensaku.mhlw.go.jp/18/index.php?action_kouhyou_detail_004_kani=true&JigyosyoCd=1852480019-00&ServiceCd=160&Type=search", "url2": "http://www.tsurugaonsen-hp.or.jp/yunami/" }, "geometry": { "type": "Point", "coordinates": [ 135.894197299999973, 35.5147443 ] } },
{ "type": "Feature", "properties": { "内容": "レイクヒルズ美方病院　指定（介護予防）通所リハビリテーション事業所【通所リハビリテーション】福井県三方上中郡若狭町気山315-1-9", "url": "https://www.kaigokensaku.mhlw.go.jp/18/index.php?action_kouhyou_detail_004_kani=true&JigyosyoCd=1812410023-00&ServiceCd=160&Type=search", "url2": "http://www.obamahp-wakasa.jp/reiku/" }, "geometry": { "type": "Point", "coordinates": [ 135.913361399999985, 35.5847596 ] } }
]
}
