{
"type": "FeatureCollection",
"name": "geo_18_地域密着型通所介護",
"crs": { "type": "name", "properties": { "name": "urn:ogc:def:crs:OGC:1.3:CRS84" } },
"features": [
{ "type": "Feature", "properties": { "内容": "デイサービスセンター　きらく【地域密着型通所介護】福井県福井市松本３丁目４番４号", "url": "https://www.kaigokensaku.mhlw.go.jp/18/index.php?action_kouhyou_detail_004_kani=true&JigyosyoCd=1870103015-00&ServiceCd=780&Type=search", "url2": "http://kiraku291.jimdo.com/" }, "geometry": { "type": "Point", "coordinates": [ 136.222384899999952, 36.0709854 ] } },
{ "type": "Feature", "properties": { "内容": "リハプライド　北四ツ居【地域密着型通所介護】北四ツ居３丁目１４－２０コンフォート円山1Ｆ", "url": "https://www.kaigokensaku.mhlw.go.jp/18/index.php?action_kouhyou_detail_004_kani=true&JigyosyoCd=1870102983-00&ServiceCd=780&Type=search", "url2": "http://www.rehapride.co.jp/kitayotsui/" }, "geometry": { "type": "Point", "coordinates": [ 136.246214099999946, 36.0676428 ] } },
{ "type": "Feature", "properties": { "内容": "ぽっかポカほのか【地域密着型通所介護】福井県福井市みのり1丁目５－１６ル・レーヴほのか　１階", "url": "https://www.kaigokensaku.mhlw.go.jp/18/index.php?action_kouhyou_detail_004_kani=true&JigyosyoCd=1890101031-00&ServiceCd=780&Type=search", "url2": "http://www.keishukai.com/" }, "geometry": { "type": "Point", "coordinates": [ 136.21715026256561, 36.049501969270047 ] } },
{ "type": "Feature", "properties": { "内容": "デイサービスセンターみやま【地域密着型通所介護】市波町３２－７", "url": "https://www.kaigokensaku.mhlw.go.jp/18/index.php?action_kouhyou_detail_004_kani=true&JigyosyoCd=1890101049-00&ServiceCd=780&Type=search", "url2": null }, "geometry": { "type": "Point", "coordinates": [ 136.330397100000027, 36.0161833 ] } },
{ "type": "Feature", "properties": { "内容": "くるみの森　高木【地域密着型通所介護】福井市高木中央1丁目1717", "url": "https://www.kaigokensaku.mhlw.go.jp/18/index.php?action_kouhyou_detail_004_kani=true&JigyosyoCd=1870102264-00&ServiceCd=780&Type=search", "url2": "grn-plus.info" }, "geometry": { "type": "Point", "coordinates": [ 136.230637600000023, 36.0905197 ] } },
{ "type": "Feature", "properties": { "内容": "リハビリ長寿　城東道場【地域密着型通所介護】福井県福井市城東４丁目19-13", "url": "https://www.kaigokensaku.mhlw.go.jp/18/index.php?action_kouhyou_detail_004_kani=true&JigyosyoCd=1870103080-00&ServiceCd=780&Type=search", "url2": "http://www.tyouju.co.jp/" }, "geometry": { "type": "Point", "coordinates": [ 136.238579, 36.058124 ] } },
{ "type": "Feature", "properties": { "内容": "デイサービスふう【地域密着型通所介護】市波町32-7", "url": "https://www.kaigokensaku.mhlw.go.jp/18/index.php?action_kouhyou_detail_004_kani=true&JigyosyoCd=1890101221-00&ServiceCd=780&Type=search", "url2": null }, "geometry": { "type": "Point", "coordinates": [ 136.33012351468048, 36.016582488329689 ] } },
{ "type": "Feature", "properties": { "内容": "ハッピー楽トレ　デーサービス【地域密着型通所介護】福井県福井市田原1丁目２－１８", "url": "https://www.kaigokensaku.mhlw.go.jp/18/index.php?action_kouhyou_detail_004_kani=true&JigyosyoCd=1870103213-00&ServiceCd=780&Type=search", "url2": "http://www.happychiryo.jp" }, "geometry": { "type": "Point", "coordinates": [ 136.21683, 36.0711881 ] } },
{ "type": "Feature", "properties": { "内容": "くるみの森　福町【地域密着型通所介護】福井市福新町509", "url": "https://www.kaigokensaku.mhlw.go.jp/18/index.php?action_kouhyou_detail_004_kani=true&JigyosyoCd=1870102371-00&ServiceCd=780&Type=search", "url2": "grn-plus.info" }, "geometry": { "type": "Point", "coordinates": [ 136.185605900000041, 36.0483575 ] } },
{ "type": "Feature", "properties": { "内容": "遊びにおいでや　やまりんち【地域密着型通所介護】福井県福井市太田町３０－３０", "url": "https://www.kaigokensaku.mhlw.go.jp/18/index.php?action_kouhyou_detail_004_kani=true&JigyosyoCd=1890101320-00&ServiceCd=780&Type=search", "url2": "https://www.yamarinchi.com/" }, "geometry": { "type": "Point", "coordinates": [ 136.2328027, 36.0099142 ] } },
{ "type": "Feature", "properties": { "内容": "この道グループデイサービス【地域密着型通所介護】福井県福井市燈豊町39号6番地80", "url": "https://www.kaigokensaku.mhlw.go.jp/18/index.php?action_kouhyou_detail_004_kani=true&JigyosyoCd=1890101122-00&ServiceCd=780&Type=search", "url2": null }, "geometry": { "type": "Point", "coordinates": [ 136.1401564, 36.1241241 ] } },
{ "type": "Feature", "properties": { "内容": "福まる宝永デイサービス【地域密着型通所介護】福井県福井市宝永1丁目16-10", "url": "https://www.kaigokensaku.mhlw.go.jp/18/index.php?action_kouhyou_detail_004_kani=true&JigyosyoCd=1890100892-00&ServiceCd=780&Type=search", "url2": null }, "geometry": { "type": "Point", "coordinates": [ 136.229604742327865, 36.068654336124204 ] } },
{ "type": "Feature", "properties": { "内容": "認知機能訓練特化型デイサービス笑和【地域密着型通所介護】福井県福井市上北野2-23-9デイサービス笑和", "url": "https://www.kaigokensaku.mhlw.go.jp/18/index.php?action_kouhyou_detail_004_kani=true&JigyosyoCd=1890101106-00&ServiceCd=780&Type=search", "url2": "作成中" }, "geometry": { "type": "Point", "coordinates": [ 136.251220399999966, 36.0593626 ] } },
{ "type": "Feature", "properties": { "内容": "いちごライフ【地域密着型通所介護】福井県福井市勝見3丁目20-12いちごの森1階", "url": "https://www.kaigokensaku.mhlw.go.jp/18/index.php?action_kouhyou_detail_004_kani=true&JigyosyoCd=1870103288-00&ServiceCd=780&Type=search", "url2": "http://kenkoukai.or.jp/daycare/life/" }, "geometry": { "type": "Point", "coordinates": [ 136.233765700000049, 36.0536217 ] } },
{ "type": "Feature", "properties": { "内容": "アスピカケアセンターかいほつ【地域密着型通所介護】福井市開発5丁目101-1アスピカケアセンターかいほつ", "url": "https://www.kaigokensaku.mhlw.go.jp/18/index.php?action_kouhyou_detail_004_kani=true&JigyosyoCd=1890101163-00&ServiceCd=780&Type=search", "url2": "http//www.aspica.co.jp" }, "geometry": { "type": "Point", "coordinates": [ 136.2425901, 36.0857738 ] } },
{ "type": "Feature", "properties": { "内容": "大和田デイサービスセンター【地域密着型通所介護】大和田町第23号1番地", "url": "https://www.kaigokensaku.mhlw.go.jp/18/index.php?action_kouhyou_detail_004_kani=true&JigyosyoCd=1870100383-00&ServiceCd=780&Type=search", "url2": "http://www.fujishimaen.or.jp" }, "geometry": { "type": "Point", "coordinates": [ 136.256082800000058, 36.0947596 ] } },
{ "type": "Feature", "properties": { "内容": "あさくらデイサービスセンター【地域密着型通所介護】福井市西新町1-25", "url": "https://www.kaigokensaku.mhlw.go.jp/18/index.php?action_kouhyou_detail_004_kani=true&JigyosyoCd=1870100540-00&ServiceCd=780&Type=search", "url2": "http://www.asakuraen.jp" }, "geometry": { "type": "Point", "coordinates": [ 136.289327850262424, 35.99469875141083 ] } },
{ "type": "Feature", "properties": { "内容": "公益社団法人福井市シルバー人材センター介護保険事業所ひだまりの家【地域密着型通所介護】福井市大宮2-18-25", "url": "https://www.kaigokensaku.mhlw.go.jp/18/index.php?action_kouhyou_detail_004_kani=true&JigyosyoCd=1870101043-00&ServiceCd=780&Type=search", "url2": "http://www2.interbroad.or.jp/genkikun/" }, "geometry": { "type": "Point", "coordinates": [ 136.2210298, 36.0823896 ] } },
{ "type": "Feature", "properties": { "内容": "渚苑デイサービスセンター【地域密着型通所介護】福井県福井市蒲生町1-90-1こしの渚苑", "url": "https://www.kaigokensaku.mhlw.go.jp/18/index.php?action_kouhyou_detail_004_kani=true&JigyosyoCd=1870101639-00&ServiceCd=780&Type=search", "url2": "http://www.koshinonagisaen.com/" }, "geometry": { "type": "Point", "coordinates": [ 136.011194599999953, 36.0382524 ] } },
{ "type": "Feature", "properties": { "内容": "いなほ生活リハビリセンター【地域密着型通所介護】福井市江端町20字20-24", "url": "https://www.kaigokensaku.mhlw.go.jp/18/index.php?action_kouhyou_detail_004_kani=true&JigyosyoCd=1890100983-00&ServiceCd=780&Type=search", "url2": "http://fukui-medix.com/" }, "geometry": { "type": "Point", "coordinates": [ 136.2123517, 36.026722 ] } },
{ "type": "Feature", "properties": { "内容": "よつば生活リハビリセンター【地域密着型通所介護】福井市四ツ井1丁目13番23号", "url": "https://www.kaigokensaku.mhlw.go.jp/18/index.php?action_kouhyou_detail_004_kani=true&JigyosyoCd=1890100967-00&ServiceCd=780&Type=search", "url2": "http://fukui-medix.com" }, "geometry": { "type": "Point", "coordinates": [ 136.237018700000021, 36.0648092 ] } },
{ "type": "Feature", "properties": { "内容": "リハビリデイサービスおいで【地域密着型通所介護】福井市城東4丁目19-13", "url": "https://www.kaigokensaku.mhlw.go.jp/18/index.php?action_kouhyou_detail_004_kani=true&JigyosyoCd=1890101296-00&ServiceCd=780&Type=search", "url2": null }, "geometry": { "type": "Point", "coordinates": [ 136.2386315, 36.0581262 ] } },
{ "type": "Feature", "properties": { "内容": "ヴィルヌーブあさくらデイサービスセンター【地域密着型通所介護】福井市豊島1丁目2-13", "url": "https://www.kaigokensaku.mhlw.go.jp/18/index.php?action_kouhyou_detail_004_kani=true&JigyosyoCd=1890101312-00&ServiceCd=780&Type=search", "url2": "http://www.asakuraen.jp" }, "geometry": { "type": "Point", "coordinates": [ 136.2208301, 36.058065 ] } },
{ "type": "Feature", "properties": { "内容": "ライフアップあさがお【地域密着型通所介護】福井市新保町19字35番1", "url": "https://www.kaigokensaku.mhlw.go.jp/18/index.php?action_kouhyou_detail_004_kani=true&JigyosyoCd=1890101114-00&ServiceCd=780&Type=search", "url2": "http://fukui⁻medix.com/" }, "geometry": { "type": "Point", "coordinates": [ 136.258774, 36.085094 ] } },
{ "type": "Feature", "properties": { "内容": "ゆうあいデイサービスセンター【地域密着型通所介護】福井県福井市大願寺3丁目9-3", "url": "https://www.kaigokensaku.mhlw.go.jp/18/index.php?action_kouhyou_detail_004_kani=true&JigyosyoCd=1890101189-00&ServiceCd=780&Type=search", "url2": "http://fukui-youi.com/" }, "geometry": { "type": "Point", "coordinates": [ 136.22835950000001, 36.0842872 ] } },
{ "type": "Feature", "properties": { "内容": "りはーとふくい【地域密着型通所介護】福井県福井市開発５丁目１２０７番地コミュニティリゾートリライム１階", "url": "https://www.kaigokensaku.mhlw.go.jp/18/index.php?action_kouhyou_detail_004_kani=true&JigyosyoCd=1890101239-00&ServiceCd=780&Type=search", "url2": "https://www.reheart-fukui.net" }, "geometry": { "type": "Point", "coordinates": [ 136.2449656, 36.0863717 ] } },
{ "type": "Feature", "properties": { "内容": "県民せいきょう　宝永きらめきデイサービス【地域密着型通所介護】福井県福井市宝永3丁目3番1号", "url": "https://www.kaigokensaku.mhlw.go.jp/18/index.php?action_kouhyou_detail_004_kani=true&JigyosyoCd=1870101993-00&ServiceCd=780&Type=search", "url2": "http://www.fukui.coop/" }, "geometry": { "type": "Point", "coordinates": [ 136.2240405, 36.0673194 ] } },
{ "type": "Feature", "properties": { "内容": "第二ひかり苑泉の郷【地域密着型通所介護】福井県福井市今泉町25字15番１", "url": "https://www.kaigokensaku.mhlw.go.jp/18/index.php?action_kouhyou_detail_004_kani=true&JigyosyoCd=1870102231-00&ServiceCd=780&Type=search", "url2": "http://www.hikarigroup.jp" }, "geometry": { "type": "Point", "coordinates": [ 136.253447, 36.0680737 ] } },
{ "type": "Feature", "properties": { "内容": "デイホーム楽ちんの家【地域密着型通所介護】福井県福井市市波町24-12", "url": "https://www.kaigokensaku.mhlw.go.jp/18/index.php?action_kouhyou_detail_004_kani=true&JigyosyoCd=1870103072-00&ServiceCd=780&Type=search", "url2": "http://www.rakuchinnoie.com" }, "geometry": { "type": "Point", "coordinates": [ 136.329651600000034, 36.0175938 ] } },
{ "type": "Feature", "properties": { "内容": "デイホーム楽ちんの家　なごみ【地域密着型通所介護】福井県福井市大久保町1-61", "url": "https://www.kaigokensaku.mhlw.go.jp/18/index.php?action_kouhyou_detail_004_kani=true&JigyosyoCd=1870103262-00&ServiceCd=780&Type=search", "url2": "http://www.rakuchinnoie.com" }, "geometry": { "type": "Point", "coordinates": [ 136.3293294, 36.018196499999981 ] } },
{ "type": "Feature", "properties": { "内容": "デイサービスがんばれ【地域密着型通所介護】福井県福井市開発2丁目306　ブルーハイツⅦ　1階南", "url": "https://www.kaigokensaku.mhlw.go.jp/18/index.php?action_kouhyou_detail_004_kani=true&JigyosyoCd=1890100934-00&ServiceCd=780&Type=search", "url2": null }, "geometry": { "type": "Point", "coordinates": [ 136.238964199030562, 36.07890974698747 ] } },
{ "type": "Feature", "properties": { "内容": "デイサービスセンターサンホーム一乗【地域密着型通所介護】勝見3丁目22-4", "url": "https://www.kaigokensaku.mhlw.go.jp/18/index.php?action_kouhyou_detail_004_kani=true&JigyosyoCd=1890100868-00&ServiceCd=780&Type=search", "url2": "http://www.fuku-koumyouji.jp" }, "geometry": { "type": "Point", "coordinates": [ 136.2333519, 36.0525468 ] } },
{ "type": "Feature", "properties": { "内容": "花むつ苑　デイサービスセンター【地域密着型通所介護】福井市花堂中1丁目5-6", "url": "https://www.kaigokensaku.mhlw.go.jp/18/index.php?action_kouhyou_detail_004_kani=true&JigyosyoCd=1870102256-00&ServiceCd=780&Type=search", "url2": "http://www.asamutuen.jp/" }, "geometry": { "type": "Point", "coordinates": [ 136.215312199999971, 36.0391566 ] } },
{ "type": "Feature", "properties": { "内容": "アストレデイサービス【地域密着型通所介護】福井県福井市滝波町第60ー14ー1", "url": "https://www.kaigokensaku.mhlw.go.jp/18/index.php?action_kouhyou_detail_004_kani=true&JigyosyoCd=1870103148-00&ServiceCd=780&Type=search", "url2": "asutore@mx5.fctv.ne.jp" }, "geometry": { "type": "Point", "coordinates": [ 136.116756400000014, 36.0221545 ] } },
{ "type": "Feature", "properties": { "内容": "デイサービス施設「パワーリハビリ　ふぁいと」【地域密着型通所介護】渕3丁目125-1TAKEIPOWERGYM", "url": "https://www.kaigokensaku.mhlw.go.jp/18/index.php?action_kouhyou_detail_004_kani=true&JigyosyoCd=1890101247-00&ServiceCd=780&Type=search", "url2": "http://takeipowergym.com/about_fight.html" }, "geometry": { "type": "Point", "coordinates": [ 136.1856913, 36.0438897 ] } },
{ "type": "Feature", "properties": { "内容": "新田塚アークリハ二の宮【地域密着型通所介護】福井県福井市二の宮2-26-35", "url": "https://www.kaigokensaku.mhlw.go.jp/18/index.php?action_kouhyou_detail_004_kani=true&JigyosyoCd=1890100843-00&ServiceCd=780&Type=search", "url2": "http://www.nittazuka.com/arcreha/" }, "geometry": { "type": "Point", "coordinates": [ 136.222511729113762, 36.087177095134393 ] } },
{ "type": "Feature", "properties": { "内容": "新田塚アークリハベル前【地域密着型通所介護】福井県福井市花堂南1丁目11-36", "url": "https://www.kaigokensaku.mhlw.go.jp/18/index.php?action_kouhyou_detail_004_kani=true&JigyosyoCd=1890101007-00&ServiceCd=780&Type=search", "url2": "https://www.nittazuka.com/arcreha/" }, "geometry": { "type": "Point", "coordinates": [ 136.213478416532894, 36.033611008909119 ] } },
{ "type": "Feature", "properties": { "内容": "リハビリデイサービス　すきっぷ【地域密着型通所介護】福井県福井市松本3丁目29-14中村ビル1階", "url": "https://www.kaigokensaku.mhlw.go.jp/18/index.php?action_kouhyou_detail_004_kani=true&JigyosyoCd=1890101072-00&ServiceCd=780&Type=search", "url2": "https://aday-skip.com" }, "geometry": { "type": "Point", "coordinates": [ 136.225354579762268, 36.075439278752896 ] } },
{ "type": "Feature", "properties": { "内容": "デイサービスセンター　経田はうす【地域密着型通所介護】福井県福井市経田1丁目313番地", "url": "https://www.kaigokensaku.mhlw.go.jp/18/index.php?action_kouhyou_detail_004_kani=true&JigyosyoCd=1870101415-00&ServiceCd=780&Type=search", "url2": "http://fukui-youi.com" }, "geometry": { "type": "Point", "coordinates": [ 136.222216, 36.0887722 ] } },
{ "type": "Feature", "properties": { "内容": "デイサービスセンター　桜手苑【地域密着型通所介護】福井県福井市大手2-22-18", "url": "https://www.kaigokensaku.mhlw.go.jp/18/index.php?action_kouhyou_detail_004_kani=true&JigyosyoCd=1890100942-00&ServiceCd=780&Type=search", "url2": "http://ooteen.org" }, "geometry": { "type": "Point", "coordinates": [ 136.224184899999955, 36.0666833 ] } },
{ "type": "Feature", "properties": { "内容": "あんのんデイサービス【地域密着型通所介護】福井市北四ツ居2丁目7-17", "url": "https://www.kaigokensaku.mhlw.go.jp/18/index.php?action_kouhyou_detail_004_kani=true&JigyosyoCd=1890101056-00&ServiceCd=780&Type=search", "url2": "ansinmura.jp//annonday/" }, "geometry": { "type": "Point", "coordinates": [ 136.2454883, 36.0664749 ] } },
{ "type": "Feature", "properties": { "内容": "幸デイサービスセンター「暖（のん）」【地域密着型通所介護】福井県敦賀市平和町17-4", "url": "https://www.kaigokensaku.mhlw.go.jp/18/index.php?action_kouhyou_detail_004_kani=true&JigyosyoCd=1890200262-00&ServiceCd=780&Type=search", "url2": "http://fukushika.com/" }, "geometry": { "type": "Point", "coordinates": [ 136.0498394, 35.6478599 ] } },
{ "type": "Feature", "properties": { "内容": "デイサービスセンター　眞盛苑【地域密着型通所介護】福井県敦賀市莇生野90号3番", "url": "https://www.kaigokensaku.mhlw.go.jp/18/index.php?action_kouhyou_detail_004_kani=true&JigyosyoCd=1870200043-00&ServiceCd=780&Type=search", "url2": "http://www.jisyoukai.jp" }, "geometry": { "type": "Point", "coordinates": [ 136.043886899999961, 35.6274017 ] } },
{ "type": "Feature", "properties": { "内容": "駅前アクティブセンターステップ【地域密着型通所介護】敦賀市白銀町10-13　酒井電機ビル１階", "url": "https://www.kaigokensaku.mhlw.go.jp/18/index.php?action_kouhyou_detail_004_kani=true&JigyosyoCd=1870200290-00&ServiceCd=780&Type=search", "url2": "http://www.rehaplus.co.jp/" }, "geometry": { "type": "Point", "coordinates": [ 136.072604, 35.647422 ] } },
{ "type": "Feature", "properties": { "内容": "デイサービスつむぎ【地域密着型通所介護】福井県敦賀市藤ヶ丘町15－5番地", "url": "https://www.kaigokensaku.mhlw.go.jp/18/index.php?action_kouhyou_detail_004_kani=true&JigyosyoCd=1870200506-00&ServiceCd=780&Type=search", "url2": null }, "geometry": { "type": "Point", "coordinates": [ 136.085267499999986, 35.6545166 ] } },
{ "type": "Feature", "properties": { "内容": "あすかデイサービスセンター【地域密着型通所介護】福井県敦賀市山泉73-914-4", "url": "https://www.kaigokensaku.mhlw.go.jp/18/index.php?action_kouhyou_detail_004_kani=true&JigyosyoCd=1870200548-00&ServiceCd=780&Type=search", "url2": null }, "geometry": { "type": "Point", "coordinates": [ 136.0625152, 35.6152422 ] } },
{ "type": "Feature", "properties": { "内容": "デイサービス雀の学校【地域密着型通所介護】堂44号岡の腰1-1有料老人ホーム雀の郷", "url": "https://www.kaigokensaku.mhlw.go.jp/18/index.php?action_kouhyou_detail_004_kani=true&JigyosyoCd=1890200197-00&ServiceCd=780&Type=search", "url2": "https://www.suzumenosato.co.jp/" }, "geometry": { "type": "Point", "coordinates": [ 136.071859198319004, 35.629699366285301 ] } },
{ "type": "Feature", "properties": { "内容": "県民せいきょう小浜きらめきディサービス【地域密着型通所介護】遠敷9丁目501番地県民せいきょう小浜きらめき", "url": "https://www.kaigokensaku.mhlw.go.jp/18/index.php?action_kouhyou_detail_004_kani=true&JigyosyoCd=1870400411-00&ServiceCd=780&Type=search", "url2": "http://www.fukui.coop/" }, "geometry": { "type": "Point", "coordinates": [ 135.774036546571324, 35.484008770277882 ] } },
{ "type": "Feature", "properties": { "内容": "あいデイサービスセンター【地域密着型通所介護】大野市中挟3丁目101番地", "url": "https://www.kaigokensaku.mhlw.go.jp/18/index.php?action_kouhyou_detail_004_kani=true&JigyosyoCd=1870500301-00&ServiceCd=780&Type=search", "url2": null }, "geometry": { "type": "Point", "coordinates": [ 136.502190435334796, 35.994525507296899 ] } },
{ "type": "Feature", "properties": { "内容": "デイホーム　ひだまりでぃ【地域密着型通所介護】福井県大野市春日2丁目15-9", "url": "https://www.kaigokensaku.mhlw.go.jp/18/index.php?action_kouhyou_detail_004_kani=true&JigyosyoCd=1870500152-00&ServiceCd=780&Type=search", "url2": "fukushi-ono.com" }, "geometry": { "type": "Point", "coordinates": [ 136.495761128419531, 35.974001061070844 ] } },
{ "type": "Feature", "properties": { "内容": "デイホームぬくぬく【地域密着型通所介護】大野市有明町19番23号", "url": "https://www.kaigokensaku.mhlw.go.jp/18/index.php?action_kouhyou_detail_004_kani=true&JigyosyoCd=1870500160-00&ServiceCd=780&Type=search", "url2": "fukusi-ono.com" }, "geometry": { "type": "Point", "coordinates": [ 136.501537131877171, 35.983909831790506 ] } },
{ "type": "Feature", "properties": { "内容": "社会福祉法人大野市社会福祉協議会和泉デイサービスセンター【地域密着型通所介護】大野市朝日23-21", "url": "https://www.kaigokensaku.mhlw.go.jp/18/index.php?action_kouhyou_detail_004_kani=true&JigyosyoCd=1870500202-00&ServiceCd=780&Type=search", "url2": "http://ono-shakyo.jp" }, "geometry": { "type": "Point", "coordinates": [ 136.66242066560676, 35.905535847677434 ] } },
{ "type": "Feature", "properties": { "内容": "県民せいきょう大野きらめきデイサービス【地域密着型通所介護】福井県大野市天神町3番21号", "url": "https://www.kaigokensaku.mhlw.go.jp/18/index.php?action_kouhyou_detail_004_kani=true&JigyosyoCd=1870500293-00&ServiceCd=780&Type=search", "url2": "http://www.fukui.coop/" }, "geometry": { "type": "Point", "coordinates": [ 136.4884859, 35.9790976 ] } },
{ "type": "Feature", "properties": { "内容": "デイホームあそじま【地域密着型通所介護】福井県大野市下麻生嶋58字中出14-４", "url": "https://www.kaigokensaku.mhlw.go.jp/18/index.php?action_kouhyou_detail_004_kani=true&JigyosyoCd=1870500343-00&ServiceCd=780&Type=search", "url2": "fukushi-ono.com" }, "geometry": { "type": "Point", "coordinates": [ 136.524932856622286, 35.999344413636074 ] } },
{ "type": "Feature", "properties": { "内容": "地域密着型たんぽぽデイサービスセンター【地域密着型通所介護】福井県大野市鍬掛第2号16番地", "url": "https://www.kaigokensaku.mhlw.go.jp/18/index.php?action_kouhyou_detail_004_kani=true&JigyosyoCd=1890500216-00&ServiceCd=780&Type=search", "url2": "https://www.big-adbance.site/s/170/1526" }, "geometry": { "type": "Point", "coordinates": [ 136.48035043306578, 35.976061615343262 ] } },
{ "type": "Feature", "properties": { "内容": "悠悠いきいき倶楽部ちゃま【地域密着型通所介護】勝山市郡町1丁目2-51", "url": "https://www.kaigokensaku.mhlw.go.jp/18/index.php?action_kouhyou_detail_004_kani=true&JigyosyoCd=1870600168-00&ServiceCd=780&Type=search", "url2": "http://www.taniuchi-gp.net/" }, "geometry": { "type": "Point", "coordinates": [ 136.497528500000044, 36.0696883 ] } },
{ "type": "Feature", "properties": { "内容": "くるみの森　丹南【地域密着型通所介護】福井県鯖江市新横江町１丁目3-5-1", "url": "https://www.kaigokensaku.mhlw.go.jp/18/index.php?action_kouhyou_detail_004_kani=true&JigyosyoCd=1870700315-00&ServiceCd=780&Type=search", "url2": null }, "geometry": { "type": "Point", "coordinates": [ 136.195634167261005, 35.94195298026419 ] } },
{ "type": "Feature", "properties": { "内容": "アミューズメントデイサービスまんまる【地域密着型通所介護】福井県鯖江市冬島町2-7-1", "url": "https://www.kaigokensaku.mhlw.go.jp/18/index.php?action_kouhyou_detail_004_kani=true&JigyosyoCd=1890700162-00&ServiceCd=780&Type=search", "url2": "https://aaa-service.co.jp/" }, "geometry": { "type": "Point", "coordinates": [ 136.146330400000011, 35.9541953 ] } },
{ "type": "Feature", "properties": { "内容": "ここんデイサービスしんめい【地域密着型通所介護】福井県鯖江市糺町19-9-1", "url": "https://www.kaigokensaku.mhlw.go.jp/18/index.php?action_kouhyou_detail_004_kani=true&JigyosyoCd=1870700554-00&ServiceCd=780&Type=search", "url2": "https://cocon873.wixsite.com" }, "geometry": { "type": "Point", "coordinates": [ 136.170594199999982, 35.9753361 ] } },
{ "type": "Feature", "properties": { "内容": "デイサービスえくぼ園【地域密着型通所介護】福井県鯖江市杉本町第15号1番地1", "url": "https://www.kaigokensaku.mhlw.go.jp/18/index.php?action_kouhyou_detail_004_kani=true&JigyosyoCd=1870700406-00&ServiceCd=780&Type=search", "url2": null }, "geometry": { "type": "Point", "coordinates": [ 136.167810231352178, 35.982448160563422 ] } },
{ "type": "Feature", "properties": { "内容": "コンフォガーデン木村　ﾃﾞｲサービスセンター【地域密着型通所介護】福井県あわら市市姫三丁目24-8", "url": "https://www.kaigokensaku.mhlw.go.jp/18/index.php?action_kouhyou_detail_004_kani=true&JigyosyoCd=1870800289-00&ServiceCd=780&Type=search", "url2": "https://www.confo-g-kimura.jp/" }, "geometry": { "type": "Point", "coordinates": [ 136.22965320000003, 36.2091171 ] } },
{ "type": "Feature", "properties": { "内容": "細川接骨院デイサービスセンター【地域密着型通所介護】福井県あわら市滝7－21", "url": "https://www.kaigokensaku.mhlw.go.jp/18/index.php?action_kouhyou_detail_004_kani=true&JigyosyoCd=1870800057-00&ServiceCd=780&Type=search", "url2": "http://recondition.co.jp" }, "geometry": { "type": "Point", "coordinates": [ 136.257693099999983, 36.2430446 ] } },
{ "type": "Feature", "properties": { "内容": "なるざＳtep【地域密着型通所介護】福井県あわら市二面2丁目211番地", "url": "https://www.kaigokensaku.mhlw.go.jp/18/index.php?action_kouhyou_detail_004_kani=true&JigyosyoCd=1870800149-00&ServiceCd=780&Type=search", "url2": "http://www.naruza.jp" }, "geometry": { "type": "Point", "coordinates": [ 136.199627599999985, 36.2272892 ] } },
{ "type": "Feature", "properties": { "内容": "デイサービス　いっしょ家【地域密着型通所介護】福井県越前市家久町７４－１４－１", "url": "https://www.kaigokensaku.mhlw.go.jp/18/index.php?action_kouhyou_detail_004_kani=true&JigyosyoCd=1870300587-00&ServiceCd=780&Type=search", "url2": "http://isshoya.web.fc2.com/index.html" }, "geometry": { "type": "Point", "coordinates": [ 136.166132299999958, 35.9273706 ] } },
{ "type": "Feature", "properties": { "内容": "くるみの森　武生【地域密着型通所介護】越前市国高２丁目３２２－７", "url": "https://www.kaigokensaku.mhlw.go.jp/18/index.php?action_kouhyou_detail_004_kani=true&JigyosyoCd=1870300769-00&ServiceCd=780&Type=search", "url2": "http://ecopraise.jp/comfort/" }, "geometry": { "type": "Point", "coordinates": [ 136.1883416238785, 35.91238243263183 ] } },
{ "type": "Feature", "properties": { "内容": "総合支援センターわかたけ【地域密着型通所介護】福井県越前市西谷町33-10-2", "url": "https://www.kaigokensaku.mhlw.go.jp/18/index.php?action_kouhyou_detail_004_kani=true&JigyosyoCd=1870300389-00&ServiceCd=780&Type=search", "url2": null }, "geometry": { "type": "Point", "coordinates": [ 136.189898200000016, 35.877988399999985 ] } },
{ "type": "Feature", "properties": { "内容": "越前市社会福祉協議会　デイサービスセンターやふね【地域密着型通所介護】福井県越前市矢船町第8号12番地2", "url": "https://www.kaigokensaku.mhlw.go.jp/18/index.php?action_kouhyou_detail_004_kani=true&JigyosyoCd=1890300138-00&ServiceCd=780&Type=search", "url2": null }, "geometry": { "type": "Point", "coordinates": [ 136.177299219237938, 35.887815337553178 ] } },
{ "type": "Feature", "properties": { "内容": "レッツデイサービス新保【地域密着型通所介護】福井県越前市新保1-5-2", "url": "https://www.kaigokensaku.mhlw.go.jp/18/index.php?action_kouhyou_detail_004_kani=true&JigyosyoCd=1890300286-00&ServiceCd=780&Type=search", "url2": "https://life-more.jp/" }, "geometry": { "type": "Point", "coordinates": [ 136.155034, 35.9096006 ] } },
{ "type": "Feature", "properties": { "内容": "吉野デイサービスセンターほのか【地域密着型通所介護】氷坂町46-41-2", "url": "https://www.kaigokensaku.mhlw.go.jp/18/index.php?action_kouhyou_detail_004_kani=true&JigyosyoCd=1890300310-00&ServiceCd=780&Type=search", "url2": "http://www.keishukai.com" }, "geometry": { "type": "Point", "coordinates": [ 136.1485755, 35.9243279 ] } },
{ "type": "Feature", "properties": { "内容": "複合型デイサービス「てまり」【地域密着型通所介護】福井県越前市平出1丁目１２－３７", "url": "https://www.kaigokensaku.mhlw.go.jp/18/index.php?action_kouhyou_detail_004_kani=true&JigyosyoCd=1810314482-00&ServiceCd=780&Type=search", "url2": "http://www.myclinic.ne.jp/nojiriiin/" }, "geometry": { "type": "Point", "coordinates": [ 136.159802899999931, 35.9089838 ] } },
{ "type": "Feature", "properties": { "内容": "デイサービスセンターオアシス【地域密着型通所介護】福井県越前市堀川町３－１４", "url": "https://www.kaigokensaku.mhlw.go.jp/18/index.php?action_kouhyou_detail_004_kani=true&JigyosyoCd=1870300074-00&ServiceCd=780&Type=search", "url2": "http://www.warakuen.jp/index.html" }, "geometry": { "type": "Point", "coordinates": [ 136.172483047360203, 35.900310764538105 ] } },
{ "type": "Feature", "properties": { "内容": "美健　針原【地域密着型通所介護】福井県坂井市春江町針原21-36", "url": "https://www.kaigokensaku.mhlw.go.jp/18/index.php?action_kouhyou_detail_004_kani=true&JigyosyoCd=1871701098-00&ServiceCd=780&Type=search", "url2": null }, "geometry": { "type": "Point", "coordinates": [ 136.201129499999979, 36.1219767 ] } },
{ "type": "Feature", "properties": { "内容": "すいせんの家横地【地域密着型通所介護】坂井市丸岡町北横地38-2-1", "url": "https://www.kaigokensaku.mhlw.go.jp/18/index.php?action_kouhyou_detail_004_kani=true&JigyosyoCd=1871700611-00&ServiceCd=780&Type=search", "url2": null }, "geometry": { "type": "Point", "coordinates": [ 136.255584699999986, 36.1336799 ] } },
{ "type": "Feature", "properties": { "内容": "すいせんの家ディサービス【地域密着型通所介護】福井県坂井市丸岡町北横地38-3-1", "url": "https://www.kaigokensaku.mhlw.go.jp/18/index.php?action_kouhyou_detail_004_kani=true&JigyosyoCd=1871700413-00&ServiceCd=780&Type=search", "url2": null }, "geometry": { "type": "Point", "coordinates": [ 136.255234299999984, 36.1333423 ] } },
{ "type": "Feature", "properties": { "内容": "Ｂｅ’健ハウス【地域密着型通所介護】春江町下小森1-3-1", "url": "https://www.kaigokensaku.mhlw.go.jp/18/index.php?action_kouhyou_detail_004_kani=true&JigyosyoCd=1871700868-00&ServiceCd=780&Type=search", "url2": "http://www.simada-seikotuin.jp" }, "geometry": { "type": "Point", "coordinates": [ 136.192011913291907, 36.157157057878081 ] } },
{ "type": "Feature", "properties": { "内容": "茶話本舗ディサービスはるえ【地域密着型通所介護】福井県坂井市丸岡町城北１丁目２１番地", "url": "https://www.kaigokensaku.mhlw.go.jp/18/index.php?action_kouhyou_detail_004_kani=true&JigyosyoCd=1871701056-00&ServiceCd=780&Type=search", "url2": null }, "geometry": { "type": "Point", "coordinates": [ 136.276911033540387, 36.158931850201085 ] } },
{ "type": "Feature", "properties": { "内容": "ほのぼの苑デイサービスセンター【地域密着型通所介護】福井県南条郡南越前町鋳物師5-10-1", "url": "https://www.kaigokensaku.mhlw.go.jp/18/index.php?action_kouhyou_detail_004_kani=true&JigyosyoCd=1891900035-00&ServiceCd=780&Type=search", "url2": "http://www.honobono-en.com/" }, "geometry": { "type": "Point", "coordinates": [ 136.197700899999973, 35.8415716 ] } },
{ "type": "Feature", "properties": { "内容": "南越前町社会福祉協議会今庄デイサービスセンター【地域密着型通所介護】福井県南条郡南越前町今庄86-5-2今庄福祉センター", "url": "https://www.kaigokensaku.mhlw.go.jp/18/index.php?action_kouhyou_detail_004_kani=true&JigyosyoCd=1871900203-00&ServiceCd=780&Type=search", "url2": null }, "geometry": { "type": "Point", "coordinates": [ 136.200834699999973, 35.7719996 ] } },
{ "type": "Feature", "properties": { "内容": "南越前町社会福祉協議会河野デイサービスセンター【地域密着型通所介護】福井県南条郡南越前町甲楽城7-31-1河野保健福祉センター", "url": "https://www.kaigokensaku.mhlw.go.jp/18/index.php?action_kouhyou_detail_004_kani=true&JigyosyoCd=1871900237-00&ServiceCd=780&Type=search", "url2": null }, "geometry": { "type": "Point", "coordinates": [ 136.045721599999979, 35.8432082 ] } },
{ "type": "Feature", "properties": { "内容": "デイサービスセンター　湖岳の郷【地域密着型通所介護】福井県三方郡美浜町金山２－３－２７", "url": "https://www.kaigokensaku.mhlw.go.jp/18/index.php?action_kouhyou_detail_004_kani=true&JigyosyoCd=1872100035-00&ServiceCd=780&Type=search", "url2": "http://www.kogakunosato.jp/" }, "geometry": { "type": "Point", "coordinates": [ 135.912805899999967, 35.5964555 ] } },
{ "type": "Feature", "properties": { "内容": "やはず苑　デイサービスセンター【地域密着型通所介護】三方郡美浜町金山19-4-11", "url": "https://www.kaigokensaku.mhlw.go.jp/18/index.php?action_kouhyou_detail_004_kani=true&JigyosyoCd=1872100092-00&ServiceCd=780&Type=search", "url2": "http://www.fukui-youi.com" }, "geometry": { "type": "Point", "coordinates": [ 135.925488100663756, 35.600847735371254 ] } },
{ "type": "Feature", "properties": { "内容": "地域密着型通所介護事業所和～なごみ～【地域密着型通所介護】福井県大飯郡高浜町和田117-91-2", "url": "https://www.kaigokensaku.mhlw.go.jp/18/index.php?action_kouhyou_detail_004_kani=true&JigyosyoCd=1872300064-00&ServiceCd=780&Type=search", "url2": "http://kaigonagomi.jimdo.com" }, "geometry": { "type": "Point", "coordinates": [ 135.576640334527013, 35.489286644062865 ] } },
{ "type": "Feature", "properties": { "内容": "デイサービスセンターいずみ【地域密着型通所介護】福井県三方上中郡若狭町井崎40-80若狭町社会福祉協議会いずみ", "url": "https://www.kaigokensaku.mhlw.go.jp/18/index.php?action_kouhyou_detail_004_kani=true&JigyosyoCd=1892400308-00&ServiceCd=780&Type=search", "url2": "http://www.w-shakyo.or.jp" }, "geometry": { "type": "Point", "coordinates": [ 135.894888630688456, 35.515507329049925 ] } },
{ "type": "Feature", "properties": { "内容": "デイサービスセンターパレア若狭【地域密着型通所介護】福井県三方上中郡若狭町市場１８－１８", "url": "https://www.kaigokensaku.mhlw.go.jp/18/index.php?action_kouhyou_detail_004_kani=true&JigyosyoCd=1892400316-00&ServiceCd=780&Type=search", "url2": "http://www.w-shakyo.or.jp" }, "geometry": { "type": "Point", "coordinates": [ 135.860066400000051, 35.4609269 ] } },
{ "type": "Feature", "properties": { "内容": "デイサービスセンター五湖の郷【地域密着型通所介護】福井県三方上中郡若狭町田井２４－２", "url": "https://www.kaigokensaku.mhlw.go.jp/18/index.php?action_kouhyou_detail_004_kani=true&JigyosyoCd=1872400138-00&ServiceCd=780&Type=search", "url2": "http://www.w-shakyo.or.jp/gokonosato/index.htm" }, "geometry": { "type": "Point", "coordinates": [ 135.867751799999951, 35.5581841 ] } },
{ "type": "Feature", "properties": { "内容": "ナーシングホームよすが【地域密着型通所介護】福井県三方上中郡若狭町鳥浜28-54-2", "url": "https://www.kaigokensaku.mhlw.go.jp/18/index.php?action_kouhyou_detail_004_kani=true&JigyosyoCd=1892400332-00&ServiceCd=780&Type=search", "url2": "https://enishi-en.co.jp" }, "geometry": { "type": "Point", "coordinates": [ 135.909045099999958, 35.5537854 ] } }
]
}
