{
"type": "FeatureCollection",
"name": "geo_18_認知症対応型通所介護",
"crs": { "type": "name", "properties": { "name": "urn:ogc:def:crs:OGC:1.3:CRS84" } },
"features": [
{ "type": "Feature", "properties": { "内容": "いちご月見の里【認知症対応型通所介護】福井市月見4丁目20-47", "url": "https://www.kaigokensaku.mhlw.go.jp/18/index.php?action_kouhyou_detail_004_kani=true&JigyosyoCd=1890100421-00&ServiceCd=720&Type=search", "url2": "http://kenkoukai.or.jp/" }, "geometry": { "type": "Point", "coordinates": [ 136.2045488, 36.0453777 ] } },
{ "type": "Feature", "properties": { "内容": "認知症対応型デイサービスあたご【認知症対応型通所介護】福井県福井市足羽5丁目5番17号", "url": "https://www.kaigokensaku.mhlw.go.jp/18/index.php?action_kouhyou_detail_004_kani=true&JigyosyoCd=1890100835-00&ServiceCd=720&Type=search", "url2": null }, "geometry": { "type": "Point", "coordinates": [ -8.24389, 53.41291 ] } },
{ "type": "Feature", "properties": { "内容": "すのうどろっぷ【認知症対応型通所介護】和田東1丁目2218番地", "url": "https://www.kaigokensaku.mhlw.go.jp/18/index.php?action_kouhyou_detail_004_kani=true&JigyosyoCd=1870100896-00&ServiceCd=720&Type=search", "url2": "http://snow-dp.co.jp/" }, "geometry": { "type": "Point", "coordinates": [ 136.2479899, 36.0520945 ] } },
{ "type": "Feature", "properties": { "内容": "認知症対応型デイサービスセンターなの花【認知症対応型通所介護】福井市加茂河原3丁目1-22", "url": "https://www.kaigokensaku.mhlw.go.jp/18/index.php?action_kouhyou_detail_004_kani=true&JigyosyoCd=1890100249-00&ServiceCd=720&Type=search", "url2": "http://nanohana-f.com" }, "geometry": { "type": "Point", "coordinates": [ 136.193138399999953, 36.0633447 ] } },
{ "type": "Feature", "properties": { "内容": "和田東いちごデイサービスセンター【認知症対応型通所介護】福井市和田東1丁目1410", "url": "https://www.kaigokensaku.mhlw.go.jp/18/index.php?action_kouhyou_detail_004_kani=true&JigyosyoCd=1870101068-00&ServiceCd=720&Type=search", "url2": "http://www.kenkoukai.or.jp/" }, "geometry": { "type": "Point", "coordinates": [ 136.245331699999952, 36.0532137 ] } },
{ "type": "Feature", "properties": { "内容": "みどりの森デイサービス【認知症対応型通所介護】福井市文京２丁目６―１０", "url": "https://www.kaigokensaku.mhlw.go.jp/18/index.php?action_kouhyou_detail_004_kani=true&JigyosyoCd=1870101183-00&ServiceCd=720&Type=search", "url2": "http://www.fmatsubara.com/" }, "geometry": { "type": "Point", "coordinates": [ 136.218105, 36.0774707 ] } },
{ "type": "Feature", "properties": { "内容": "デイサービスセンターかえで【認知症対応型通所介護】福井市運動公園４丁目1608", "url": "https://www.kaigokensaku.mhlw.go.jp/18/index.php?action_kouhyou_detail_004_kani=true&JigyosyoCd=1870101407-00&ServiceCd=720&Type=search", "url2": "http://www.hirainaikashoukakika.org/" }, "geometry": { "type": "Point", "coordinates": [ 136.1786095, 36.0534316 ] } },
{ "type": "Feature", "properties": { "内容": "あさがおの家【認知症対応型通所介護】福井市新保町19字35番1", "url": "https://www.kaigokensaku.mhlw.go.jp/18/index.php?action_kouhyou_detail_004_kani=true&JigyosyoCd=1870101779-00&ServiceCd=720&Type=search", "url2": "http://fukui-medix.com/" }, "geometry": { "type": "Point", "coordinates": [ 136.258813199999963, 36.0851414 ] } },
{ "type": "Feature", "properties": { "内容": "いちご　月見亭【認知症対応型通所介護】福井市月見４丁目２０－５０", "url": "https://www.kaigokensaku.mhlw.go.jp/18/index.php?action_kouhyou_detail_004_kani=true&JigyosyoCd=1890100033-00&ServiceCd=720&Type=search", "url2": "http://kenkoukai.or.jp/daycare/tsukimitei/" }, "geometry": { "type": "Point", "coordinates": [ 136.205059900000037, 36.045486 ] } },
{ "type": "Feature", "properties": { "内容": "いなほの家【認知症対応型通所介護】福井市江端町20字20-24", "url": "https://www.kaigokensaku.mhlw.go.jp/18/index.php?action_kouhyou_detail_004_kani=true&JigyosyoCd=1890100256-00&ServiceCd=720&Type=search", "url2": "http://fukui-medix.com/" }, "geometry": { "type": "Point", "coordinates": [ 136.212281388951396, 36.025921319961746 ] } },
{ "type": "Feature", "properties": { "内容": "県民せいきょう江守きらめきあったかホーム【認知症対応型通所介護】福井市江守中町第2号12番地", "url": "https://www.kaigokensaku.mhlw.go.jp/18/index.php?action_kouhyou_detail_004_kani=true&JigyosyoCd=1890100371-00&ServiceCd=720&Type=search", "url2": "http://www.fukui.coop/" }, "geometry": { "type": "Point", "coordinates": [ 136.198977099999979, 36.0371981 ] } },
{ "type": "Feature", "properties": { "内容": "デイサービス　レインボー灯明寺【認知症対応型通所介護】福井県福井市灯明寺町59-12-1", "url": "https://www.kaigokensaku.mhlw.go.jp/18/index.php?action_kouhyou_detail_004_kani=true&JigyosyoCd=1890100652-00&ServiceCd=720&Type=search", "url2": "http://rainbow-kaigo.com" }, "geometry": { "type": "Point", "coordinates": [ 136.221794614051447, 36.090695903517769 ] } },
{ "type": "Feature", "properties": { "内容": "かわにし苑デイサービス【認知症対応型通所介護】福井県福井市砂子坂町9-5", "url": "https://www.kaigokensaku.mhlw.go.jp/18/index.php?action_kouhyou_detail_004_kani=true&JigyosyoCd=1890100173-00&ServiceCd=720&Type=search", "url2": "kawanishien.com" }, "geometry": { "type": "Point", "coordinates": [ 136.147201099999961, 36.1462301 ] } },
{ "type": "Feature", "properties": { "内容": "県民せいきょう　岡保きらめきあったかホーム【認知症対応型通所介護】曽万布町7字18番1", "url": "https://www.kaigokensaku.mhlw.go.jp/18/index.php?action_kouhyou_detail_004_kani=true&JigyosyoCd=1890100629-00&ServiceCd=720&Type=search", "url2": "http://www.fukui.coop/" }, "geometry": { "type": "Point", "coordinates": [ 136.261758318246393, 36.043177463481364 ] } },
{ "type": "Feature", "properties": { "内容": "和の家ぬくぬく【認知症対応型通所介護】福井県敦賀市公文名1号6番", "url": "https://www.kaigokensaku.mhlw.go.jp/18/index.php?action_kouhyou_detail_004_kani=true&JigyosyoCd=1890200155-00&ServiceCd=720&Type=search", "url2": "http://www.fukui-min-iren.com/iryouseikyou/" }, "geometry": { "type": "Point", "coordinates": [ 136.060157200000049, 35.623019 ] } },
{ "type": "Feature", "properties": { "内容": "県民せいきょう敦賀きらめきあったかホーム【認知症対応型通所介護】福井県敦賀市市野々町２丁目1554番県民せいきょう敦賀きらめき", "url": "https://www.kaigokensaku.mhlw.go.jp/18/index.php?action_kouhyou_detail_004_kani=true&JigyosyoCd=1890200106-00&ServiceCd=720&Type=search", "url2": "http://www.fukui.coop/" }, "geometry": { "type": "Point", "coordinates": [ 136.055788300000017, 35.61402 ] } },
{ "type": "Feature", "properties": { "内容": "社会参加型通所介護ネイバーズ【認知症対応型通所介護】敦賀市松島町2丁目6番35号", "url": "https://www.kaigokensaku.mhlw.go.jp/18/index.php?action_kouhyou_detail_004_kani=true&JigyosyoCd=1890200163-00&ServiceCd=720&Type=search", "url2": "https://kjinkai.jp/" }, "geometry": { "type": "Point", "coordinates": [ 136.059335306082147, 35.651907038370879 ] } },
{ "type": "Feature", "properties": { "内容": "大野和光園なかよしデイサービス【認知症対応型通所介護】福井県大野市篠座７９号１１番地", "url": "https://www.kaigokensaku.mhlw.go.jp/18/index.php?action_kouhyou_detail_004_kani=true&JigyosyoCd=1890500042-00&ServiceCd=720&Type=search", "url2": "http://www.ono-wakouen.jp/" }, "geometry": { "type": "Point", "coordinates": [ 136.500851099999977, 35.9647917 ] } },
{ "type": "Feature", "properties": { "内容": "わらびょうデイサービスセンター【認知症対応型通所介護】大野市蕨生158-35", "url": "https://www.kaigokensaku.mhlw.go.jp/18/index.php?action_kouhyou_detail_004_kani=true&JigyosyoCd=1890500141-00&ServiceCd=720&Type=search", "url2": "http://www.saiseikai-seiwaen.jp/" }, "geometry": { "type": "Point", "coordinates": [ 136.547133300000041, 35.9822624 ] } },
{ "type": "Feature", "properties": { "内容": "デイサービスセンターよしの【認知症対応型通所介護】福井県勝山市芳野町２丁目1-11さくら荘在宅サービス支援センターさくらんぼ", "url": "https://www.kaigokensaku.mhlw.go.jp/18/index.php?action_kouhyou_detail_004_kani=true&JigyosyoCd=1890600057-00&ServiceCd=720&Type=search", "url2": "http://k-sakurasou.jp" }, "geometry": { "type": "Point", "coordinates": [ 136.499267300000042, 36.066972 ] } },
{ "type": "Feature", "properties": { "内容": "デイサービスはなみずき【認知症対応型通所介護】福井県勝山市立川町１丁目１１－２４", "url": "https://www.kaigokensaku.mhlw.go.jp/18/index.php?action_kouhyou_detail_004_kani=true&JigyosyoCd=1890600024-00&ServiceCd=720&Type=search", "url2": "https://www.hanamizuki-katsuyama.jp" }, "geometry": { "type": "Point", "coordinates": [ 136.499664899999971, 36.0544568 ] } },
{ "type": "Feature", "properties": { "内容": "愛の家グループホーム勝山荒土【認知症対応型通所介護】福井県勝山市荒土町新保10号１０９番地２", "url": "https://www.kaigokensaku.mhlw.go.jp/18/index.php?action_kouhyou_detail_004_kani=true&JigyosyoCd=1890600032-00&ServiceCd=720&Type=search", "url2": "https://www.mcsg.co.jp/" }, "geometry": { "type": "Point", "coordinates": [ 136.482112199999989, 36.0735701 ] } },
{ "type": "Feature", "properties": { "内容": "ふれあいの家【認知症対応型通所介護】福井県鯖江市吉谷町23-11", "url": "https://www.kaigokensaku.mhlw.go.jp/18/index.php?action_kouhyou_detail_004_kani=true&JigyosyoCd=1890700089-00&ServiceCd=720&Type=search", "url2": null }, "geometry": { "type": "Point", "coordinates": [ 136.219560499999943, 35.9699883 ] } },
{ "type": "Feature", "properties": { "内容": "グループホームおしどり【認知症対応型通所介護】別司町41-30", "url": "https://www.kaigokensaku.mhlw.go.jp/18/index.php?action_kouhyou_detail_004_kani=true&JigyosyoCd=1890700022-00&ServiceCd=720&Type=search", "url2": "http://www.touyoukai.or.jp" }, "geometry": { "type": "Point", "coordinates": [ 136.260332400000038, 35.947612 ] } },
{ "type": "Feature", "properties": { "内容": "認知症対応型通所介護　グループホームさばえ【認知症対応型通所介護】鯖江市旭町４丁目９-１０介護医療院かがやき", "url": "https://www.kaigokensaku.mhlw.go.jp/18/index.php?action_kouhyou_detail_004_kani=true&JigyosyoCd=1870700026-00&ServiceCd=720&Type=search", "url2": "https://www.jujinkai.or.jp/zaitaku" }, "geometry": { "type": "Point", "coordinates": [ 136.188257647499086, 35.950120686161675 ] } },
{ "type": "Feature", "properties": { "内容": "県民せいきょう鯖江きらめき　あったかホーム【認知症対応型通所介護】小黒町3丁目10-21", "url": "https://www.kaigokensaku.mhlw.go.jp/18/index.php?action_kouhyou_detail_004_kani=true&JigyosyoCd=1890700105-00&ServiceCd=720&Type=search", "url2": "http://www.fukui.coop/" }, "geometry": { "type": "Point", "coordinates": [ 136.173603574868821, 35.955887463803037 ] } },
{ "type": "Feature", "properties": { "内容": "湯の町メロン苑デイサービスセンター【認知症対応型通所介護】福井県あわら市二面４２－２０", "url": "https://www.kaigokensaku.mhlw.go.jp/18/index.php?action_kouhyou_detail_004_kani=true&JigyosyoCd=1890800020-00&ServiceCd=720&Type=search", "url2": "http://www.meron-en.or.jp/" }, "geometry": { "type": "Point", "coordinates": [ 136.194944699999951, 36.2268474 ] } },
{ "type": "Feature", "properties": { "内容": "越前市社会福祉協議会　デイサービスセンターやふね【認知症対応型通所介護】福井県越前市矢船町第8号12番地2", "url": "https://www.kaigokensaku.mhlw.go.jp/18/index.php?action_kouhyou_detail_004_kani=true&JigyosyoCd=1890300138-00&ServiceCd=720&Type=search", "url2": null }, "geometry": { "type": "Point", "coordinates": [ 136.177302237434304, 35.88783611572336 ] } },
{ "type": "Feature", "properties": { "内容": "デイサービスセンター　らくらく【認知症対応型通所介護】福井県越前市稲寄町12-8-5", "url": "https://www.kaigokensaku.mhlw.go.jp/18/index.php?action_kouhyou_detail_004_kani=true&JigyosyoCd=1870300330-00&ServiceCd=720&Type=search", "url2": "http://www.ichibankaigo" }, "geometry": { "type": "Point", "coordinates": [ 136.1821229, 35.9190763 ] } },
{ "type": "Feature", "properties": { "内容": "県民せいきょう丹南きらめきあったかホーム【認知症対応型通所介護】福井県越前市家久町49字", "url": "https://www.kaigokensaku.mhlw.go.jp/18/index.php?action_kouhyou_detail_004_kani=true&JigyosyoCd=1890300047-00&ServiceCd=720&Type=search", "url2": "http://www.fukui.coop/" }, "geometry": { "type": "Point", "coordinates": [ 136.166609900000026, 35.9317646 ] } },
{ "type": "Feature", "properties": { "内容": "認知症対応型通所介護事業所　いこいの家【認知症対応型通所介護】越前市粟田部町４２－５－４", "url": "https://www.kaigokensaku.mhlw.go.jp/18/index.php?action_kouhyou_detail_004_kani=true&JigyosyoCd=1890300054-00&ServiceCd=720&Type=search", "url2": "http://www.ikoinoie-f.com" }, "geometry": { "type": "Point", "coordinates": [ 136.239302, 35.9150823 ] } },
{ "type": "Feature", "properties": { "内容": "越前市社会福祉協議会デイサービスセンターつねひさ【認知症対応型通所介護】福井県越前市常久町第1号15番地の1", "url": "https://www.kaigokensaku.mhlw.go.jp/18/index.php?action_kouhyou_detail_004_kani=true&JigyosyoCd=1890300088-00&ServiceCd=720&Type=search", "url2": null }, "geometry": { "type": "Point", "coordinates": [ 136.164215008598404, 35.88401236860534 ] } },
{ "type": "Feature", "properties": { "内容": "長寿の郷　デイホームおもいでな【認知症対応型通所介護】福井県坂井市丸岡町八ケ郷22-5", "url": "https://www.kaigokensaku.mhlw.go.jp/18/index.php?action_kouhyou_detail_004_kani=true&JigyosyoCd=1871700447-00&ServiceCd=720&Type=search", "url2": "http://www.choujuen.com/" }, "geometry": { "type": "Point", "coordinates": [ 136.2783809, 36.1606579 ] } },
{ "type": "Feature", "properties": { "内容": "認知症対応型通所介護事業所　アプトケア・三国【認知症対応型通所介護】福井県坂井市三国町三国東２丁目９－２３", "url": "https://www.kaigokensaku.mhlw.go.jp/18/index.php?action_kouhyou_detail_004_kani=true&JigyosyoCd=1891700070-00&ServiceCd=720&Type=search", "url2": "http://aptcare.jp" }, "geometry": { "type": "Point", "coordinates": [ 136.161245199999939, 36.2122123 ] } },
{ "type": "Feature", "properties": { "内容": "県民せいきょう　坂井きらめき　あったかホーム【認知症対応型通所介護】坂井市坂井町大味56号", "url": "https://www.kaigokensaku.mhlw.go.jp/18/index.php?action_kouhyou_detail_004_kani=true&JigyosyoCd=1891700138-00&ServiceCd=720&Type=search", "url2": "http://www.fukui.coop/care/shisetsu/sakai-kirameki/" }, "geometry": { "type": "Point", "coordinates": [ 136.195449100000019, 36.1849659 ] } },
{ "type": "Feature", "properties": { "内容": "プライムハイツ春江デイサービスセンター【認知症対応型通所介護】福井県坂井市春江町針原59-2", "url": "https://www.kaigokensaku.mhlw.go.jp/18/index.php?action_kouhyou_detail_004_kani=true&JigyosyoCd=1891700062-00&ServiceCd=720&Type=search", "url2": "http://fj-g.jp" }, "geometry": { "type": "Point", "coordinates": [ 136.208811700000069, 36.1276929 ] } },
{ "type": "Feature", "properties": { "内容": "宮崎病院認知症対応型通所介護　そよかぜ【認知症対応型通所介護】坂井市三国町北本町2-2-6", "url": "https://www.kaigokensaku.mhlw.go.jp/18/index.php?action_kouhyou_detail_004_kani=true&JigyosyoCd=1891700104-00&ServiceCd=720&Type=search", "url2": "http://www.miyazaki-hp.com/" }, "geometry": { "type": "Point", "coordinates": [ 136.149079300000039, 36.2163367 ] } },
{ "type": "Feature", "properties": { "内容": "潟池野デイサービスセンター【認知症対応型通所介護】福井県坂井市坂井町下関42-4-2", "url": "https://www.kaigokensaku.mhlw.go.jp/18/index.php?action_kouhyou_detail_004_kani=true&JigyosyoCd=1891700153-00&ServiceCd=720&Type=search", "url2": "https://s-fukushi.or.jp/kataikeno/" }, "geometry": { "type": "Point", "coordinates": [ 136.228387200000043, 36.1908443 ] } },
{ "type": "Feature", "properties": { "内容": "認知症対応型通所介護ありんこ【認知症対応型通所介護】福井県坂井市春江町江留下宇和江19番地", "url": "https://www.kaigokensaku.mhlw.go.jp/18/index.php?action_kouhyou_detail_004_kani=true&JigyosyoCd=1891700179-00&ServiceCd=720&Type=search", "url2": "http://www.shine-fukui.com/" }, "geometry": { "type": "Point", "coordinates": [ 136.2209047, 36.1269127 ] } },
{ "type": "Feature", "properties": { "内容": "デイサービスセンターいこい・ほほえみ【認知症対応型通所介護】福井県坂井市三国町梶49-18", "url": "https://www.kaigokensaku.mhlw.go.jp/18/index.php?action_kouhyou_detail_004_kani=true&JigyosyoCd=1871700132-00&ServiceCd=720&Type=search", "url2": "http://www.hakurakuso.com/" }, "geometry": { "type": "Point", "coordinates": [ 136.15547935952452, 36.246343079724632 ] } },
{ "type": "Feature", "properties": { "内容": "小規模デイサービス　あおぞら【認知症対応型通所介護】福井県坂井市三国町陣ヶ岡35-1-8東尋坊ロイヤルハイツ内", "url": "https://www.kaigokensaku.mhlw.go.jp/18/index.php?action_kouhyou_detail_004_kani=true&JigyosyoCd=1891700203-00&ServiceCd=720&Type=search", "url2": "http://fj-g.jp/" }, "geometry": { "type": "Point", "coordinates": [ 136.135519530380151, 36.234841736005563 ] } },
{ "type": "Feature", "properties": { "内容": "いちごデイセンター松岡【認知症対応型通所介護】永平寺町松岡志比堺8-5", "url": "https://www.kaigokensaku.mhlw.go.jp/18/index.php?action_kouhyou_detail_004_kani=true&JigyosyoCd=1871600159-00&ServiceCd=720&Type=search", "url2": "http://www.kenkoukai.or.jp" }, "geometry": { "type": "Point", "coordinates": [ 136.314960036944996, 36.100098691772097 ] } }
]
}
