{
"type": "FeatureCollection",
"name": "geo_18_大学",
"crs": { "type": "name", "properties": { "name": "urn:ogc:def:crs:EPSG::6668" } },
"features": [
{ "type": "Feature", "properties": { "P29_001": "18201", "P29_002": "F118110105597", "P29_003": "16007", "P29_004": "福井大学", "P29_005": "福井県福井市文京3-9-1", "P29_006": "1", "P29_007": "0", "P29_008": "01", "P29_009": "文京キャンパス" }, "geometry": { "type": "Point", "coordinates": [ 136.213123966219655, 36.076219806305879 ] } },
{ "type": "Feature", "properties": { "P29_001": "18322", "P29_002": "F118210105602", "P29_003": "16007", "P29_004": "福井県立大学", "P29_005": "福井県吉田郡永平寺町松岡兼定島4-1-1", "P29_006": "2", "P29_007": "0", "P29_008": "00", "P29_009": null }, "geometry": { "type": "Point", "coordinates": [ 136.277089444197117, 36.11018047434662 ] } },
{ "type": "Feature", "properties": { "P29_001": "18202", "P29_002": "F118210105611", "P29_003": "16007", "P29_004": "敦賀市立看護大学", "P29_005": "福井県敦賀市木崎78-2-1", "P29_006": "3", "P29_007": "0", "P29_008": "00", "P29_009": null }, "geometry": { "type": "Point", "coordinates": [ 136.034743231742539, 35.646006726905512 ] } },
{ "type": "Feature", "properties": { "P29_001": "18201", "P29_002": "F118310105628", "P29_003": "16007", "P29_004": "福井工業大学", "P29_005": "福井県福井市学園3-6-1", "P29_006": "4", "P29_007": "0", "P29_008": "00", "P29_009": null }, "geometry": { "type": "Point", "coordinates": [ 136.196068214935508, 36.069004329188708 ] } },
{ "type": "Feature", "properties": { "P29_001": "18209", "P29_002": "F118310105637", "P29_003": "16007", "P29_004": "仁愛大学", "P29_005": "福井県越前市大手町3-1-1", "P29_006": "4", "P29_007": "0", "P29_008": "00", "P29_009": null }, "geometry": { "type": "Point", "coordinates": [ 136.210893397975525, 35.89087990177773 ] } },
{ "type": "Feature", "properties": { "P29_001": "18201", "P29_002": "F118310105646", "P29_003": "16007", "P29_004": "福井医療大学", "P29_005": "福井県福井市江上町55-13-1", "P29_006": "4", "P29_007": "0", "P29_008": "00", "P29_009": null }, "geometry": { "type": "Point", "coordinates": [ 136.165911906902693, 36.12971888929026 ] } },
{ "type": "Feature", "properties": { "P29_001": "18322", "P29_002": "F118110105597", "P29_003": "16007", "P29_004": "福井大学", "P29_005": "福井県永平寺町松岡下合月23-3", "P29_006": "1", "P29_007": "0", "P29_008": "02", "P29_009": "松岡キャンパス" }, "geometry": { "type": "Point", "coordinates": [ 136.295689370086563, 36.108651516665212 ] } }
]
}
