{
"type": "FeatureCollection",
"name": "geo_18_小学校",
"crs": { "type": "name", "properties": { "name": "urn:ogc:def:crs:EPSG::6668" } },
"features": [
{ "type": "Feature", "properties": { "P29_001": "18201", "P29_002": "B118210000019", "P29_003": "16001", "P29_004": "福井市木田小学校", "P29_005": "福井県福井市木田1-1360", "P29_006": "3", "P29_007": "1", "P29_008": "00", "P29_009": null }, "geometry": { "type": "Point", "coordinates": [ 136.220666821771943, 36.048183962325808 ] } },
{ "type": "Feature", "properties": { "P29_001": "18201", "P29_002": "B118210000028", "P29_003": "16001", "P29_004": "福井市豊小学校", "P29_005": "福井県福井市月見3-9-1", "P29_006": "3", "P29_007": "1", "P29_008": "00", "P29_009": null }, "geometry": { "type": "Point", "coordinates": [ 136.211087353847859, 36.045946034619121 ] } },
{ "type": "Feature", "properties": { "P29_001": "18201", "P29_002": "B118210000037", "P29_003": "16001", "P29_004": "福井市足羽小学校", "P29_005": "福井県福井市足羽3-1-1", "P29_006": "3", "P29_007": "1", "P29_008": "00", "P29_009": null }, "geometry": { "type": "Point", "coordinates": [ 136.206051332550118, 36.058398075465327 ] } },
{ "type": "Feature", "properties": { "P29_001": "18201", "P29_002": "B118210000046", "P29_003": "16001", "P29_004": "福井市東安居小学校", "P29_005": "福井県福井市水越2-503", "P29_006": "3", "P29_007": "1", "P29_008": "00", "P29_009": null }, "geometry": { "type": "Point", "coordinates": [ 136.187893250669589, 36.066081314067148 ] } },
{ "type": "Feature", "properties": { "P29_001": "18201", "P29_002": "B118210000055", "P29_003": "16001", "P29_004": "福井市湊小学校", "P29_005": "福井県福井市学園1-4-8", "P29_006": "3", "P29_007": "1", "P29_008": "00", "P29_009": null }, "geometry": { "type": "Point", "coordinates": [ 136.201708575477284, 36.069992431238163 ] } },
{ "type": "Feature", "properties": { "P29_001": "18201", "P29_002": "B118210000064", "P29_003": "16001", "P29_004": "福井市春山小学校", "P29_005": "福井県福井市文京3-13-1", "P29_006": "3", "P29_007": "1", "P29_008": "00", "P29_009": null }, "geometry": { "type": "Point", "coordinates": [ 136.213286187945215, 36.078509567654315 ] } },
{ "type": "Feature", "properties": { "P29_001": "18201", "P29_002": "B118210000073", "P29_003": "16001", "P29_004": "福井市順化小学校", "P29_005": "福井県福井市大手3-16-1", "P29_006": "3", "P29_007": "1", "P29_008": "00", "P29_009": null }, "geometry": { "type": "Point", "coordinates": [ 136.220789570855857, 36.066353558454985 ] } },
{ "type": "Feature", "properties": { "P29_001": "18201", "P29_002": "B118210000082", "P29_003": "16001", "P29_004": "福井市宝永小学校", "P29_005": "福井県福井市松本3-15-1", "P29_006": "3", "P29_007": "1", "P29_008": "00", "P29_009": null }, "geometry": { "type": "Point", "coordinates": [ 136.222845167317388, 36.072941017000886 ] } },
{ "type": "Feature", "properties": { "P29_001": "18201", "P29_002": "B118210000091", "P29_003": "16001", "P29_004": "福井市松本小学校", "P29_005": "福井県福井市町屋3-14-20", "P29_006": "3", "P29_007": "1", "P29_008": "00", "P29_009": null }, "geometry": { "type": "Point", "coordinates": [ 136.225770156569723, 36.078267564739228 ] } },
{ "type": "Feature", "properties": { "P29_001": "18201", "P29_002": "B118210000108", "P29_003": "16001", "P29_004": "福井市日之出小学校", "P29_005": "福井県福井市日之出5-11-1", "P29_006": "3", "P29_007": "1", "P29_008": "00", "P29_009": null }, "geometry": { "type": "Point", "coordinates": [ 136.232425295199164, 36.065652093033719 ] } },
{ "type": "Feature", "properties": { "P29_001": "18201", "P29_002": "B118210000117", "P29_003": "16001", "P29_004": "福井市旭小学校", "P29_005": "福井県福井市手寄2-2-5", "P29_006": "3", "P29_007": "1", "P29_008": "00", "P29_009": null }, "geometry": { "type": "Point", "coordinates": [ 136.227918799963021, 36.060166888252304 ] } },
{ "type": "Feature", "properties": { "P29_001": "18201", "P29_002": "B118210000126", "P29_003": "16001", "P29_004": "福井市和田小学校", "P29_005": "福井県福井市和田1-2-1", "P29_006": "3", "P29_007": "1", "P29_008": "00", "P29_009": null }, "geometry": { "type": "Point", "coordinates": [ 136.240713109979055, 36.052175358520678 ] } },
{ "type": "Feature", "properties": { "P29_001": "18201", "P29_002": "B118210000135", "P29_003": "16001", "P29_004": "福井市円山小学校", "P29_005": "福井県福井市北四ツ居3-15-17", "P29_006": "3", "P29_007": "1", "P29_008": "00", "P29_009": null }, "geometry": { "type": "Point", "coordinates": [ 136.247153903852194, 36.068890480545861 ] } },
{ "type": "Feature", "properties": { "P29_001": "18201", "P29_002": "B118210000144", "P29_003": "16001", "P29_004": "福井市啓蒙小学校", "P29_005": "福井県福井市開発1-1008", "P29_006": "3", "P29_007": "1", "P29_008": "00", "P29_009": null }, "geometry": { "type": "Point", "coordinates": [ 136.241133607416316, 36.076899374240085 ] } },
{ "type": "Feature", "properties": { "P29_001": "18201", "P29_002": "B118210000153", "P29_003": "16001", "P29_004": "福井市西藤島小学校", "P29_005": "福井県福井市三郎丸1-1410", "P29_006": "3", "P29_007": "1", "P29_008": "00", "P29_009": null }, "geometry": { "type": "Point", "coordinates": [ 136.19318824961249, 36.079520455990369 ] } },
{ "type": "Feature", "properties": { "P29_001": "18201", "P29_002": "B118210000162", "P29_003": "16001", "P29_004": "福井市社北小学校", "P29_005": "福井県福井市若杉4-143", "P29_006": "3", "P29_007": "1", "P29_008": "00", "P29_009": null }, "geometry": { "type": "Point", "coordinates": [ 136.185506998358136, 36.059250895473774 ] } },
{ "type": "Feature", "properties": { "P29_001": "18201", "P29_002": "B118210000171", "P29_003": "16001", "P29_004": "福井市社南小学校", "P29_005": "福井県福井市種池2-128", "P29_006": "3", "P29_007": "1", "P29_008": "00", "P29_009": null }, "geometry": { "type": "Point", "coordinates": [ 136.191737881230665, 36.037087324925935 ] } },
{ "type": "Feature", "properties": { "P29_001": "18201", "P29_002": "B118210000180", "P29_003": "16001", "P29_004": "福井市安居小学校", "P29_005": "福井県福井市本堂町4-12", "P29_006": "3", "P29_007": "1", "P29_008": "00", "P29_009": null }, "geometry": { "type": "Point", "coordinates": [ 136.134548855836186, 36.061354149417468 ] } },
{ "type": "Feature", "properties": { "P29_001": "18201", "P29_002": "B118210000199", "P29_003": "16001", "P29_004": "福井市中藤小学校", "P29_005": "福井県福井市高柳3-3001", "P29_006": "3", "P29_007": "1", "P29_008": "00", "P29_009": null }, "geometry": { "type": "Point", "coordinates": [ 136.241584836869208, 36.097006464944897 ] } },
{ "type": "Feature", "properties": { "P29_001": "18201", "P29_002": "B118210000206", "P29_003": "16001", "P29_004": "福井市一光小学校", "P29_005": "福井県福井市下一光町6-34", "P29_006": "3", "P29_007": "9", "P29_008": "00", "P29_009": null }, "geometry": { "type": "Point", "coordinates": [ 136.069213103244351, 36.061874414578661 ] } },
{ "type": "Feature", "properties": { "P29_001": "18201", "P29_002": "B118210000215", "P29_003": "16001", "P29_004": "福井市大安寺小学校", "P29_005": "福井県福井市岸水町16-25-1", "P29_006": "3", "P29_007": "1", "P29_008": "00", "P29_009": null }, "geometry": { "type": "Point", "coordinates": [ 136.173710524086516, 36.109812713306162 ] } },
{ "type": "Feature", "properties": { "P29_001": "18201", "P29_002": "B118210000224", "P29_003": "16001", "P29_004": "福井市河合小学校", "P29_005": "福井県福井市山室町10-12", "P29_006": "3", "P29_007": "1", "P29_008": "00", "P29_009": null }, "geometry": { "type": "Point", "coordinates": [ 136.193293772825626, 36.119438623183832 ] } },
{ "type": "Feature", "properties": { "P29_001": "18201", "P29_002": "B118210000233", "P29_003": "16001", "P29_004": "福井市麻生津小学校", "P29_005": "福井県福井市浅水二日町28-5", "P29_006": "3", "P29_007": "1", "P29_008": "00", "P29_009": null }, "geometry": { "type": "Point", "coordinates": [ 136.198158438232753, 36.002356307651475 ] } },
{ "type": "Feature", "properties": { "P29_001": "18201", "P29_002": "B118210000242", "P29_003": "16001", "P29_004": "福井市国見小学校", "P29_005": "福井県福井市鮎川町109-3-3", "P29_006": "3", "P29_007": "1", "P29_008": "00", "P29_009": null }, "geometry": { "type": "Point", "coordinates": [ 136.031186051648291, 36.085709952436609 ] } },
{ "type": "Feature", "properties": { "P29_001": "18201", "P29_002": "B118210000251", "P29_003": "16001", "P29_004": "福井市岡保小学校", "P29_005": "福井県福井市河水町18-8", "P29_006": "3", "P29_007": "1", "P29_008": "00", "P29_009": null }, "geometry": { "type": "Point", "coordinates": [ 136.273290295330042, 36.051522660498783 ] } },
{ "type": "Feature", "properties": { "P29_001": "18201", "P29_002": "B118210000260", "P29_003": "16001", "P29_004": "福井市東藤島小学校", "P29_005": "福井県福井市藤島町44-8", "P29_006": "3", "P29_007": "1", "P29_008": "00", "P29_009": null }, "geometry": { "type": "Point", "coordinates": [ 136.272110266082024, 36.086524788177456 ] } },
{ "type": "Feature", "properties": { "P29_001": "18201", "P29_002": "B118210000279", "P29_003": "16001", "P29_004": "福井市殿下小学校", "P29_005": "福井県福井市風尾町6-24", "P29_006": "3", "P29_007": "1", "P29_008": "00", "P29_009": null }, "geometry": { "type": "Point", "coordinates": [ 136.046861418669351, 36.036219759658401 ] } },
{ "type": "Feature", "properties": { "P29_001": "18201", "P29_002": "B118210000288", "P29_003": "16001", "P29_004": "福井市鶉小学校", "P29_005": "福井県福井市砂子坂町4-31", "P29_006": "3", "P29_007": "1", "P29_008": "00", "P29_009": null }, "geometry": { "type": "Point", "coordinates": [ 136.146110104587308, 36.144746339465954 ] } },
{ "type": "Feature", "properties": { "P29_001": "18201", "P29_002": "B118210000297", "P29_003": "16001", "P29_004": "福井市棗小学校", "P29_005": "福井県福井市石新保町12-32", "P29_006": "3", "P29_007": "1", "P29_008": "00", "P29_009": null }, "geometry": { "type": "Point", "coordinates": [ 136.108741498771508, 36.145370366820096 ] } },
{ "type": "Feature", "properties": { "P29_001": "18201", "P29_002": "B118210000304", "P29_003": "16001", "P29_004": "福井市鷹巣小学校", "P29_005": "福井県福井市和布町3-6", "P29_006": "3", "P29_007": "1", "P29_008": "00", "P29_009": null }, "geometry": { "type": "Point", "coordinates": [ 136.065556629821742, 36.130863555160467 ] } },
{ "type": "Feature", "properties": { "P29_001": "18201", "P29_002": "B118210000313", "P29_003": "16001", "P29_004": "福井市長橋小学校", "P29_005": "福井県福井市長橋町18-48", "P29_006": "3", "P29_007": "1", "P29_008": "00", "P29_009": null }, "geometry": { "type": "Point", "coordinates": [ 136.049145468430112, 36.110459800998782 ] } },
{ "type": "Feature", "properties": { "P29_001": "18201", "P29_002": "B118210000322", "P29_003": "16001", "P29_004": "福井市高須城小学校", "P29_005": "福井県福井市高須町71-31", "P29_006": "3", "P29_007": "9", "P29_008": "00", "P29_009": null }, "geometry": { "type": "Point", "coordinates": [ 136.106915215591926, 36.114369805699319 ] } },
{ "type": "Feature", "properties": { "P29_001": "18201", "P29_002": "B118210000331", "P29_003": "16001", "P29_004": "福井市森田小学校", "P29_005": "福井県福井市下森田新町1136", "P29_006": "3", "P29_007": "1", "P29_008": "00", "P29_009": null }, "geometry": { "type": "Point", "coordinates": [ 136.231059959602447, 36.107717422105331 ] } },
{ "type": "Feature", "properties": { "P29_001": "18202", "P29_002": "B118210000340", "P29_003": "16001", "P29_004": "敦賀市立敦賀西小学校", "P29_005": "福井県敦賀市結城町8-6", "P29_006": "3", "P29_007": "1", "P29_008": "00", "P29_009": null }, "geometry": { "type": "Point", "coordinates": [ 136.065951001175279, 35.653829153348539 ] } },
{ "type": "Feature", "properties": { "P29_001": "18202", "P29_002": "B118210000359", "P29_003": "16001", "P29_004": "敦賀市立敦賀南小学校", "P29_005": "福井県敦賀市清水町1-10-40", "P29_006": "3", "P29_007": "1", "P29_008": "00", "P29_009": null }, "geometry": { "type": "Point", "coordinates": [ 136.077032070409473, 35.651457079955122 ] } },
{ "type": "Feature", "properties": { "P29_001": "18202", "P29_002": "B118210000377", "P29_003": "16001", "P29_004": "敦賀市立松原小学校", "P29_005": "福井県敦賀市松島町27-22", "P29_006": "3", "P29_007": "1", "P29_008": "00", "P29_009": null }, "geometry": { "type": "Point", "coordinates": [ 136.055648758338464, 35.655072269236058 ] } },
{ "type": "Feature", "properties": { "P29_001": "18202", "P29_002": "B118210000395", "P29_003": "16001", "P29_004": "敦賀市立沓見小学校", "P29_005": "福井県敦賀市沓見66-2-10", "P29_006": "3", "P29_007": "1", "P29_008": "00", "P29_009": null }, "geometry": { "type": "Point", "coordinates": [ 136.019565942095994, 35.640115210000708 ] } },
{ "type": "Feature", "properties": { "P29_001": "18202", "P29_002": "B118210000411", "P29_003": "16001", "P29_004": "敦賀市立東浦小学校", "P29_005": "福井県敦賀市杉津19-12-1", "P29_006": "3", "P29_007": "1", "P29_008": "00", "P29_009": null }, "geometry": { "type": "Point", "coordinates": [ 136.101296432112207, 35.737778538837148 ] } },
{ "type": "Feature", "properties": { "P29_001": "18202", "P29_002": "B118210000448", "P29_003": "16001", "P29_004": "敦賀市立中郷小学校", "P29_005": "福井県敦賀市津内38-1-2", "P29_006": "3", "P29_007": "1", "P29_008": "00", "P29_009": null }, "geometry": { "type": "Point", "coordinates": [ 136.07075921739343, 35.630921637046001 ] } },
{ "type": "Feature", "properties": { "P29_001": "18202", "P29_002": "B118210000457", "P29_003": "16001", "P29_004": "敦賀市立粟野小学校", "P29_005": "福井県敦賀市莇生野47-11", "P29_006": "3", "P29_007": "1", "P29_008": "00", "P29_009": null }, "geometry": { "type": "Point", "coordinates": [ 136.040226087692218, 35.627982848698437 ] } },
{ "type": "Feature", "properties": { "P29_001": "18202", "P29_002": "B118210000466", "P29_003": "16001", "P29_004": "敦賀市立黒河小学校", "P29_005": "福井県敦賀市御名25-5", "P29_006": "3", "P29_007": "1", "P29_008": "00", "P29_009": null }, "geometry": { "type": "Point", "coordinates": [ 136.049004522972695, 35.614282484645521 ] } },
{ "type": "Feature", "properties": { "P29_001": "18209", "P29_002": "B118210000475", "P29_003": "16001", "P29_004": "越前市武生東小学校", "P29_005": "福井県越前市国府2-9-12", "P29_006": "3", "P29_007": "1", "P29_008": "00", "P29_009": null }, "geometry": { "type": "Point", "coordinates": [ 136.168084579952762, 35.908583511015813 ] } },
{ "type": "Feature", "properties": { "P29_001": "18209", "P29_002": "B118210000484", "P29_003": "16001", "P29_004": "越前市武生西小学校", "P29_005": "福井県越前市中央2-2-13", "P29_006": "3", "P29_007": "1", "P29_008": "00", "P29_009": null }, "geometry": { "type": "Point", "coordinates": [ 136.15803325253637, 35.90258265710554 ] } },
{ "type": "Feature", "properties": { "P29_001": "18209", "P29_002": "B118210000493", "P29_003": "16001", "P29_004": "越前市武生南小学校", "P29_005": "福井県越前市武生柳町13-20", "P29_006": "3", "P29_007": "1", "P29_008": "00", "P29_009": null }, "geometry": { "type": "Point", "coordinates": [ 136.164220968906619, 35.894361763746694 ] } },
{ "type": "Feature", "properties": { "P29_001": "18209", "P29_002": "B118210000509", "P29_003": "16001", "P29_004": "越前市神山小学校", "P29_005": "福井県越前市広瀬町102-43", "P29_006": "3", "P29_007": "1", "P29_008": "00", "P29_009": null }, "geometry": { "type": "Point", "coordinates": [ 136.135646264991578, 35.885334691025776 ] } },
{ "type": "Feature", "properties": { "P29_001": "18209", "P29_002": "B118210000518", "P29_003": "16001", "P29_004": "越前市吉野小学校", "P29_005": "福井県越前市本保町17-1", "P29_006": "3", "P29_007": "1", "P29_008": "00", "P29_009": null }, "geometry": { "type": "Point", "coordinates": [ 136.157429335953992, 35.925816478609214 ] } },
{ "type": "Feature", "properties": { "P29_001": "18209", "P29_002": "B118210000527", "P29_003": "16001", "P29_004": "越前市大虫小学校", "P29_005": "福井県越前市高森町14-15", "P29_006": "3", "P29_007": "1", "P29_008": "00", "P29_009": null }, "geometry": { "type": "Point", "coordinates": [ 136.141821352896216, 35.906211162099616 ] } },
{ "type": "Feature", "properties": { "P29_001": "18209", "P29_002": "B118210000536", "P29_003": "16001", "P29_004": "越前市国高小学校", "P29_005": "福井県越前市国高1-15-5", "P29_006": "3", "P29_007": "1", "P29_008": "00", "P29_009": null }, "geometry": { "type": "Point", "coordinates": [ 136.185943302258408, 35.912477498471894 ] } },
{ "type": "Feature", "properties": { "P29_001": "18209", "P29_002": "B118210000545", "P29_003": "16001", "P29_004": "越前市坂口小学校", "P29_005": "福井県越前市湯谷町24-25", "P29_006": "3", "P29_007": "1", "P29_008": "00", "P29_009": null }, "geometry": { "type": "Point", "coordinates": [ 136.087050309858142, 35.858979837567489 ] } },
{ "type": "Feature", "properties": { "P29_001": "18209", "P29_002": "B118210000554", "P29_003": "16001", "P29_004": "越前市王子保小学校", "P29_005": "福井県越前市今宿町5-14", "P29_006": "3", "P29_007": "1", "P29_008": "00", "P29_009": null }, "geometry": { "type": "Point", "coordinates": [ 136.167535780393706, 35.866093397511932 ] } },
{ "type": "Feature", "properties": { "P29_001": "18209", "P29_002": "B118210000563", "P29_003": "16001", "P29_004": "越前市北日野小学校", "P29_005": "福井県越前市小野谷町2-2", "P29_006": "3", "P29_007": "1", "P29_008": "00", "P29_009": null }, "geometry": { "type": "Point", "coordinates": [ 136.19076955978025, 35.88946464014348 ] } },
{ "type": "Feature", "properties": { "P29_001": "18209", "P29_002": "B118210000572", "P29_003": "16001", "P29_004": "越前市北新庄小学校", "P29_005": "福井県越前市北町47-6", "P29_006": "3", "P29_007": "1", "P29_008": "00", "P29_009": null }, "geometry": { "type": "Point", "coordinates": [ 136.210090923972615, 35.913955127220206 ] } },
{ "type": "Feature", "properties": { "P29_001": "18209", "P29_002": "B118210000581", "P29_003": "16001", "P29_004": "越前市味真野小学校", "P29_005": "福井県越前市池泉町9-1", "P29_006": "3", "P29_007": "1", "P29_008": "00", "P29_009": null }, "geometry": { "type": "Point", "coordinates": [ 136.233314765242682, 35.890915319778046 ] } },
{ "type": "Feature", "properties": { "P29_001": "18209", "P29_002": "B118210000590", "P29_003": "16001", "P29_004": "越前市白山小学校", "P29_005": "福井県越前市都辺町24-2", "P29_006": "3", "P29_007": "1", "P29_008": "00", "P29_009": null }, "geometry": { "type": "Point", "coordinates": [ 136.052864992696982, 35.887917400256676 ] } },
{ "type": "Feature", "properties": { "P29_001": "18204", "P29_002": "B118210000607", "P29_003": "16001", "P29_004": "小浜市立小浜小学校", "P29_005": "福井県小浜市駅前町13-29", "P29_006": "3", "P29_007": "1", "P29_008": "00", "P29_009": null }, "geometry": { "type": "Point", "coordinates": [ 135.750997884540112, 35.491844623669095 ] } },
{ "type": "Feature", "properties": { "P29_001": "18204", "P29_002": "B118210000616", "P29_003": "16001", "P29_004": "小浜市立雲浜小学校", "P29_005": "福井県小浜市城内2-3-9", "P29_006": "3", "P29_007": "1", "P29_008": "00", "P29_009": null }, "geometry": { "type": "Point", "coordinates": [ 135.742715000722598, 35.505622138636021 ] } },
{ "type": "Feature", "properties": { "P29_001": "18204", "P29_002": "B118210000625", "P29_003": "16001", "P29_004": "小浜市立西津小学校", "P29_005": "福井県小浜市北塩屋18-19", "P29_006": "3", "P29_007": "1", "P29_008": "00", "P29_009": null }, "geometry": { "type": "Point", "coordinates": [ 135.754268101712199, 35.513694098968536 ] } },
{ "type": "Feature", "properties": { "P29_001": "18204", "P29_002": "B118210000634", "P29_003": "16001", "P29_004": "小浜市立今富小学校", "P29_005": "福井県小浜市和久里29-15-1", "P29_006": "3", "P29_007": "1", "P29_008": "00", "P29_009": null }, "geometry": { "type": "Point", "coordinates": [ 135.756902665660476, 35.486241274964897 ] } },
{ "type": "Feature", "properties": { "P29_001": "18204", "P29_002": "B118210000643", "P29_003": "16001", "P29_004": "小浜市立口名田小学校", "P29_005": "福井県小浜市中井43-15", "P29_006": "3", "P29_007": "1", "P29_008": "00", "P29_009": null }, "geometry": { "type": "Point", "coordinates": [ 135.715668003989805, 35.456060408769716 ] } },
{ "type": "Feature", "properties": { "P29_001": "18204", "P29_002": "B118210000652", "P29_003": "16001", "P29_004": "小浜市立中名田小学校", "P29_005": "福井県小浜市下田10-1", "P29_006": "3", "P29_007": "1", "P29_008": "00", "P29_009": null }, "geometry": { "type": "Point", "coordinates": [ 135.66222364610087, 35.430497791923045 ] } },
{ "type": "Feature", "properties": { "P29_001": "18204", "P29_002": "B118210000661", "P29_003": "16001", "P29_004": "小浜市立加斗小学校", "P29_005": "福井県小浜市飯盛59-32", "P29_006": "3", "P29_007": "1", "P29_008": "00", "P29_009": null }, "geometry": { "type": "Point", "coordinates": [ 135.677473415139332, 35.482654626493236 ] } },
{ "type": "Feature", "properties": { "P29_001": "18205", "P29_002": "B118210000670", "P29_003": "16001", "P29_004": "大野市有終西小学校", "P29_005": "福井県大野市城町9-1", "P29_006": "3", "P29_007": "1", "P29_008": "00", "P29_009": null }, "geometry": { "type": "Point", "coordinates": [ 136.485696027366004, 35.98614696028708 ] } },
{ "type": "Feature", "properties": { "P29_001": "18205", "P29_002": "B118210000689", "P29_003": "16001", "P29_004": "大野市有終南小学校", "P29_005": "福井県大野市春日2-8-30", "P29_006": "3", "P29_007": "1", "P29_008": "00", "P29_009": null }, "geometry": { "type": "Point", "coordinates": [ 136.49380670642617, 35.975754098878312 ] } },
{ "type": "Feature", "properties": { "P29_001": "18205", "P29_002": "B118210000698", "P29_003": "16001", "P29_004": "大野市小山小学校", "P29_005": "福井県大野市下舌9-1-1", "P29_006": "3", "P29_007": "1", "P29_008": "00", "P29_009": null }, "geometry": { "type": "Point", "coordinates": [ 136.491037185560373, 35.961758637282131 ] } },
{ "type": "Feature", "properties": { "P29_001": "18205", "P29_002": "B118210000714", "P29_003": "16001", "P29_004": "大野市下庄小学校", "P29_005": "福井県大野市中野町2-1-1", "P29_006": "3", "P29_007": "1", "P29_008": "00", "P29_009": null }, "geometry": { "type": "Point", "coordinates": [ 136.488785359316523, 35.993534710543855 ] } },
{ "type": "Feature", "properties": { "P29_001": "18205", "P29_002": "B118210000723", "P29_003": "16001", "P29_004": "大野市阪谷小学校", "P29_005": "福井県大野市伏石11-14", "P29_006": "3", "P29_007": "1", "P29_008": "00", "P29_009": null }, "geometry": { "type": "Point", "coordinates": [ 136.573256513531476, 35.984872435608096 ] } },
{ "type": "Feature", "properties": { "P29_001": "18205", "P29_002": "B118210000732", "P29_003": "16001", "P29_004": "大野市富田小学校", "P29_005": "福井県大野市上野42-3", "P29_006": "3", "P29_007": "1", "P29_008": "00", "P29_009": null }, "geometry": { "type": "Point", "coordinates": [ 136.538617318673801, 35.990683523750384 ] } },
{ "type": "Feature", "properties": { "P29_001": "18205", "P29_002": "B118210000741", "P29_003": "16001", "P29_004": "大野市上庄小学校", "P29_005": "福井県大野市稲郷27-11", "P29_006": "3", "P29_007": "1", "P29_008": "00", "P29_009": null }, "geometry": { "type": "Point", "coordinates": [ 136.523630467164367, 35.951387794000595 ] } },
{ "type": "Feature", "properties": { "P29_001": "18206", "P29_002": "B118210000750", "P29_003": "16001", "P29_004": "勝山市立平泉寺小学校", "P29_005": "福井県勝山市平泉寺町平泉寺164-12", "P29_006": "3", "P29_007": "1", "P29_008": "00", "P29_009": null }, "geometry": { "type": "Point", "coordinates": [ 136.532037154629052, 36.035930616364276 ] } },
{ "type": "Feature", "properties": { "P29_001": "18206", "P29_002": "B118210000769", "P29_003": "16001", "P29_004": "勝山市立成器南小学校", "P29_005": "福井県勝山市元町3-10-38", "P29_006": "3", "P29_007": "1", "P29_008": "00", "P29_009": null }, "geometry": { "type": "Point", "coordinates": [ 136.505310635390146, 36.050111400872794 ] } },
{ "type": "Feature", "properties": { "P29_001": "18206", "P29_002": "B118210000778", "P29_003": "16001", "P29_004": "勝山市立成器西小学校", "P29_005": "福井県勝山市昭和町1-6-81", "P29_006": "3", "P29_007": "1", "P29_008": "00", "P29_009": null }, "geometry": { "type": "Point", "coordinates": [ 136.505374412925846, 36.061870033965924 ] } },
{ "type": "Feature", "properties": { "P29_001": "18206", "P29_002": "B118210000787", "P29_003": "16001", "P29_004": "勝山市立村岡小学校", "P29_005": "福井県勝山市郡町2-9-1", "P29_006": "3", "P29_007": "1", "P29_008": "00", "P29_009": null }, "geometry": { "type": "Point", "coordinates": [ 136.504116997626767, 36.072839754571248 ] } },
{ "type": "Feature", "properties": { "P29_001": "18206", "P29_002": "B118210000796", "P29_003": "16001", "P29_004": "勝山市立三室小学校", "P29_005": "福井県勝山市遅羽町大袋40-67", "P29_006": "3", "P29_007": "1", "P29_008": "00", "P29_009": null }, "geometry": { "type": "Point", "coordinates": [ 136.492852950712631, 36.040091592669164 ] } },
{ "type": "Feature", "properties": { "P29_001": "18206", "P29_002": "B118210000803", "P29_003": "16001", "P29_004": "勝山市立野向小学校", "P29_005": "福井県勝山市野向町龍谷50-9", "P29_006": "3", "P29_007": "1", "P29_008": "00", "P29_009": null }, "geometry": { "type": "Point", "coordinates": [ 136.495020638197815, 36.092151912655581 ] } },
{ "type": "Feature", "properties": { "P29_001": "18206", "P29_002": "B118210000812", "P29_003": "16001", "P29_004": "勝山市立荒土小学校", "P29_005": "福井県勝山市荒土町伊波2-28", "P29_006": "3", "P29_007": "1", "P29_008": "00", "P29_009": null }, "geometry": { "type": "Point", "coordinates": [ 136.474726292411162, 36.082812888711679 ] } },
{ "type": "Feature", "properties": { "P29_001": "18206", "P29_002": "B118210000821", "P29_003": "16001", "P29_004": "勝山市立鹿谷小学校", "P29_005": "福井県勝山市鹿谷町本郷34-1", "P29_006": "3", "P29_007": "1", "P29_008": "00", "P29_009": null }, "geometry": { "type": "Point", "coordinates": [ 136.464856106076326, 36.056838154873965 ] } },
{ "type": "Feature", "properties": { "P29_001": "18206", "P29_002": "B118210000830", "P29_003": "16001", "P29_004": "勝山市立北郷小学校", "P29_005": "福井県勝山市北郷町東野13-25", "P29_006": "3", "P29_007": "1", "P29_008": "00", "P29_009": null }, "geometry": { "type": "Point", "coordinates": [ 136.428718182227527, 36.08624713353894 ] } },
{ "type": "Feature", "properties": { "P29_001": "18207", "P29_002": "B118210000849", "P29_003": "16001", "P29_004": "鯖江市惜陰小学校", "P29_005": "福井県鯖江市日の出町6-37", "P29_006": "3", "P29_007": "1", "P29_008": "00", "P29_009": null }, "geometry": { "type": "Point", "coordinates": [ 136.186249645883009, 35.941969934386812 ] } },
{ "type": "Feature", "properties": { "P29_001": "18207", "P29_002": "B118210000858", "P29_003": "16001", "P29_004": "鯖江市鯖江東小学校", "P29_005": "福井県鯖江市新横江2-6-37", "P29_006": "3", "P29_007": "1", "P29_008": "00", "P29_009": null }, "geometry": { "type": "Point", "coordinates": [ 136.198608499455247, 35.939585526667969 ] } },
{ "type": "Feature", "properties": { "P29_001": "18207", "P29_002": "B118210000867", "P29_003": "16001", "P29_004": "鯖江市神明小学校", "P29_005": "福井県鯖江市水落町4-13-23", "P29_006": "3", "P29_007": "1", "P29_008": "00", "P29_009": null }, "geometry": { "type": "Point", "coordinates": [ 136.184333818174821, 35.970166533088246 ] } },
{ "type": "Feature", "properties": { "P29_001": "18207", "P29_002": "B118210000876", "P29_003": "16001", "P29_004": "鯖江市中河小学校", "P29_005": "福井県鯖江市中野町73-16", "P29_006": "3", "P29_007": "1", "P29_008": "00", "P29_009": null }, "geometry": { "type": "Point", "coordinates": [ 136.208670041030615, 35.953947965356612 ] } },
{ "type": "Feature", "properties": { "P29_001": "18207", "P29_002": "B118210000885", "P29_003": "16001", "P29_004": "鯖江市片上小学校", "P29_005": "福井県鯖江市大野町16-6", "P29_006": "3", "P29_007": "1", "P29_008": "00", "P29_009": null }, "geometry": { "type": "Point", "coordinates": [ 136.231551885857698, 35.973987396312509 ] } },
{ "type": "Feature", "properties": { "P29_001": "18207", "P29_002": "B118210000894", "P29_003": "16001", "P29_004": "鯖江市立待小学校", "P29_005": "福井県鯖江市杉本町1-5", "P29_006": "3", "P29_007": "1", "P29_008": "00", "P29_009": null }, "geometry": { "type": "Point", "coordinates": [ 136.169473987957815, 35.98381694517127 ] } },
{ "type": "Feature", "properties": { "P29_001": "18207", "P29_002": "B118210000901", "P29_003": "16001", "P29_004": "鯖江市吉川小学校", "P29_005": "福井県鯖江市大倉町22-1", "P29_006": "3", "P29_007": "1", "P29_008": "00", "P29_009": null }, "geometry": { "type": "Point", "coordinates": [ 136.156882274190053, 35.962050232595367 ] } },
{ "type": "Feature", "properties": { "P29_001": "18207", "P29_002": "B118210000910", "P29_003": "16001", "P29_004": "鯖江市豊小学校", "P29_005": "福井県鯖江市下野田町39-29", "P29_006": "3", "P29_007": "1", "P29_008": "00", "P29_009": null }, "geometry": { "type": "Point", "coordinates": [ 136.151448940725089, 35.943368414594872 ] } },
{ "type": "Feature", "properties": { "P29_001": "18207", "P29_002": "B118210000929", "P29_003": "16001", "P29_004": "鯖江市北中山小学校", "P29_005": "福井県鯖江市磯部町25-11", "P29_006": "3", "P29_007": "1", "P29_008": "00", "P29_009": null }, "geometry": { "type": "Point", "coordinates": [ 136.24312824085797, 35.953635679643526 ] } },
{ "type": "Feature", "properties": { "P29_001": "18207", "P29_002": "B118210000938", "P29_003": "16001", "P29_004": "鯖江市河和田小学校", "P29_005": "福井県鯖江市西袋町67-8", "P29_006": "3", "P29_007": "1", "P29_008": "00", "P29_009": null }, "geometry": { "type": "Point", "coordinates": [ 136.279086991959929, 35.953053073847926 ] } },
{ "type": "Feature", "properties": { "P29_001": "18201", "P29_002": "B118210000947", "P29_003": "16001", "P29_004": "福井市酒生小学校", "P29_005": "福井県福井市成願寺町5-1", "P29_006": "3", "P29_007": "1", "P29_008": "00", "P29_009": null }, "geometry": { "type": "Point", "coordinates": [ 136.27511278796365, 36.03253414485431 ] } },
{ "type": "Feature", "properties": { "P29_001": "18201", "P29_002": "B118210000956", "P29_003": "16001", "P29_004": "福井市一乗小学校", "P29_005": "福井県福井市西新町1-4", "P29_006": "3", "P29_007": "1", "P29_008": "00", "P29_009": null }, "geometry": { "type": "Point", "coordinates": [ 136.290169225230983, 35.995413817578715 ] } },
{ "type": "Feature", "properties": { "P29_001": "18201", "P29_002": "B118210000965", "P29_003": "16001", "P29_004": "福井市上文殊小学校", "P29_005": "福井県福井市生部町36-6", "P29_006": "3", "P29_007": "1", "P29_008": "00", "P29_009": null }, "geometry": { "type": "Point", "coordinates": [ 136.253040718258745, 35.999594784176729 ] } },
{ "type": "Feature", "properties": { "P29_001": "18201", "P29_002": "B118210000974", "P29_003": "16001", "P29_004": "福井市六条小学校", "P29_005": "福井県福井市上莇生田町5-16", "P29_006": "3", "P29_007": "1", "P29_008": "00", "P29_009": null }, "geometry": { "type": "Point", "coordinates": [ 136.233075268522811, 36.026477584314932 ] } },
{ "type": "Feature", "properties": { "P29_001": "18201", "P29_002": "B118210000983", "P29_003": "16001", "P29_004": "福井市文殊小学校", "P29_005": "福井県福井市下河北町53-1", "P29_006": "3", "P29_007": "1", "P29_008": "00", "P29_009": null }, "geometry": { "type": "Point", "coordinates": [ 136.23114735742675, 36.013220174074299 ] } },
{ "type": "Feature", "properties": { "P29_001": "18201", "P29_002": "B118210000992", "P29_003": "16001", "P29_004": "福井市東郷小学校", "P29_005": "福井県福井市栃泉町3-105", "P29_006": "3", "P29_007": "1", "P29_008": "00", "P29_009": null }, "geometry": { "type": "Point", "coordinates": [ 136.272433761201398, 36.014282150242558 ] } },
{ "type": "Feature", "properties": { "P29_001": "18201", "P29_002": "B118210001009", "P29_003": "16001", "P29_004": "福井市下宇坂小学校", "P29_005": "福井県福井市市波町55-5", "P29_006": "3", "P29_007": "1", "P29_008": "00", "P29_009": null }, "geometry": { "type": "Point", "coordinates": [ 136.332810612183749, 36.015501025950272 ] } },
{ "type": "Feature", "properties": { "P29_001": "18201", "P29_002": "B118210001018", "P29_003": "16001", "P29_004": "福井市美山啓明小学校", "P29_005": "福井県福井市朝谷町1-20", "P29_006": "3", "P29_007": "1", "P29_008": "00", "P29_009": null }, "geometry": { "type": "Point", "coordinates": [ 136.372062089950703, 35.994403443760383 ] } },
{ "type": "Feature", "properties": { "P29_001": "18201", "P29_002": "B118210001027", "P29_003": "16001", "P29_004": "福井市羽生小学校", "P29_005": "福井県福井市大宮町12-31", "P29_006": "3", "P29_007": "1", "P29_008": "00", "P29_009": null }, "geometry": { "type": "Point", "coordinates": [ 136.415563681263421, 35.999158316171822 ] } },
{ "type": "Feature", "properties": { "P29_001": "18322", "P29_002": "B118210001036", "P29_003": "16001", "P29_004": "松岡小学校", "P29_005": "福井県吉田郡永平寺町松岡神明3-132", "P29_006": "3", "P29_007": "1", "P29_008": "00", "P29_009": null }, "geometry": { "type": "Point", "coordinates": [ 136.300235327040411, 36.091267419254081 ] } },
{ "type": "Feature", "properties": { "P29_001": "18322", "P29_002": "B118210001045", "P29_003": "16001", "P29_004": "吉野小学校", "P29_005": "福井県吉田郡永平寺町松岡吉野26-3", "P29_006": "3", "P29_007": "1", "P29_008": "00", "P29_009": null }, "geometry": { "type": "Point", "coordinates": [ 136.295571201060454, 36.072980170712391 ] } },
{ "type": "Feature", "properties": { "P29_001": "18322", "P29_002": "B118210001054", "P29_003": "16001", "P29_004": "御陵小学校", "P29_005": "福井県吉田郡永平寺町松岡兼定島39-15", "P29_006": "3", "P29_007": "1", "P29_008": "00", "P29_009": null }, "geometry": { "type": "Point", "coordinates": [ 136.289416875542969, 36.107969372466393 ] } },
{ "type": "Feature", "properties": { "P29_001": "18322", "P29_002": "B118210001063", "P29_003": "16001", "P29_004": "志比小学校", "P29_005": "福井県吉田郡永平寺町谷口1-70", "P29_006": "3", "P29_007": "1", "P29_008": "00", "P29_009": null }, "geometry": { "type": "Point", "coordinates": [ 136.33416993651349, 36.094697326431699 ] } },
{ "type": "Feature", "properties": { "P29_001": "18322", "P29_002": "B118210001072", "P29_003": "16001", "P29_004": "志比南小学校", "P29_005": "福井県吉田郡永平寺町市野々1-11", "P29_006": "3", "P29_007": "1", "P29_008": "00", "P29_009": null }, "geometry": { "type": "Point", "coordinates": [ 136.326449460346652, 36.070465401802302 ] } },
{ "type": "Feature", "properties": { "P29_001": "18322", "P29_002": "B118210001081", "P29_003": "16001", "P29_004": "志比北小学校", "P29_005": "福井県吉田郡永平寺町岩野2-1", "P29_006": "3", "P29_007": "1", "P29_008": "00", "P29_009": null }, "geometry": { "type": "Point", "coordinates": [ 136.360597351286629, 36.095912014202845 ] } },
{ "type": "Feature", "properties": { "P29_001": "18322", "P29_002": "B118210001090", "P29_003": "16001", "P29_004": "上志比小学校", "P29_005": "福井県吉田郡永平寺町栗住波26-15", "P29_006": "3", "P29_007": "1", "P29_008": "00", "P29_009": null }, "geometry": { "type": "Point", "coordinates": [ 136.399006057057278, 36.071879815153579 ] } },
{ "type": "Feature", "properties": { "P29_001": "18210", "P29_002": "B118210001107", "P29_003": "16001", "P29_004": "坂井市立三国南小学校", "P29_005": "福井県坂井市三国町山王1-1-50", "P29_006": "3", "P29_007": "1", "P29_008": "00", "P29_009": null }, "geometry": { "type": "Point", "coordinates": [ 136.155413799435962, 36.21169060204852 ] } },
{ "type": "Feature", "properties": { "P29_001": "18210", "P29_002": "B118210001116", "P29_003": "16001", "P29_004": "坂井市立三国北小学校", "P29_005": "福井県坂井市三国町緑ヶ丘1-4-1", "P29_006": "3", "P29_007": "1", "P29_008": "00", "P29_009": null }, "geometry": { "type": "Point", "coordinates": [ 136.150371808061863, 36.218811908807432 ] } },
{ "type": "Feature", "properties": { "P29_001": "18210", "P29_002": "B118210001125", "P29_003": "16001", "P29_004": "坂井市立雄島小学校", "P29_005": "福井県坂井市三国町陣ヶ岡16-3", "P29_006": "3", "P29_007": "1", "P29_008": "00", "P29_009": null }, "geometry": { "type": "Point", "coordinates": [ 136.140262678778697, 36.237274571727347 ] } },
{ "type": "Feature", "properties": { "P29_001": "18210", "P29_002": "B118210001134", "P29_003": "16001", "P29_004": "坂井市立加戸小学校", "P29_005": "福井県坂井市三国町加戸30-1", "P29_006": "3", "P29_007": "1", "P29_008": "00", "P29_009": null }, "geometry": { "type": "Point", "coordinates": [ 136.173938604198668, 36.23080953404402 ] } },
{ "type": "Feature", "properties": { "P29_001": "18208", "P29_002": "B118210001143", "P29_003": "16001", "P29_004": "あわら市芦原小学校", "P29_005": "福井県あわら市田中々2-25", "P29_006": "3", "P29_007": "1", "P29_008": "00", "P29_009": null }, "geometry": { "type": "Point", "coordinates": [ 136.192650347190124, 36.221447142576295 ] } },
{ "type": "Feature", "properties": { "P29_001": "18208", "P29_002": "B118210001152", "P29_003": "16001", "P29_004": "あわら市北潟小学校", "P29_005": "福井県あわら市北潟35-11", "P29_006": "3", "P29_007": "1", "P29_008": "00", "P29_009": null }, "geometry": { "type": "Point", "coordinates": [ 136.222894385998103, 36.263357164314023 ] } },
{ "type": "Feature", "properties": { "P29_001": "18208", "P29_002": "B118210001161", "P29_003": "16001", "P29_004": "あわら市波松小学校", "P29_005": "福井県あわら市波松25-1", "P29_006": "3", "P29_007": "9", "P29_008": "00", "P29_009": null }, "geometry": { "type": "Point", "coordinates": [ 136.20163662807775, 36.262060463563785 ] } },
{ "type": "Feature", "properties": { "P29_001": "18208", "P29_002": "B118210001170", "P29_003": "16001", "P29_004": "あわら市新郷小学校", "P29_005": "福井県あわら市中浜1-1", "P29_006": "3", "P29_007": "9", "P29_008": "00", "P29_009": null }, "geometry": { "type": "Point", "coordinates": [ 136.17844675663099, 36.210243798623068 ] } },
{ "type": "Feature", "properties": { "P29_001": "18208", "P29_002": "B118210001189", "P29_003": "16001", "P29_004": "あわら市本荘小学校", "P29_005": "福井県あわら市下番7-1", "P29_006": "3", "P29_007": "1", "P29_008": "00", "P29_009": null }, "geometry": { "type": "Point", "coordinates": [ 136.19585570718354, 36.206821775552449 ] } },
{ "type": "Feature", "properties": { "P29_001": "18208", "P29_002": "B118210001198", "P29_003": "16001", "P29_004": "あわら市金津小学校", "P29_005": "福井県あわら市花乃杜1-20-1", "P29_006": "3", "P29_007": "1", "P29_008": "00", "P29_009": null }, "geometry": { "type": "Point", "coordinates": [ 136.225809662137067, 36.218403995474453 ] } },
{ "type": "Feature", "properties": { "P29_001": "18208", "P29_002": "B118210001205", "P29_003": "16001", "P29_004": "あわら市細呂木小学校", "P29_005": "福井県あわら市滝63-8", "P29_006": "3", "P29_007": "1", "P29_008": "00", "P29_009": null }, "geometry": { "type": "Point", "coordinates": [ 136.253738233833502, 36.239854147466282 ] } },
{ "type": "Feature", "properties": { "P29_001": "18208", "P29_002": "B118210001214", "P29_003": "16001", "P29_004": "あわら市伊井小学校", "P29_005": "福井県あわら市清間13-24", "P29_006": "3", "P29_007": "1", "P29_008": "00", "P29_009": null }, "geometry": { "type": "Point", "coordinates": [ 136.247937501670975, 36.197635371309531 ] } },
{ "type": "Feature", "properties": { "P29_001": "18208", "P29_002": "B118210001223", "P29_003": "16001", "P29_004": "あわら市吉崎小学校", "P29_005": "福井県あわら市吉崎8-55", "P29_006": "3", "P29_007": "9", "P29_008": "00", "P29_009": null }, "geometry": { "type": "Point", "coordinates": [ 136.253644105979731, 36.287003463848038 ] } },
{ "type": "Feature", "properties": { "P29_001": "18210", "P29_002": "B118210001232", "P29_003": "16001", "P29_004": "坂井市立平章小学校", "P29_005": "福井県坂井市丸岡町霞町2-41", "P29_006": "3", "P29_007": "1", "P29_008": "00", "P29_009": null }, "geometry": { "type": "Point", "coordinates": [ 136.271350924806057, 36.153881450297575 ] } },
{ "type": "Feature", "properties": { "P29_001": "18210", "P29_002": "B118210001241", "P29_003": "16001", "P29_004": "坂井市立長畝小学校", "P29_005": "福井県坂井市丸岡町松川2-131", "P29_006": "3", "P29_007": "1", "P29_008": "00", "P29_009": null }, "geometry": { "type": "Point", "coordinates": [ 136.27839615993625, 36.154206962065061 ] } },
{ "type": "Feature", "properties": { "P29_001": "18210", "P29_002": "B118210001250", "P29_003": "16001", "P29_004": "坂井市立高椋小学校", "P29_005": "福井県坂井市丸岡町寅国2-13", "P29_006": "3", "P29_007": "1", "P29_008": "00", "P29_009": null }, "geometry": { "type": "Point", "coordinates": [ 136.269759866732159, 36.144142131131026 ] } },
{ "type": "Feature", "properties": { "P29_001": "18210", "P29_002": "B118210001269", "P29_003": "16001", "P29_004": "坂井市立鳴鹿小学校", "P29_005": "福井県坂井市丸岡町楽間4-40", "P29_006": "3", "P29_007": "1", "P29_008": "00", "P29_009": null }, "geometry": { "type": "Point", "coordinates": [ 136.303799654810007, 36.112409196081259 ] } },
{ "type": "Feature", "properties": { "P29_001": "18210", "P29_002": "B118210001278", "P29_003": "16001", "P29_004": "坂井市立春江小学校", "P29_005": "福井県坂井市春江町境28-28", "P29_006": "3", "P29_007": "1", "P29_008": "00", "P29_009": null }, "geometry": { "type": "Point", "coordinates": [ 136.22332943625841, 36.130119555750476 ] } },
{ "type": "Feature", "properties": { "P29_001": "18210", "P29_002": "B118210001287", "P29_003": "16001", "P29_004": "坂井市立春江西小学校", "P29_005": "福井県坂井市春江町西太郎丸3-3", "P29_006": "3", "P29_007": "1", "P29_008": "00", "P29_009": null }, "geometry": { "type": "Point", "coordinates": [ 136.201234940909757, 36.133209847527617 ] } },
{ "type": "Feature", "properties": { "P29_001": "18210", "P29_002": "B118210001296", "P29_003": "16001", "P29_004": "坂井市立大石小学校", "P29_005": "福井県坂井市春江町上小森5-7-1", "P29_006": "3", "P29_007": "1", "P29_008": "00", "P29_009": null }, "geometry": { "type": "Point", "coordinates": [ 136.188168690263723, 36.155271351060229 ] } },
{ "type": "Feature", "properties": { "P29_001": "18210", "P29_002": "B118210001303", "P29_003": "16001", "P29_004": "坂井市立木部小学校", "P29_005": "福井県坂井市坂井町高柳117-1", "P29_006": "3", "P29_007": "1", "P29_008": "00", "P29_009": null }, "geometry": { "type": "Point", "coordinates": [ 136.171080308296297, 36.182907813052715 ] } },
{ "type": "Feature", "properties": { "P29_001": "18210", "P29_002": "B118210001312", "P29_003": "16001", "P29_004": "坂井市立大関小学校", "P29_005": "福井県坂井市坂井町東24-3", "P29_006": "3", "P29_007": "1", "P29_008": "00", "P29_009": null }, "geometry": { "type": "Point", "coordinates": [ 136.219748404270575, 36.185473842508593 ] } },
{ "type": "Feature", "properties": { "P29_001": "18210", "P29_002": "B118210001321", "P29_003": "16001", "P29_004": "坂井市立東十郷小学校", "P29_005": "福井県坂井市坂井町長畑27-1", "P29_006": "3", "P29_007": "1", "P29_008": "00", "P29_009": null }, "geometry": { "type": "Point", "coordinates": [ 136.236865185573578, 36.163555290811416 ] } },
{ "type": "Feature", "properties": { "P29_001": "18210", "P29_002": "B118210001330", "P29_003": "16001", "P29_004": "坂井市立兵庫小学校", "P29_005": "福井県坂井市坂井町上兵庫65-5", "P29_006": "3", "P29_007": "1", "P29_008": "00", "P29_009": null }, "geometry": { "type": "Point", "coordinates": [ 136.203810057902615, 36.168088764356298 ] } },
{ "type": "Feature", "properties": { "P29_001": "18210", "P29_002": "B118210001349", "P29_003": "16001", "P29_004": "坂井市立春江東小学校", "P29_005": "福井県坂井市春江町中筋29-1", "P29_006": "3", "P29_007": "1", "P29_008": "00", "P29_009": null }, "geometry": { "type": "Point", "coordinates": [ 136.237669252707462, 36.129156151796813 ] } },
{ "type": "Feature", "properties": { "P29_001": "18205", "P29_002": "B118210001358", "P29_003": "16001", "P29_004": "大野市和泉小学校", "P29_005": "福井県大野市朝日34-3", "P29_006": "3", "P29_007": "1", "P29_008": "00", "P29_009": null }, "geometry": { "type": "Point", "coordinates": [ 136.658414140203746, 35.902057036224043 ] } },
{ "type": "Feature", "properties": { "P29_001": "18209", "P29_002": "B118210001367", "P29_003": "16001", "P29_004": "越前市南中山小学校", "P29_005": "福井県越前市中津山町38-13-2", "P29_006": "3", "P29_007": "1", "P29_008": "00", "P29_009": null }, "geometry": { "type": "Point", "coordinates": [ 136.247087126833605, 35.929667008400969 ] } },
{ "type": "Feature", "properties": { "P29_001": "18209", "P29_002": "B118210001376", "P29_003": "16001", "P29_004": "越前市花筐小学校", "P29_005": "福井県越前市粟田部町41-12", "P29_006": "3", "P29_007": "1", "P29_008": "00", "P29_009": null }, "geometry": { "type": "Point", "coordinates": [ 136.240449282687223, 35.914128129270004 ] } },
{ "type": "Feature", "properties": { "P29_001": "18209", "P29_002": "B118210001385", "P29_003": "16001", "P29_004": "越前市服間小学校", "P29_005": "福井県越前市藤木町12-11", "P29_006": "3", "P29_007": "1", "P29_008": "00", "P29_009": null }, "geometry": { "type": "Point", "coordinates": [ 136.264850042569634, 35.935447623432793 ] } },
{ "type": "Feature", "properties": { "P29_001": "18209", "P29_002": "B118210001394", "P29_003": "16001", "P29_004": "越前市岡本小学校", "P29_005": "福井県越前市定友町10-15", "P29_006": "3", "P29_007": "1", "P29_008": "00", "P29_009": null }, "geometry": { "type": "Point", "coordinates": [ 136.244876475777232, 35.915280895127026 ] } },
{ "type": "Feature", "properties": { "P29_001": "18423", "P29_002": "B118210001401", "P29_003": "16001", "P29_004": "越前町立朝日小学校", "P29_005": "福井県丹生郡越前町天王5-7", "P29_006": "3", "P29_007": "1", "P29_008": "00", "P29_009": null }, "geometry": { "type": "Point", "coordinates": [ 136.129360059669381, 35.981278995499089 ] } },
{ "type": "Feature", "properties": { "P29_001": "18423", "P29_002": "B118210001410", "P29_003": "16001", "P29_004": "越前町立常磐小学校", "P29_005": "福井県丹生郡越前町青野20-9", "P29_006": "3", "P29_007": "1", "P29_008": "00", "P29_009": null }, "geometry": { "type": "Point", "coordinates": [ 136.113174005280115, 35.961888824039114 ] } },
{ "type": "Feature", "properties": { "P29_001": "18423", "P29_002": "B118210001429", "P29_003": "16001", "P29_004": "越前町立糸生小学校", "P29_005": "福井県丹生郡越前町上糸生81-19", "P29_006": "3", "P29_007": "1", "P29_008": "00", "P29_009": null }, "geometry": { "type": "Point", "coordinates": [ 136.08453428974056, 35.996473289861854 ] } },
{ "type": "Feature", "properties": { "P29_001": "18423", "P29_002": "B118210001438", "P29_003": "16001", "P29_004": "越前町立宮崎小学校", "P29_005": "福井県丹生郡越前町江波122-1", "P29_006": "3", "P29_007": "1", "P29_008": "00", "P29_009": null }, "geometry": { "type": "Point", "coordinates": [ 136.075338019839478, 35.940510371710417 ] } },
{ "type": "Feature", "properties": { "P29_001": "18423", "P29_002": "B118210001447", "P29_003": "16001", "P29_004": "越前町立四ヶ浦小学校", "P29_005": "福井県丹生郡越前町小樟42-175", "P29_006": "3", "P29_007": "1", "P29_008": "00", "P29_009": null }, "geometry": { "type": "Point", "coordinates": [ 135.990124998047236, 35.945920004717848 ] } },
{ "type": "Feature", "properties": { "P29_001": "18201", "P29_002": "B118210001456", "P29_003": "16001", "P29_004": "福井市越廼小学校", "P29_005": "福井県福井市茱崎町3-25", "P29_006": "3", "P29_007": "1", "P29_008": "00", "P29_009": null }, "geometry": { "type": "Point", "coordinates": [ 136.013983287561814, 36.040248299568511 ] } },
{ "type": "Feature", "properties": { "P29_001": "18423", "P29_002": "B118210001465", "P29_003": "16001", "P29_004": "越前町立織田小学校", "P29_005": "福井県丹生郡越前町大王丸20-17", "P29_006": "3", "P29_007": "1", "P29_008": "00", "P29_009": null }, "geometry": { "type": "Point", "coordinates": [ 136.04559266715242, 35.957099892791788 ] } },
{ "type": "Feature", "properties": { "P29_001": "18423", "P29_002": "B118210001474", "P29_003": "16001", "P29_004": "越前町立萩野小学校", "P29_005": "福井県丹生郡越前町細野73-23", "P29_006": "3", "P29_007": "1", "P29_008": "00", "P29_009": null }, "geometry": { "type": "Point", "coordinates": [ 136.062141312651477, 35.977983230135649 ] } },
{ "type": "Feature", "properties": { "P29_001": "18201", "P29_002": "B118210001483", "P29_003": "16001", "P29_004": "福井市清水西小学校", "P29_005": "福井県福井市大森町9-2", "P29_006": "3", "P29_007": "1", "P29_008": "00", "P29_009": null }, "geometry": { "type": "Point", "coordinates": [ 136.117002075643484, 36.018527361719912 ] } },
{ "type": "Feature", "properties": { "P29_001": "18201", "P29_002": "B118210001492", "P29_003": "16001", "P29_004": "福井市清水南小学校", "P29_005": "福井県福井市真栗町15-33", "P29_006": "3", "P29_007": "1", "P29_008": "00", "P29_009": null }, "geometry": { "type": "Point", "coordinates": [ 136.148247244921862, 36.014829247119259 ] } },
{ "type": "Feature", "properties": { "P29_001": "18201", "P29_002": "B118210001508", "P29_003": "16001", "P29_004": "福井市清水東小学校", "P29_005": "福井県福井市三留町69-2", "P29_006": "3", "P29_007": "1", "P29_008": "00", "P29_009": null }, "geometry": { "type": "Point", "coordinates": [ 136.153522522844895, 36.037939034979843 ] } },
{ "type": "Feature", "properties": { "P29_001": "18404", "P29_002": "B118210001517", "P29_003": "16001", "P29_004": "南越前町立南条小学校", "P29_005": "福井県南条郡南越前町東大道19-54", "P29_006": "3", "P29_007": "1", "P29_008": "00", "P29_009": null }, "geometry": { "type": "Point", "coordinates": [ 136.194867104667338, 35.836658299664187 ] } },
{ "type": "Feature", "properties": { "P29_001": "18404", "P29_002": "B118210001526", "P29_003": "16001", "P29_004": "南越前町立湯尾小学校", "P29_005": "福井県南条郡南越前町湯尾88-2", "P29_006": "3", "P29_007": "1", "P29_008": "00", "P29_009": null }, "geometry": { "type": "Point", "coordinates": [ 136.198259234042723, 35.792121175173655 ] } },
{ "type": "Feature", "properties": { "P29_001": "18404", "P29_002": "B118210001535", "P29_003": "16001", "P29_004": "南越前町立今庄小学校", "P29_005": "福井県南条郡南越前町今庄28-10-1", "P29_006": "3", "P29_007": "1", "P29_008": "00", "P29_009": null }, "geometry": { "type": "Point", "coordinates": [ 136.198443878595896, 35.780151579454788 ] } },
{ "type": "Feature", "properties": { "P29_001": "18501", "P29_002": "B118210001544", "P29_003": "16001", "P29_004": "若狭町立三方小学校", "P29_005": "福井県三方上中郡若狭町三方50-9", "P29_006": "3", "P29_007": "1", "P29_008": "00", "P29_009": null }, "geometry": { "type": "Point", "coordinates": [ 135.912201476251369, 35.552872746156389 ] } },
{ "type": "Feature", "properties": { "P29_001": "18501", "P29_002": "B118210001562", "P29_003": "16001", "P29_004": "若狭町立気山小学校", "P29_005": "福井県三方上中郡若狭町気山310-9-1", "P29_006": "3", "P29_007": "1", "P29_008": "00", "P29_009": null }, "geometry": { "type": "Point", "coordinates": [ 135.912380401477719, 35.579241680057123 ] } },
{ "type": "Feature", "properties": { "P29_001": "18501", "P29_002": "B118210001571", "P29_003": "16001", "P29_004": "若狭町立梅の里小学校", "P29_005": "福井県三方上中郡若狭町田井23-10-1", "P29_006": "3", "P29_007": "1", "P29_008": "00", "P29_009": null }, "geometry": { "type": "Point", "coordinates": [ 135.868708782709717, 35.559346197599915 ] } },
{ "type": "Feature", "properties": { "P29_001": "18501", "P29_002": "B118210001580", "P29_003": "16001", "P29_004": "若狭町立みそみ小学校", "P29_005": "福井県三方上中郡若狭町上野5-6-1", "P29_006": "3", "P29_007": "1", "P29_008": "00", "P29_009": null }, "geometry": { "type": "Point", "coordinates": [ 135.900465186534149, 35.509664776956818 ] } },
{ "type": "Feature", "properties": { "P29_001": "18501", "P29_002": "B118210001599", "P29_003": "16001", "P29_004": "若狭町立鳥羽小学校", "P29_005": "福井県三方上中郡若狭町三田26-3-1", "P29_006": "3", "P29_007": "1", "P29_008": "00", "P29_009": null }, "geometry": { "type": "Point", "coordinates": [ 135.870203409030381, 35.506244807954182 ] } },
{ "type": "Feature", "properties": { "P29_001": "18501", "P29_002": "B118210001606", "P29_003": "16001", "P29_004": "若狭町立瓜生小学校", "P29_005": "福井県三方上中郡若狭町脇袋7-17", "P29_006": "3", "P29_007": "1", "P29_008": "00", "P29_009": null }, "geometry": { "type": "Point", "coordinates": [ 135.872279177058772, 35.472571699472482 ] } },
{ "type": "Feature", "properties": { "P29_001": "18501", "P29_002": "B118210001615", "P29_003": "16001", "P29_004": "若狭町立熊川小学校", "P29_005": "福井県三方上中郡若狭町熊川43-25-1", "P29_006": "3", "P29_007": "1", "P29_008": "00", "P29_009": null }, "geometry": { "type": "Point", "coordinates": [ 135.901163156297969, 35.446267430727602 ] } },
{ "type": "Feature", "properties": { "P29_001": "18501", "P29_002": "B118210001624", "P29_003": "16001", "P29_004": "若狭町立三宅小学校", "P29_005": "福井県三方上中郡若狭町井ノ口49-11", "P29_006": "3", "P29_007": "1", "P29_008": "00", "P29_009": null }, "geometry": { "type": "Point", "coordinates": [ 135.849520836393879, 35.462475766354245 ] } },
{ "type": "Feature", "properties": { "P29_001": "18501", "P29_002": "B118210001633", "P29_003": "16001", "P29_004": "若狭町立野木小学校", "P29_005": "福井県三方上中郡若狭町武生15-7-1", "P29_006": "3", "P29_007": "1", "P29_008": "00", "P29_009": null }, "geometry": { "type": "Point", "coordinates": [ 135.829395285389467, 35.476142230553016 ] } },
{ "type": "Feature", "properties": { "P29_001": "18481", "P29_002": "B118210001642", "P29_003": "16001", "P29_004": "高浜小学校", "P29_005": "福井県大飯郡高浜町宮崎75-12-1", "P29_006": "3", "P29_007": "1", "P29_008": "00", "P29_009": null }, "geometry": { "type": "Point", "coordinates": [ 135.549501803402165, 35.489036562953117 ] } },
{ "type": "Feature", "properties": { "P29_001": "18481", "P29_002": "B118210001651", "P29_003": "16001", "P29_004": "内浦小学校", "P29_005": "福井県大飯郡高浜町山中107-30", "P29_006": "3", "P29_007": "1", "P29_008": "00", "P29_009": null }, "geometry": { "type": "Point", "coordinates": [ 135.466989699023003, 35.519020512400814 ] } },
{ "type": "Feature", "properties": { "P29_001": "18481", "P29_002": "B118210001660", "P29_003": "16001", "P29_004": "和田小学校", "P29_005": "福井県大飯郡高浜町和田124-3", "P29_006": "3", "P29_007": "1", "P29_008": "00", "P29_009": null }, "geometry": { "type": "Point", "coordinates": [ 135.581025586545564, 35.491429096006641 ] } },
{ "type": "Feature", "properties": { "P29_001": "18481", "P29_002": "B118210001679", "P29_003": "16001", "P29_004": "青郷小学校", "P29_005": "福井県大飯郡高浜町小和田69-40", "P29_006": "3", "P29_007": "1", "P29_008": "00", "P29_009": null }, "geometry": { "type": "Point", "coordinates": [ 135.502856816708345, 35.485454176151983 ] } },
{ "type": "Feature", "properties": { "P29_001": "18481", "P29_002": "B118210001688", "P29_003": "16001", "P29_004": "青郷小学校高野分校", "P29_005": "福井県大飯郡高浜町高野17-2", "P29_006": "3", "P29_007": "1", "P29_008": "00", "P29_009": null }, "geometry": { "type": "Point", "coordinates": [ 135.483411613576465, 35.491099063519741 ] } },
{ "type": "Feature", "properties": { "P29_001": "18483", "P29_002": "B118210001697", "P29_003": "16001", "P29_004": "佐分利小学校", "P29_005": "福井県大飯郡おおい町鹿野21-22-1", "P29_006": "3", "P29_007": "1", "P29_008": "00", "P29_009": null }, "geometry": { "type": "Point", "coordinates": [ 135.57137622653272, 35.451544064894549 ] } },
{ "type": "Feature", "properties": { "P29_001": "18483", "P29_002": "B118210001704", "P29_003": "16001", "P29_004": "本郷小学校", "P29_005": "福井県大飯郡おおい町本郷80-7", "P29_006": "3", "P29_007": "1", "P29_008": "00", "P29_009": null }, "geometry": { "type": "Point", "coordinates": [ 135.622862001185467, 35.47214400255308 ] } },
{ "type": "Feature", "properties": { "P29_001": "18483", "P29_002": "B118210001713", "P29_003": "16001", "P29_004": "大島小学校", "P29_005": "福井県大飯郡おおい町大島60-6", "P29_006": "3", "P29_007": "1", "P29_008": "00", "P29_009": null }, "geometry": { "type": "Point", "coordinates": [ 135.646668093996681, 35.52787429962018 ] } },
{ "type": "Feature", "properties": { "P29_001": "18210", "P29_002": "B118210001722", "P29_003": "16001", "P29_004": "坂井市立三国西小学校", "P29_005": "福井県坂井市三国町山岸31-1", "P29_006": "3", "P29_007": "1", "P29_008": "00", "P29_009": null }, "geometry": { "type": "Point", "coordinates": [ 136.144027345898394, 36.19037187505085 ] } },
{ "type": "Feature", "properties": { "P29_001": "18208", "P29_002": "B118210001731", "P29_003": "16001", "P29_004": "あわら市金津東小学校", "P29_005": "福井県あわら市中川18-10", "P29_006": "3", "P29_007": "1", "P29_008": "00", "P29_009": null }, "geometry": { "type": "Point", "coordinates": [ 136.268553317695734, 36.197233500262286 ] } },
{ "type": "Feature", "properties": { "P29_001": "18201", "P29_002": "B118210001740", "P29_003": "16001", "P29_004": "福井市明新小学校", "P29_005": "福井県福井市灯明寺1-2101", "P29_006": "3", "P29_007": "1", "P29_008": "00", "P29_009": null }, "geometry": { "type": "Point", "coordinates": [ 136.213043719696145, 36.091522656590861 ] } },
{ "type": "Feature", "properties": { "P29_001": "18404", "P29_002": "B118210001759", "P29_003": "16001", "P29_004": "南越前町立河野小学校", "P29_005": "福井県南条郡南越前町甲楽城13-1", "P29_006": "3", "P29_007": "1", "P29_008": "00", "P29_009": null }, "geometry": { "type": "Point", "coordinates": [ 136.055886475085771, 35.835646794799061 ] } },
{ "type": "Feature", "properties": { "P29_001": "18210", "P29_002": "B118210001768", "P29_003": "16001", "P29_004": "坂井市立磯部小学校", "P29_005": "福井県坂井市丸岡町上安田7-24", "P29_006": "3", "P29_007": "1", "P29_008": "00", "P29_009": null }, "geometry": { "type": "Point", "coordinates": [ 136.2568063652501, 36.123119767247225 ] } },
{ "type": "Feature", "properties": { "P29_001": "18201", "P29_002": "B118210001777", "P29_003": "16001", "P29_004": "福井市日新小学校", "P29_005": "福井県福井市文京5-25-30", "P29_006": "3", "P29_007": "1", "P29_008": "00", "P29_009": null }, "geometry": { "type": "Point", "coordinates": [ 136.20339382037713, 36.078609457537674 ] } },
{ "type": "Feature", "properties": { "P29_001": "18202", "P29_002": "B118210001786", "P29_003": "16001", "P29_004": "敦賀市立粟野南小学校", "P29_005": "福井県敦賀市公文名31-2-1", "P29_006": "3", "P29_007": "1", "P29_008": "00", "P29_009": null }, "geometry": { "type": "Point", "coordinates": [ 136.053636111015919, 35.618626964329579 ] } },
{ "type": "Feature", "properties": { "P29_001": "18483", "P29_002": "B118210001795", "P29_003": "16001", "P29_004": "名田庄小学校", "P29_005": "福井県大飯郡おおい町名田庄小倉6-1", "P29_006": "3", "P29_007": "1", "P29_008": "00", "P29_009": null }, "geometry": { "type": "Point", "coordinates": [ 135.667221929262496, 35.402746140879295 ] } },
{ "type": "Feature", "properties": { "P29_001": "18201", "P29_002": "B118210001802", "P29_003": "16001", "P29_004": "福井市清水北小学校", "P29_005": "福井県福井市グリーンハイツ5-101", "P29_006": "3", "P29_007": "1", "P29_008": "00", "P29_009": null }, "geometry": { "type": "Point", "coordinates": [ 136.164696305412292, 36.043017325814581 ] } },
{ "type": "Feature", "properties": { "P29_001": "18205", "P29_002": "B118210001811", "P29_003": "16001", "P29_004": "大野市有終東小学校", "P29_005": "福井県大野市美里町901", "P29_006": "3", "P29_007": "1", "P29_008": "00", "P29_009": null }, "geometry": { "type": "Point", "coordinates": [ 136.505759006097321, 35.98472726783465 ] } },
{ "type": "Feature", "properties": { "P29_001": "18207", "P29_002": "B118210001820", "P29_003": "16001", "P29_004": "鯖江市鳥羽小学校", "P29_005": "福井県鯖江市神明町4-1-38", "P29_006": "3", "P29_007": "1", "P29_008": "00", "P29_009": null }, "geometry": { "type": "Point", "coordinates": [ 136.187649705185748, 35.979181489979361 ] } },
{ "type": "Feature", "properties": { "P29_001": "18201", "P29_002": "B118210001839", "P29_003": "16001", "P29_004": "福井市清明小学校", "P29_005": "福井県福井市下荒井町第13-240", "P29_006": "3", "P29_007": "1", "P29_008": "00", "P29_009": null }, "geometry": { "type": "Point", "coordinates": [ 136.202715495541042, 36.025765237273134 ] } },
{ "type": "Feature", "properties": { "P29_001": "18202", "P29_002": "B118210001848", "P29_003": "16001", "P29_004": "敦賀市立中央小学校", "P29_005": "福井県敦賀市野神40-249", "P29_006": "3", "P29_007": "1", "P29_008": "00", "P29_009": null }, "geometry": { "type": "Point", "coordinates": [ 136.050369021175271, 35.638985709484864 ] } },
{ "type": "Feature", "properties": { "P29_001": "18201", "P29_002": "B118210001857", "P29_003": "16001", "P29_004": "福井市社西小学校", "P29_005": "福井県福井市下江守町22-18", "P29_006": "3", "P29_007": "1", "P29_008": "00", "P29_009": null }, "geometry": { "type": "Point", "coordinates": [ 136.17687539974267, 36.048177801306963 ] } },
{ "type": "Feature", "properties": { "P29_001": "18207", "P29_002": "B118210001866", "P29_003": "16001", "P29_004": "鯖江市進徳小学校", "P29_005": "福井県鯖江市長泉寺町2-5-1", "P29_006": "3", "P29_007": "1", "P29_008": "00", "P29_009": null }, "geometry": { "type": "Point", "coordinates": [ 136.185108518282902, 35.954601481924243 ] } },
{ "type": "Feature", "properties": { "P29_001": "18204", "P29_002": "B118210001875", "P29_003": "16001", "P29_004": "小浜市立内外海小学校", "P29_005": "福井県小浜市阿納尻45-9", "P29_006": "3", "P29_007": "1", "P29_008": "00", "P29_009": null }, "geometry": { "type": "Point", "coordinates": [ 135.764556353867903, 35.531720069021993 ] } },
{ "type": "Feature", "properties": { "P29_001": "18210", "P29_002": "B118210001884", "P29_003": "16001", "P29_004": "坂井市立明章小学校", "P29_005": "福井県坂井市丸岡町油為頭14-5", "P29_006": "3", "P29_007": "1", "P29_008": "00", "P29_009": null }, "geometry": { "type": "Point", "coordinates": [ 136.284577767276573, 36.124911808203407 ] } },
{ "type": "Feature", "properties": { "P29_001": "18423", "P29_002": "B118210001893", "P29_003": "16001", "P29_004": "越前町立城崎小学校", "P29_005": "福井県丹生郡越前町茂原4-8-1", "P29_006": "3", "P29_007": "1", "P29_008": "00", "P29_009": null }, "geometry": { "type": "Point", "coordinates": [ 135.998717697109697, 35.912468656794793 ] } },
{ "type": "Feature", "properties": { "P29_001": "18201", "P29_002": "B118210001900", "P29_003": "16001", "P29_004": "福井市本郷小学校", "P29_005": "福井県福井市大年町65-32", "P29_006": "3", "P29_007": "1", "P29_008": "00", "P29_009": null }, "geometry": { "type": "Point", "coordinates": [ 136.140496329246901, 36.114988649482534 ] } },
{ "type": "Feature", "properties": { "P29_001": "18382", "P29_002": "B118210001919", "P29_003": "16001", "P29_004": "池田小学校", "P29_005": "福井県今立郡池田町稲荷6-1", "P29_006": "3", "P29_007": "1", "P29_008": "00", "P29_009": null }, "geometry": { "type": "Point", "coordinates": [ 136.34122225100117, 35.88912943468906 ] } },
{ "type": "Feature", "properties": { "P29_001": "18442", "P29_002": "B118210001928", "P29_003": "16001", "P29_004": "美浜町立美浜西小学校", "P29_005": "福井県三方郡美浜町金山14-1", "P29_006": "3", "P29_007": "1", "P29_008": "00", "P29_009": null }, "geometry": { "type": "Point", "coordinates": [ 135.922781541087716, 35.602990090890565 ] } },
{ "type": "Feature", "properties": { "P29_001": "18442", "P29_002": "B118210001937", "P29_003": "16001", "P29_004": "美浜町立美浜中央小学校", "P29_005": "福井県三方郡美浜町河原市8-2", "P29_006": "3", "P29_007": "1", "P29_008": "00", "P29_009": null }, "geometry": { "type": "Point", "coordinates": [ 135.946456225422565, 35.602870782974811 ] } },
{ "type": "Feature", "properties": { "P29_001": "18442", "P29_002": "B118210001946", "P29_003": "16001", "P29_004": "美浜町立美浜東小学校", "P29_005": "福井県三方郡美浜町佐田69-4", "P29_006": "3", "P29_007": "1", "P29_008": "00", "P29_009": null }, "geometry": { "type": "Point", "coordinates": [ 135.985322202115583, 35.628936136555332 ] } },
{ "type": "Feature", "properties": { "P29_001": "18204", "P29_002": "B118210001955", "P29_003": "16001", "P29_004": "小浜市立小浜美郷小学校", "P29_005": "福井県小浜市金屋39-8", "P29_006": "3", "P29_007": "1", "P29_008": "00", "P29_009": null }, "geometry": { "type": "Point", "coordinates": [ 135.785423971959943, 35.485518436125602 ] } },
{ "type": "Feature", "properties": { "P29_001": "18201", "P29_002": "B118210001964", "P29_003": "16001", "P29_004": "福井市杉坂小学校", "P29_005": "福井県福井市本折町第48-2", "P29_006": "3", "P29_007": "1", "P29_008": "00", "P29_009": null }, "geometry": { "type": "Point", "coordinates": [ 136.113430943228479, 36.033594771346529 ] } },
{ "type": "Feature", "properties": { "P29_001": "18202", "P29_002": "B118210001973", "P29_003": "16001", "P29_004": "敦賀市立角鹿小学校", "P29_005": "福井県敦賀市角鹿町6-1", "P29_006": "3", "P29_007": "1", "P29_008": "00", "P29_009": null }, "geometry": { "type": "Point", "coordinates": [ 136.078162101770261, 35.654568611771296 ] } },
{ "type": "Feature", "properties": { "P29_001": "18206", "P29_002": "B118310000017", "P29_003": "16001", "P29_004": "かつやま子どもの村小学校", "P29_005": "福井県勝山市北谷町河合5-3", "P29_006": "4", "P29_007": "1", "P29_008": "00", "P29_009": null }, "geometry": { "type": "Point", "coordinates": [ 136.563089006056231, 36.108385998120582 ] } }
]
}
