{
"type": "FeatureCollection",
"name": "geo_18_福祉用具貸与",
"crs": { "type": "name", "properties": { "name": "urn:ogc:def:crs:OGC:1.3:CRS84" } },
"features": [
{ "type": "Feature", "properties": { "内容": "株式会社　近新　福祉関連事業部【福祉用具貸与】福井県福井市開発5丁目1304番地", "url": "https://www.kaigokensaku.mhlw.go.jp/18/index.php?action_kouhyou_detail_004_kani=true&JigyosyoCd=1870101092-00&ServiceCd=170&Type=search", "url2": "http://www.kinsin.co.jp/" }, "geometry": { "type": "Point", "coordinates": [ 136.243731, 36.0865209 ] } },
{ "type": "Feature", "properties": { "内容": "株式会社アスピカ　民救サービス【福祉用具貸与】福井市開発5丁目101-1", "url": "https://www.kaigokensaku.mhlw.go.jp/18/index.php?action_kouhyou_detail_004_kani=true&JigyosyoCd=1870102199-00&ServiceCd=170&Type=search", "url2": "http://www.aspica.co.jp/" }, "geometry": { "type": "Point", "coordinates": [ 136.237597262779218, 36.085023672741272 ] } },
{ "type": "Feature", "properties": { "内容": "ふくし百選　福井【福祉用具貸与】福井市日之出１丁目14-23福燃ビル3Ｆ", "url": "https://www.kaigokensaku.mhlw.go.jp/18/index.php?action_kouhyou_detail_004_kani=true&JigyosyoCd=1870102413-00&ServiceCd=170&Type=search", "url2": "http://www.hs-k.co.jp/fukushi/rent_sales/fukui.html" }, "geometry": { "type": "Point", "coordinates": [ 136.2270294, 36.0638894 ] } },
{ "type": "Feature", "properties": { "内容": "合同会社ＩＺＵＭＯ【福祉用具貸与】福井県福井市志比口3丁目3－39", "url": "https://www.kaigokensaku.mhlw.go.jp/18/index.php?action_kouhyou_detail_004_kani=true&JigyosyoCd=1870102538-00&ServiceCd=170&Type=search", "url2": null }, "geometry": { "type": "Point", "coordinates": [ 136.237459, 36.0723695 ] } },
{ "type": "Feature", "properties": { "内容": "サンテケア【福祉用具貸与】福井県福井市二の宮３－１４－２５パセオ二の宮１F", "url": "https://www.kaigokensaku.mhlw.go.jp/18/index.php?action_kouhyou_detail_004_kani=true&JigyosyoCd=1871700918-00&ServiceCd=170&Type=search", "url2": null }, "geometry": { "type": "Point", "coordinates": [ 136.220386114222748, 36.08457276602536 ] } },
{ "type": "Feature", "properties": { "内容": "株式会社ヤマシタ福井営業所【福祉用具貸与】福井市和田東1丁目608番地", "url": "https://www.kaigokensaku.mhlw.go.jp/18/index.php?action_kouhyou_detail_004_kani=true&JigyosyoCd=1870100284-00&ServiceCd=170&Type=search", "url2": "http://www.yco.co.jp/" }, "geometry": { "type": "Point", "coordinates": [ 136.249320300000022, 36.0536638 ] } },
{ "type": "Feature", "properties": { "内容": "県民せいきょう福祉用具レンタル事業所【福祉用具貸与】福井市開発5丁目1603番地福井県民生活協同組合", "url": "https://www.kaigokensaku.mhlw.go.jp/18/index.php?action_kouhyou_detail_004_kani=true&JigyosyoCd=1870100680-00&ServiceCd=170&Type=search", "url2": "http://www.fukui.coop/care/kaigohoken/#assistive" }, "geometry": { "type": "Point", "coordinates": [ 136.199007745033214, 36.03721944522475 ] } },
{ "type": "Feature", "properties": { "内容": "ウェルストック【福祉用具貸与】福井県福井市大町1丁目716番地パーク大町101号室.102号室", "url": "https://www.kaigokensaku.mhlw.go.jp/18/index.php?action_kouhyou_detail_004_kani=true&JigyosyoCd=1870103973-00&ServiceCd=170&Type=search", "url2": "http://www.nextus-japan.com" }, "geometry": { "type": "Point", "coordinates": [ 136.2192114, 36.0358068 ] } },
{ "type": "Feature", "properties": { "内容": "アクシアメディカル合同会社【福祉用具貸与】福井県福井市堀ノ宮1丁目119西川ビル1F", "url": "https://www.kaigokensaku.mhlw.go.jp/18/index.php?action_kouhyou_detail_004_kani=true&JigyosyoCd=1870103940-00&ServiceCd=170&Type=search", "url2": null }, "geometry": { "type": "Point", "coordinates": [ 136.197390168122894, 36.080670473812766 ] } },
{ "type": "Feature", "properties": { "内容": "株式会社ミタス【福祉用具貸与】問屋町4丁目901", "url": "https://www.kaigokensaku.mhlw.go.jp/18/index.php?action_kouhyou_detail_004_kani=true&JigyosyoCd=1870102173-00&ServiceCd=170&Type=search", "url2": "http://ansin-do.jp/" }, "geometry": { "type": "Point", "coordinates": [ 136.257139300000063, 36.0522975 ] } },
{ "type": "Feature", "properties": { "内容": "ネクスタス株式会社【福祉用具貸与】福井県福井市久喜津町55-5", "url": "https://www.kaigokensaku.mhlw.go.jp/18/index.php?action_kouhyou_detail_004_kani=true&JigyosyoCd=1870103403-00&ServiceCd=170&Type=search", "url2": "http://www.nextus-japan.com" }, "geometry": { "type": "Point", "coordinates": [ 136.174967351338154, 36.053012324942792 ] } },
{ "type": "Feature", "properties": { "内容": "㈱LIFE【福祉用具貸与】福井県福井市城東1丁目14-1", "url": "https://www.kaigokensaku.mhlw.go.jp/18/index.php?action_kouhyou_detail_004_kani=true&JigyosyoCd=1870103577-00&ServiceCd=170&Type=search", "url2": "https://www.life0418.com" }, "geometry": { "type": "Point", "coordinates": [ 136.232480392049098, 36.060207909622122 ] } },
{ "type": "Feature", "properties": { "内容": "アルクス株式会社【福祉用具貸与】福井県福井市高木中央２丁目３１２１番", "url": "https://www.kaigokensaku.mhlw.go.jp/18/index.php?action_kouhyou_detail_004_kani=true&JigyosyoCd=1870103049-00&ServiceCd=170&Type=search", "url2": null }, "geometry": { "type": "Point", "coordinates": [ 136.235963985844364, 36.092791867084536 ] } },
{ "type": "Feature", "properties": { "内容": "福井シルバーサービスセンター【福祉用具貸与】福井県福井市四ッ井1丁目1-6", "url": "https://www.kaigokensaku.mhlw.go.jp/18/index.php?action_kouhyou_detail_004_kani=true&JigyosyoCd=1870100862-00&ServiceCd=170&Type=search", "url2": null }, "geometry": { "type": "Point", "coordinates": [ 136.234915, 36.0642842 ] } },
{ "type": "Feature", "properties": { "内容": "株式会社　端野メディカル【福祉用具貸与】福井市町屋３丁目１２－１２", "url": "https://www.kaigokensaku.mhlw.go.jp/18/index.php?action_kouhyou_detail_004_kani=true&JigyosyoCd=1870100326-00&ServiceCd=170&Type=search", "url2": "http://www.hashino-medical.co.jp" }, "geometry": { "type": "Point", "coordinates": [ 136.228315299999963, 36.078796 ] } },
{ "type": "Feature", "properties": { "内容": "株式会社　　仁愛ケアサービス【福祉用具貸与】福井市乾徳４丁目５－５", "url": "https://www.kaigokensaku.mhlw.go.jp/18/index.php?action_kouhyou_detail_004_kani=true&JigyosyoCd=1870100565-00&ServiceCd=170&Type=search", "url2": "http://www.jinai-cs.co.jp" }, "geometry": { "type": "Point", "coordinates": [ 136.205609099999947, 36.0711715 ] } },
{ "type": "Feature", "properties": { "内容": "株式会社メディペック　福井営業所【福祉用具貸与】福井市和田東２丁目1518番地", "url": "https://www.kaigokensaku.mhlw.go.jp/18/index.php?action_kouhyou_detail_004_kani=true&JigyosyoCd=1870102108-00&ServiceCd=170&Type=search", "url2": "http://www.centralmedical.co.jp/medipec01.html" }, "geometry": { "type": "Point", "coordinates": [ 136.250056104507394, 36.050635082236326 ] } },
{ "type": "Feature", "properties": { "内容": "ダスキンヘルスレント福井ステーション【福祉用具貸与】大手２丁目15-11", "url": "https://www.kaigokensaku.mhlw.go.jp/18/index.php?action_kouhyou_detail_004_kani=true&JigyosyoCd=1870103825-00&ServiceCd=170&Type=search", "url2": "https://healthrent.duskin.jp" }, "geometry": { "type": "Point", "coordinates": [ 136.225364500000012, 36.0663203 ] } },
{ "type": "Feature", "properties": { "内容": "合同会社　はあとｉｎ【福祉用具貸与】古市三丁目506番1", "url": "https://www.kaigokensaku.mhlw.go.jp/18/index.php?action_kouhyou_detail_004_kani=true&JigyosyoCd=1870102694-00&ServiceCd=170&Type=search", "url2": null }, "geometry": { "type": "Point", "coordinates": [ 136.226404900000034, 36.1052872 ] } },
{ "type": "Feature", "properties": { "内容": "有限会社　ウェルネス・シモノ【福祉用具貸与】福井県敦賀市野神１番１７号", "url": "https://www.kaigokensaku.mhlw.go.jp/18/index.php?action_kouhyou_detail_004_kani=true&JigyosyoCd=1870200076-00&ServiceCd=170&Type=search", "url2": "http://www.well-shimono.com/" }, "geometry": { "type": "Point", "coordinates": [ 136.053727400000071, 35.6367312 ] } },
{ "type": "Feature", "properties": { "内容": "大鉄ケアーサプライ事業部【福祉用具貸与】福井県敦賀市中央町2丁目１５０５", "url": "https://www.kaigokensaku.mhlw.go.jp/18/index.php?action_kouhyou_detail_004_kani=true&JigyosyoCd=1870200068-00&ServiceCd=170&Type=search", "url2": null }, "geometry": { "type": "Point", "coordinates": [ 136.0544132, 35.6435361 ] } },
{ "type": "Feature", "properties": { "内容": "敦賀市社会福祉協議会指定福祉用具貸与事業所「ぬくもりの里」【福祉用具貸与】敦賀市御名70号11番地２　敦賀市社会福祉協議会地域リハビリセンター「ぬくもりの里」内", "url": "https://www.kaigokensaku.mhlw.go.jp/18/index.php?action_kouhyou_detail_004_kani=true&JigyosyoCd=1870200209-00&ServiceCd=170&Type=search", "url2": "http://tsurugashishakyo.ec-net.jp/" }, "geometry": { "type": "Point", "coordinates": [ 136.047911399999947, 35.6088234 ] } },
{ "type": "Feature", "properties": { "内容": "株式会社ヤサカ　福井営業所【福祉用具貸与】遠敷6-104", "url": "https://www.kaigokensaku.mhlw.go.jp/18/index.php?action_kouhyou_detail_004_kani=true&JigyosyoCd=1870400379-00&ServiceCd=170&Type=search", "url2": "http://www.daisuki-kaigo.com/" }, "geometry": { "type": "Point", "coordinates": [ 135.780472199999963, 35.4845813 ] } },
{ "type": "Feature", "properties": { "内容": "株式会社KADUアシスト【福祉用具貸与】福井県小浜市小浜竜田10番地", "url": "https://www.kaigokensaku.mhlw.go.jp/18/index.php?action_kouhyou_detail_004_kani=true&JigyosyoCd=1870400452-00&ServiceCd=170&Type=search", "url2": null }, "geometry": { "type": "Point", "coordinates": [ 135.74266369999998, 35.4942071 ] } },
{ "type": "Feature", "properties": { "内容": "レンタル　わかさ【福祉用具貸与】深野２０－１２", "url": "https://www.kaigokensaku.mhlw.go.jp/18/index.php?action_kouhyou_detail_004_kani=true&JigyosyoCd=1870400478-00&ServiceCd=170&Type=search", "url2": null }, "geometry": { "type": "Point", "coordinates": [ 135.634044100000011, 34.7180511 ] } },
{ "type": "Feature", "properties": { "内容": "大野衛生設備株式会社【福祉用具貸与】東中町301", "url": "https://www.kaigokensaku.mhlw.go.jp/18/index.php?action_kouhyou_detail_004_kani=true&JigyosyoCd=1870500228-00&ServiceCd=170&Type=search", "url2": "https://onoeisei.com" }, "geometry": { "type": "Point", "coordinates": [ 136.504617300000092, 35.9802896 ] } },
{ "type": "Feature", "properties": { "内容": "（有）トータルインルームたにうちメディカル事業部【福祉用具貸与】福井県勝山市郡町１丁目２－５１", "url": "https://www.kaigokensaku.mhlw.go.jp/18/index.php?action_kouhyou_detail_004_kani=true&JigyosyoCd=1870600069-00&ServiceCd=170&Type=search", "url2": null }, "geometry": { "type": "Point", "coordinates": [ 136.497528500000044, 36.0696883 ] } },
{ "type": "Feature", "properties": { "内容": "ほっとリハビリ福祉用具センター【福祉用具貸与】福井県鯖江市鳥羽町107-70", "url": "https://www.kaigokensaku.mhlw.go.jp/18/index.php?action_kouhyou_detail_004_kani=true&JigyosyoCd=1870300686-00&ServiceCd=170&Type=search", "url2": "http://www.hotreha.com" }, "geometry": { "type": "Point", "coordinates": [ 136.199140745327639, 35.985765288314404 ] } },
{ "type": "Feature", "properties": { "内容": "福井トータルケア株式会社【福祉用具貸与】福井県鯖江市水落町１丁目５－３５", "url": "https://www.kaigokensaku.mhlw.go.jp/18/index.php?action_kouhyou_detail_004_kani=true&JigyosyoCd=1870700075-00&ServiceCd=170&Type=search", "url2": "http://fukui-tc.com/" }, "geometry": { "type": "Point", "coordinates": [ 136.181580339286853, 35.961103452273846 ] } },
{ "type": "Feature", "properties": { "内容": "株式会社川崎家具介護事業部【福祉用具貸与】福井県あわら市市姫二丁目１８－９", "url": "https://www.kaigokensaku.mhlw.go.jp/18/index.php?action_kouhyou_detail_004_kani=true&JigyosyoCd=1870800172-00&ServiceCd=170&Type=search", "url2": "kwskkagu@yacht.ocn.ne.jp" }, "geometry": { "type": "Point", "coordinates": [ 136.229137400000013, 36.2140335 ] } },
{ "type": "Feature", "properties": { "内容": "訪問看護リハビリステーション　蕾【福祉用具貸与】福井県越前市家久町55-13-3", "url": "https://www.kaigokensaku.mhlw.go.jp/18/index.php?action_kouhyou_detail_004_kani=true&JigyosyoCd=1870300892-00&ServiceCd=170&Type=search", "url2": "http://tsubomi-houmonkango.com" }, "geometry": { "type": "Point", "coordinates": [ 136.164090699999946, 35.9314701 ] } },
{ "type": "Feature", "properties": { "内容": "ケアファースト株式会社【福祉用具貸与】福井県越前市瓜生町３１－１", "url": "https://www.kaigokensaku.mhlw.go.jp/18/index.php?action_kouhyou_detail_004_kani=true&JigyosyoCd=1870300876-00&ServiceCd=170&Type=search", "url2": "http://ichibankaigo.jp" }, "geometry": { "type": "Point", "coordinates": [ 136.186994899999945, 35.9262572 ] } },
{ "type": "Feature", "properties": { "内容": "サンライフ小野谷【福祉用具貸与】福井県越前市本多1丁目2-2", "url": "https://www.kaigokensaku.mhlw.go.jp/18/index.php?action_kouhyou_detail_004_kani=true&JigyosyoCd=1870300975-00&ServiceCd=170&Type=search", "url2": "http://sunlifeonodani.jp/" }, "geometry": { "type": "Point", "coordinates": [ 136.163851581465565, 35.904830815034806 ] } },
{ "type": "Feature", "properties": { "内容": "有限会社　フヂモト介護堂【福祉用具貸与】福井県坂井市丸岡町上安田５－１", "url": "https://www.kaigokensaku.mhlw.go.jp/18/index.php?action_kouhyou_detail_004_kani=true&JigyosyoCd=1871700181-00&ServiceCd=170&Type=search", "url2": null }, "geometry": { "type": "Point", "coordinates": [ 136.256051699999944, 36.1220202 ] } },
{ "type": "Feature", "properties": { "内容": "ケアシステム【福祉用具貸与】福井県坂井市坂井町上兵庫３８－９－１", "url": "https://www.kaigokensaku.mhlw.go.jp/18/index.php?action_kouhyou_detail_004_kani=true&JigyosyoCd=1871700652-00&ServiceCd=170&Type=search", "url2": "http://www.caresys.co.jp" }, "geometry": { "type": "Point", "coordinates": [ 136.219977699999959, 36.1673636 ] } },
{ "type": "Feature", "properties": { "内容": "BestFeel【福祉用具貸与】福井県坂井市春江町西長田４０－４６", "url": "https://www.kaigokensaku.mhlw.go.jp/18/index.php?action_kouhyou_detail_004_kani=true&JigyosyoCd=1871701064-00&ServiceCd=170&Type=search", "url2": "https://heart2-caring.co.jp/equipment/" }, "geometry": { "type": "Point", "coordinates": [ 136.201311859411106, 36.156940372459033 ] } },
{ "type": "Feature", "properties": { "内容": "ケアふくい福祉用具レンタル・販売センター【福祉用具貸与】福井県吉田郡永平寺町松岡薬師1-145株式会社ケアふくい", "url": "https://www.kaigokensaku.mhlw.go.jp/18/index.php?action_kouhyou_detail_004_kani=true&JigyosyoCd=1871600126-00&ServiceCd=170&Type=search", "url2": null }, "geometry": { "type": "Point", "coordinates": [ 136.304522099999986, 36.0974116 ] } },
{ "type": "Feature", "properties": { "内容": "ケアふくい福祉用具レンタル・販売センター【福祉用具貸与】松岡薬師1-145", "url": "https://www.kaigokensaku.mhlw.go.jp/18/index.php?action_kouhyou_detail_004_kani=true&JigyosyoCd=1871600316-00&ServiceCd=170&Type=search", "url2": null }, "geometry": { "type": "Point", "coordinates": [ 136.3059321, 36.0961674 ] } },
{ "type": "Feature", "properties": { "内容": "アイちゃん堂【福祉用具貸与】福井県三方上中郡若狭町気山296-9-2", "url": "https://www.kaigokensaku.mhlw.go.jp/18/index.php?action_kouhyou_detail_004_kani=true&JigyosyoCd=1872400013-00&ServiceCd=170&Type=search", "url2": "http://www.fukushi-ai.com/" }, "geometry": { "type": "Point", "coordinates": [ 135.909056299999946, 35.565909 ] } },
{ "type": "Feature", "properties": { "内容": "有限会社創栄産業　福祉事業部　クリエフ【福祉用具貸与】北前川29-1-1", "url": "https://www.kaigokensaku.mhlw.go.jp/18/index.php?action_kouhyou_detail_004_kani=true&JigyosyoCd=1872400112-00&ServiceCd=170&Type=search", "url2": "http://soei-gp.com" }, "geometry": { "type": "Point", "coordinates": [ 134.549488399999973, 34.0818215 ] } },
{ "type": "Feature", "properties": { "内容": "株式会社ハシノメディカル　嶺南営業所【福祉用具貸与】三方上中郡若狭町井ノ口30号友鹿13-1", "url": "https://www.kaigokensaku.mhlw.go.jp/18/index.php?action_kouhyou_detail_004_kani=true&JigyosyoCd=1872400153-00&ServiceCd=170&Type=search", "url2": "http://www.hashino-medical.co.jp/" }, "geometry": { "type": "Point", "coordinates": [ 135.855980499999987, 35.4625739 ] } }
]
}
