{
"type": "FeatureCollection",
"name": "geo_18_高校",
"crs": { "type": "name", "properties": { "name": "urn:ogc:def:crs:EPSG::6668" } },
"features": [
{ "type": "Feature", "properties": { "P29_001": "18201", "P29_002": "D118210000015", "P29_003": "16004", "P29_004": "福井県立藤島高等学校", "P29_005": "福井県福井市文京2-8-30", "P29_006": "2", "P29_007": "0", "P29_008": "00", "P29_009": null }, "geometry": { "type": "Point", "coordinates": [ 136.216466395048002, 36.079513841211842 ] } },
{ "type": "Feature", "properties": { "P29_001": "18201", "P29_002": "D118210000024", "P29_003": "16004", "P29_004": "福井県立高志高等学校", "P29_005": "福井県福井市御幸2-25-8", "P29_006": "2", "P29_007": "0", "P29_008": "00", "P29_009": null }, "geometry": { "type": "Point", "coordinates": [ 136.232261867485846, 36.059079218878402 ] } },
{ "type": "Feature", "properties": { "P29_001": "18201", "P29_002": "D118210000033", "P29_003": "16004", "P29_004": "福井県立羽水高等学校", "P29_005": "福井県福井市羽水1-302", "P29_006": "2", "P29_007": "0", "P29_008": "00", "P29_009": null }, "geometry": { "type": "Point", "coordinates": [ 136.228271255201378, 36.042303151933091 ] } },
{ "type": "Feature", "properties": { "P29_001": "18210", "P29_002": "D118210000042", "P29_003": "16004", "P29_004": "福井県立三国高等学校", "P29_005": "福井県坂井市三国町緑ヶ丘2-1-3", "P29_006": "2", "P29_007": "0", "P29_008": "00", "P29_009": null }, "geometry": { "type": "Point", "coordinates": [ 136.153222797574216, 36.21862442025926 ] } },
{ "type": "Feature", "properties": { "P29_001": "18210", "P29_002": "D118210000051", "P29_003": "16004", "P29_004": "福井県立丸岡高等学校", "P29_005": "福井県坂井市丸岡町篠岡23-11-1", "P29_006": "2", "P29_007": "0", "P29_008": "01", "P29_009": null }, "geometry": { "type": "Point", "coordinates": [ 136.284053686208154, 36.149779453188771 ] } },
{ "type": "Feature", "properties": { "P29_001": "18205", "P29_002": "D118210000060", "P29_003": "16004", "P29_004": "福井県立大野高等学校", "P29_005": "福井県大野市新庄10-28", "P29_006": "2", "P29_007": "0", "P29_008": "00", "P29_009": null }, "geometry": { "type": "Point", "coordinates": [ 136.484332950178185, 35.972800139570907 ] } },
{ "type": "Feature", "properties": { "P29_001": "18206", "P29_002": "D118210000079", "P29_003": "16004", "P29_004": "福井県立勝山高等学校", "P29_005": "福井県勝山市昭和町2-3-1", "P29_006": "2", "P29_007": "0", "P29_008": "00", "P29_009": null }, "geometry": { "type": "Point", "coordinates": [ 136.50776889277293, 36.065461926191389 ] } },
{ "type": "Feature", "properties": { "P29_001": "18207", "P29_002": "D118210000088", "P29_003": "16004", "P29_004": "福井県立鯖江高等学校", "P29_005": "福井県鯖江市舟津町2-5-42", "P29_006": "2", "P29_007": "0", "P29_008": "00", "P29_009": null }, "geometry": { "type": "Point", "coordinates": [ 136.183625160280087, 35.937617258560905 ] } },
{ "type": "Feature", "properties": { "P29_001": "18423", "P29_002": "D118210000097", "P29_003": "16004", "P29_004": "福井県立丹生高等学校", "P29_005": "福井県丹生郡越前町内郡41-18-1", "P29_006": "2", "P29_007": "0", "P29_008": "00", "P29_009": null }, "geometry": { "type": "Point", "coordinates": [ 136.120690654382372, 35.975647211119366 ] } },
{ "type": "Feature", "properties": { "P29_001": "18209", "P29_002": "D118210000104", "P29_003": "16004", "P29_004": "福井県立武生高等学校", "P29_005": "福井県越前市八幡1-25-15", "P29_006": "2", "P29_007": "0", "P29_008": "00", "P29_009": null }, "geometry": { "type": "Point", "coordinates": [ 136.175925950723638, 35.910030783833946 ] } },
{ "type": "Feature", "properties": { "P29_001": "18202", "P29_002": "D118210000113", "P29_003": "16004", "P29_004": "福井県立敦賀高等学校", "P29_005": "福井県敦賀市松葉町2-1", "P29_006": "2", "P29_007": "0", "P29_008": "00", "P29_009": null }, "geometry": { "type": "Point", "coordinates": [ 136.049084254486019, 35.651127560955132 ] } },
{ "type": "Feature", "properties": { "P29_001": "18204", "P29_002": "D118210000122", "P29_003": "16004", "P29_004": "福井県立若狭高等学校", "P29_005": "福井県小浜市千種1-6-13", "P29_006": "2", "P29_007": "0", "P29_008": "00", "P29_009": null }, "geometry": { "type": "Point", "coordinates": [ 135.750932734307497, 35.497767962180689 ] } },
{ "type": "Feature", "properties": { "P29_001": "18201", "P29_002": "D118210000131", "P29_003": "16004", "P29_004": "福井県立福井農林高等学校", "P29_005": "福井県福井市新保町49-1", "P29_006": "2", "P29_007": "0", "P29_008": "00", "P29_009": null }, "geometry": { "type": "Point", "coordinates": [ 136.252865568802804, 36.079197916278616 ] } },
{ "type": "Feature", "properties": { "P29_001": "18204", "P29_002": "D118210000140", "P29_003": "16004", "P29_004": "福井県立若狭東高等学校", "P29_005": "福井県小浜市金屋48-2", "P29_006": "2", "P29_007": "0", "P29_008": "00", "P29_009": null }, "geometry": { "type": "Point", "coordinates": [ 135.78219641326578, 35.476513490095904 ] } },
{ "type": "Feature", "properties": { "P29_001": "18202", "P29_002": "D118210000168", "P29_003": "16004", "P29_004": "福井県立敦賀工業高等学校", "P29_005": "福井県敦賀市山泉13-1", "P29_006": "2", "P29_007": "0", "P29_008": "00", "P29_009": null }, "geometry": { "type": "Point", "coordinates": [ 136.067208347226881, 35.622202756720164 ] } },
{ "type": "Feature", "properties": { "P29_001": "18201", "P29_002": "D118210000177", "P29_003": "16004", "P29_004": "福井県立福井商業高等学校", "P29_005": "福井県福井市乾徳4-8-19", "P29_006": "2", "P29_007": "0", "P29_008": "00", "P29_009": null }, "geometry": { "type": "Point", "coordinates": [ 136.206255003923161, 36.073567387890357 ] } },
{ "type": "Feature", "properties": { "P29_001": "18442", "P29_002": "D118210000195", "P29_003": "16004", "P29_004": "福井県立美方高等学校", "P29_005": "福井県三方上中郡若狭町気山114-1-1", "P29_006": "2", "P29_007": "0", "P29_008": "00", "P29_009": null }, "geometry": { "type": "Point", "coordinates": [ 135.9127023066726, 35.586523497267308 ] } },
{ "type": "Feature", "properties": { "P29_001": "18201", "P29_002": "D118210000202", "P29_003": "16004", "P29_004": "福井県立道守高等学校", "P29_005": "福井県福井市若杉町35-21", "P29_006": "2", "P29_007": "0", "P29_008": "00", "P29_009": null }, "geometry": { "type": "Point", "coordinates": [ 136.179909370552963, 36.056232229097539 ] } },
{ "type": "Feature", "properties": { "P29_001": "18201", "P29_002": "D118210000211", "P29_003": "16004", "P29_004": "福井県立科学技術高等学校", "P29_005": "福井県福井市下江守町28", "P29_006": "2", "P29_007": "0", "P29_008": "00", "P29_009": null }, "geometry": { "type": "Point", "coordinates": [ 136.179212004947885, 36.046383995064936 ] } },
{ "type": "Feature", "properties": { "P29_001": "18201", "P29_002": "D118210000220", "P29_003": "16004", "P29_004": "福井県立足羽高等学校", "P29_005": "福井県福井市杉谷町44", "P29_006": "2", "P29_007": "0", "P29_008": "00", "P29_009": null }, "geometry": { "type": "Point", "coordinates": [ 136.195792125604839, 36.008496540578129 ] } },
{ "type": "Feature", "properties": { "P29_001": "18208", "P29_002": "D118210000248", "P29_003": "16004", "P29_004": "福井県立金津高等学校", "P29_005": "福井県あわら市市姫4-5-1", "P29_006": "2", "P29_007": "0", "P29_008": "00", "P29_009": null }, "geometry": { "type": "Point", "coordinates": [ 136.228136119611605, 36.208279559894471 ] } },
{ "type": "Feature", "properties": { "P29_001": "18209", "P29_002": "D118210000257", "P29_003": "16004", "P29_004": "福井県立武生東高等学校", "P29_005": "福井県越前市北町89-10", "P29_006": "2", "P29_007": "0", "P29_008": "00", "P29_009": null }, "geometry": { "type": "Point", "coordinates": [ 136.218352539618934, 35.908323609695785 ] } },
{ "type": "Feature", "properties": { "P29_001": "18205", "P29_002": "D118210000266", "P29_003": "16004", "P29_004": "福井県立奥越明成高等学校", "P29_005": "福井県大野市友江9-10", "P29_006": "2", "P29_007": "0", "P29_008": "00", "P29_009": null }, "geometry": { "type": "Point", "coordinates": [ 136.501728780550366, 35.999508523628492 ] } },
{ "type": "Feature", "properties": { "P29_001": "18210", "P29_002": "D118210000275", "P29_003": "16004", "P29_004": "福井県立坂井高等学校", "P29_005": "福井県坂井市坂井町宮領57-5", "P29_006": "2", "P29_007": "0", "P29_008": "00", "P29_009": null }, "geometry": { "type": "Point", "coordinates": [ 136.238250744331765, 36.16295982507431 ] } },
{ "type": "Feature", "properties": { "P29_001": "18209", "P29_002": "D118210000284", "P29_003": "16004", "P29_004": "福井県立武生商工高等学校", "P29_005": "福井県越前市文京1-14-16", "P29_006": "2", "P29_007": "0", "P29_008": "00", "P29_009": null }, "geometry": { "type": "Point", "coordinates": [ 136.16283236349463, 35.889320091627894 ] } },
{ "type": "Feature", "properties": { "P29_001": "18201", "P29_002": "D118310000013", "P29_003": "16004", "P29_004": "北陸高等学校", "P29_005": "福井県福井市文京1-8-1", "P29_006": "4", "P29_007": "0", "P29_008": "00", "P29_009": null }, "geometry": { "type": "Point", "coordinates": [ 136.220502227505676, 36.075813939626087 ] } },
{ "type": "Feature", "properties": { "P29_001": "18201", "P29_002": "D118310000022", "P29_003": "16004", "P29_004": "仁愛女子高等学校", "P29_005": "福井県福井市宝永4-9-24", "P29_006": "4", "P29_007": "0", "P29_008": "00", "P29_009": null }, "geometry": { "type": "Point", "coordinates": [ 136.21871554011787, 36.067890779672588 ] } },
{ "type": "Feature", "properties": { "P29_001": "18201", "P29_002": "D118310000031", "P29_003": "16004", "P29_004": "福井工業大学附属福井高等学校", "P29_005": "福井県福井市学園3-6-1", "P29_006": "4", "P29_007": "0", "P29_008": "00", "P29_009": null }, "geometry": { "type": "Point", "coordinates": [ 136.195962327077666, 36.069030177252728 ] } },
{ "type": "Feature", "properties": { "P29_001": "18201", "P29_002": "D118310000040", "P29_003": "16004", "P29_004": "啓新高等学校", "P29_005": "福井県福井市文京4-15-1", "P29_006": "4", "P29_007": "0", "P29_008": "00", "P29_009": null }, "geometry": { "type": "Point", "coordinates": [ 136.208693119821163, 36.076751064488349 ] } },
{ "type": "Feature", "properties": { "P29_001": "18202", "P29_002": "D118310000059", "P29_003": "16004", "P29_004": "敦賀国際令和高等学校", "P29_005": "福井県敦賀市長谷65-98", "P29_006": "4", "P29_007": "0", "P29_008": "00", "P29_009": null }, "geometry": { "type": "Point", "coordinates": [ 136.046026233084604, 35.606378763138679 ] } },
{ "type": "Feature", "properties": { "P29_001": "18202", "P29_002": "D118310000068", "P29_003": "16004", "P29_004": "敦賀気比高等学校", "P29_005": "福井県敦賀市沓見164-1", "P29_006": "4", "P29_007": "0", "P29_008": "00", "P29_009": null }, "geometry": { "type": "Point", "coordinates": [ 136.030947445077516, 35.645102023076177 ] } },
{ "type": "Feature", "properties": { "P29_001": "18201", "P29_002": "D118310000077", "P29_003": "16004", "P29_004": "福井南高等学校", "P29_005": "福井県福井市新開町15-12", "P29_006": "4", "P29_007": "0", "P29_008": "00", "P29_009": null }, "geometry": { "type": "Point", "coordinates": [ 136.218813639967465, 36.015498519498671 ] } },
{ "type": "Feature", "properties": { "P29_001": "18204", "P29_002": "D118310000086", "P29_003": "16004", "P29_004": "ＡＯＩＫＥ高等学校", "P29_005": "福井県小浜市小浜広峰108", "P29_006": "4", "P29_007": "0", "P29_008": "00", "P29_009": null }, "geometry": { "type": "Point", "coordinates": [ 135.744004595857547, 35.498383823563266 ] } },
{ "type": "Feature", "properties": { "P29_001": "18210", "P29_002": "D118210000051", "P29_003": "16004", "P29_004": "福井県立丸岡高等学校", "P29_005": "福井県坂井市丸岡町内田13-6", "P29_006": "2", "P29_007": "0", "P29_008": "02", "P29_009": "定時制" }, "geometry": { "type": "Point", "coordinates": [ 136.281417519338135, 36.146625076750531 ] } }
]
}
