{
"type": "FeatureCollection",
"name": "geo_18_特定福祉用具販売",
"crs": { "type": "name", "properties": { "name": "urn:ogc:def:crs:OGC:1.3:CRS84" } },
"features": [
{ "type": "Feature", "properties": { "内容": "株式会社　近新　福祉関連事業部【特定福祉用具販売】福井県福井市開発５丁目1304番地", "url": "https://www.kaigokensaku.mhlw.go.jp/18/index.php?action_kouhyou_detail_004_kani=true&JigyosyoCd=1870101092-00&ServiceCd=410&Type=search", "url2": "http://www.kinsin.co.jp/" }, "geometry": { "type": "Point", "coordinates": [ 136.243621399999938, 36.0866283 ] } },
{ "type": "Feature", "properties": { "内容": "株式会社　仁愛ケアサービス【特定福祉用具販売】福井市乾徳４丁目5-5", "url": "https://www.kaigokensaku.mhlw.go.jp/18/index.php?action_kouhyou_detail_004_kani=true&JigyosyoCd=1870100565-00&ServiceCd=410&Type=search", "url2": "http://www.jinai-cs.co.jp" }, "geometry": { "type": "Point", "coordinates": [ 136.2049413, 36.0711654 ] } },
{ "type": "Feature", "properties": { "内容": "ダスキンヘルスレント福井ステーション【特定福祉用具販売】大手２丁目15-11", "url": "https://www.kaigokensaku.mhlw.go.jp/18/index.php?action_kouhyou_detail_004_kani=true&JigyosyoCd=1870103825-00&ServiceCd=410&Type=search", "url2": "https://healthrent.duskin.jp" }, "geometry": { "type": "Point", "coordinates": [ 136.225364500000012, 36.0663203 ] } },
{ "type": "Feature", "properties": { "内容": "合同会社　はあとin【特定福祉用具販売】福井市古市3丁目506番1", "url": "https://www.kaigokensaku.mhlw.go.jp/18/index.php?action_kouhyou_detail_004_kani=true&JigyosyoCd=1870102694-00&ServiceCd=410&Type=search", "url2": null }, "geometry": { "type": "Point", "coordinates": [ 136.2271036, 36.1052286 ] } },
{ "type": "Feature", "properties": { "内容": "(株)アスピカ　民救サービス【特定福祉用具販売】福井県福井市開発5丁目102-1", "url": "https://www.kaigokensaku.mhlw.go.jp/18/index.php?action_kouhyou_detail_004_kani=true&JigyosyoCd=1870102199-00&ServiceCd=410&Type=search", "url2": "http://www.aspica.co.jp" }, "geometry": { "type": "Point", "coordinates": [ 136.237542500000018, 36.0850735 ] } },
{ "type": "Feature", "properties": { "内容": "合同会社IZUMO【特定福祉用具販売】福井県福井市志比口3丁目3-39", "url": "https://www.kaigokensaku.mhlw.go.jp/18/index.php?action_kouhyou_detail_004_kani=true&JigyosyoCd=1870102538-00&ServiceCd=410&Type=search", "url2": null }, "geometry": { "type": "Point", "coordinates": [ 136.2374528, 36.0723647 ] } },
{ "type": "Feature", "properties": { "内容": "株式会社ヤマシタ福井営業所【特定福祉用具販売】福井市和田東1丁目608番地", "url": "https://www.kaigokensaku.mhlw.go.jp/18/index.php?action_kouhyou_detail_004_kani=true&JigyosyoCd=1870100284-00&ServiceCd=410&Type=search", "url2": "http://www.yco.co.jp" }, "geometry": { "type": "Point", "coordinates": [ 136.249320300000022, 36.0536638 ] } },
{ "type": "Feature", "properties": { "内容": "県民せいきょう福祉用具販売事業所【特定福祉用具販売】開発5丁目1603番地", "url": "https://www.kaigokensaku.mhlw.go.jp/18/index.php?action_kouhyou_detail_004_kani=true&JigyosyoCd=1870100680-00&ServiceCd=410&Type=search", "url2": "http://www.fukui.coop/sp/" }, "geometry": { "type": "Point", "coordinates": [ 136.198977099999979, 36.0371981 ] } },
{ "type": "Feature", "properties": { "内容": "ウェルストック【特定福祉用具販売】福井県福井市大町1丁目716番地パーク大町101号室.102号室", "url": "https://www.kaigokensaku.mhlw.go.jp/18/index.php?action_kouhyou_detail_004_kani=true&JigyosyoCd=1870103973-00&ServiceCd=410&Type=search", "url2": "http://www.nextus-japan.com" }, "geometry": { "type": "Point", "coordinates": [ 136.2186159495987, 36.036709085096881 ] } },
{ "type": "Feature", "properties": { "内容": "㈱LIFE【特定福祉用具販売】福井県福井市城東1丁目14-1", "url": "https://www.kaigokensaku.mhlw.go.jp/18/index.php?action_kouhyou_detail_004_kani=true&JigyosyoCd=1870103577-00&ServiceCd=410&Type=search", "url2": "https://www.life0418.com" }, "geometry": { "type": "Point", "coordinates": [ 136.232478848705682, 36.060206522140078 ] } },
{ "type": "Feature", "properties": { "内容": "アクシアメディカル合同会社【特定福祉用具販売】福井県福井市堀ノ宮1丁目119西川ビル1F", "url": "https://www.kaigokensaku.mhlw.go.jp/18/index.php?action_kouhyou_detail_004_kani=true&JigyosyoCd=1870103940-00&ServiceCd=410&Type=search", "url2": null }, "geometry": { "type": "Point", "coordinates": [ 136.1972346, 36.0805901 ] } },
{ "type": "Feature", "properties": { "内容": "株式会社ミタス【特定福祉用具販売】問屋町4丁目901", "url": "https://www.kaigokensaku.mhlw.go.jp/18/index.php?action_kouhyou_detail_004_kani=true&JigyosyoCd=1870102173-00&ServiceCd=410&Type=search", "url2": "http://ansin-do.jp/" }, "geometry": { "type": "Point", "coordinates": [ 136.257139300000063, 36.0522975 ] } },
{ "type": "Feature", "properties": { "内容": "ネクスタス株式会社【特定福祉用具販売】福井県福井市久喜津町55-5", "url": "https://www.kaigokensaku.mhlw.go.jp/18/index.php?action_kouhyou_detail_004_kani=true&JigyosyoCd=1870103403-00&ServiceCd=410&Type=search", "url2": "http://www.nextus-japan.com" }, "geometry": { "type": "Point", "coordinates": [ 136.174976561238026, 36.0530426838396 ] } },
{ "type": "Feature", "properties": { "内容": "株式会社　端野メディカル【特定福祉用具販売】福井市町屋３丁目１２－１２", "url": "https://www.kaigokensaku.mhlw.go.jp/18/index.php?action_kouhyou_detail_004_kani=true&JigyosyoCd=1870100326-00&ServiceCd=410&Type=search", "url2": "http://www.hashino-medical.co.jp" }, "geometry": { "type": "Point", "coordinates": [ 136.228315299999963, 36.078796 ] } },
{ "type": "Feature", "properties": { "内容": "アルクス株式会社【特定福祉用具販売】高木中央２丁目３１２１", "url": "https://www.kaigokensaku.mhlw.go.jp/18/index.php?action_kouhyou_detail_004_kani=true&JigyosyoCd=1870103049-00&ServiceCd=410&Type=search", "url2": "https://www.arcus.fukui.jp/" }, "geometry": { "type": "Point", "coordinates": [ 136.236017899999979, 36.0927725 ] } },
{ "type": "Feature", "properties": { "内容": "福井シルバーサービスセンター【特定福祉用具販売】福井県福井市四ッ井1丁目1-6", "url": "https://www.kaigokensaku.mhlw.go.jp/18/index.php?action_kouhyou_detail_004_kani=true&JigyosyoCd=1870100862-00&ServiceCd=410&Type=search", "url2": "https://fukuisss.jimdofree.com/" }, "geometry": { "type": "Point", "coordinates": [ 136.234915, 36.0642842 ] } },
{ "type": "Feature", "properties": { "内容": "株式会社メディペック　福井営業所【特定福祉用具販売】福井市和田東２丁目１５１８番地", "url": "https://www.kaigokensaku.mhlw.go.jp/18/index.php?action_kouhyou_detail_004_kani=true&JigyosyoCd=1870102108-00&ServiceCd=410&Type=search", "url2": "http://www.centralmedical.co.jp/medipec01.html" }, "geometry": { "type": "Point", "coordinates": [ 136.250043612966948, 36.050599855633024 ] } },
{ "type": "Feature", "properties": { "内容": "大鉄ケアーサプライ事業部【特定福祉用具販売】福井県敦賀市中央町2丁目１５０５", "url": "https://www.kaigokensaku.mhlw.go.jp/18/index.php?action_kouhyou_detail_004_kani=true&JigyosyoCd=1870200068-00&ServiceCd=410&Type=search", "url2": null }, "geometry": { "type": "Point", "coordinates": [ 136.0544132, 35.6435361 ] } },
{ "type": "Feature", "properties": { "内容": "株式会社ヤサカ　福井営業所【特定福祉用具販売】遠敷6-104", "url": "https://www.kaigokensaku.mhlw.go.jp/18/index.php?action_kouhyou_detail_004_kani=true&JigyosyoCd=1870400379-00&ServiceCd=410&Type=search", "url2": "http://www.daisuki-kaigo.com/" }, "geometry": { "type": "Point", "coordinates": [ 135.780472199999963, 35.4845813 ] } },
{ "type": "Feature", "properties": { "内容": "株式会社ＫＡＤＵアシスト【特定福祉用具販売】福井県小浜市小浜竜田10番地", "url": "https://www.kaigokensaku.mhlw.go.jp/18/index.php?action_kouhyou_detail_004_kani=true&JigyosyoCd=1870400452-00&ServiceCd=410&Type=search", "url2": null }, "geometry": { "type": "Point", "coordinates": [ 135.7427317, 35.4940966 ] } },
{ "type": "Feature", "properties": { "内容": "(有)トータルインルームたにうちメディカル事業部【特定福祉用具販売】郡町１丁目２－５１", "url": "https://www.kaigokensaku.mhlw.go.jp/18/index.php?action_kouhyou_detail_004_kani=true&JigyosyoCd=1870600069-00&ServiceCd=410&Type=search", "url2": null }, "geometry": { "type": "Point", "coordinates": [ 136.497989839950606, 36.069397782973112 ] } },
{ "type": "Feature", "properties": { "内容": "福井トータルケア株式会社【特定福祉用具販売】福井県鯖江市水落町1丁目5-35", "url": "https://www.kaigokensaku.mhlw.go.jp/18/index.php?action_kouhyou_detail_004_kani=true&JigyosyoCd=1870700075-00&ServiceCd=410&Type=search", "url2": "http://fukui-tc.com/" }, "geometry": { "type": "Point", "coordinates": [ 136.181435500000021, 35.9610774 ] } },
{ "type": "Feature", "properties": { "内容": "㈱川崎家具介護事業部【特定福祉用具販売】市姫二丁目１８－９", "url": "https://www.kaigokensaku.mhlw.go.jp/18/index.php?action_kouhyou_detail_004_kani=true&JigyosyoCd=1870800172-00&ServiceCd=410&Type=search", "url2": null }, "geometry": { "type": "Point", "coordinates": [ 136.2290807, 36.2139971 ] } },
{ "type": "Feature", "properties": { "内容": "ほっとリハビリ福祉用具センター【特定福祉用具販売】福井県越前市高木町55-11-11", "url": "https://www.kaigokensaku.mhlw.go.jp/18/index.php?action_kouhyou_detail_004_kani=true&JigyosyoCd=1870300686-00&ServiceCd=410&Type=search", "url2": "http://www.hotreha.com" }, "geometry": { "type": "Point", "coordinates": [ 136.191769, 35.9190335 ] } },
{ "type": "Feature", "properties": { "内容": "サンライフ小野谷【特定福祉用具販売】福井県越前市本多１丁目2-2", "url": "https://www.kaigokensaku.mhlw.go.jp/18/index.php?action_kouhyou_detail_004_kani=true&JigyosyoCd=1870300975-00&ServiceCd=410&Type=search", "url2": "http://sunlifeonodani.jp/" }, "geometry": { "type": "Point", "coordinates": [ 136.1637915, 35.9048621 ] } },
{ "type": "Feature", "properties": { "内容": "ケアシステム【特定福祉用具販売】福井県坂井市坂井町上兵庫３８－９－１", "url": "https://www.kaigokensaku.mhlw.go.jp/18/index.php?action_kouhyou_detail_004_kani=true&JigyosyoCd=1871700652-00&ServiceCd=410&Type=search", "url2": "http://www.caresys.co.jp" }, "geometry": { "type": "Point", "coordinates": [ 136.219977699999959, 36.1673636 ] } },
{ "type": "Feature", "properties": { "内容": "有限会社　フヂモト介護堂【特定福祉用具販売】福井県坂井市丸岡町上安田５－１", "url": "https://www.kaigokensaku.mhlw.go.jp/18/index.php?action_kouhyou_detail_004_kani=true&JigyosyoCd=1871700181-00&ServiceCd=410&Type=search", "url2": null }, "geometry": { "type": "Point", "coordinates": [ 136.256051699999944, 36.1220202 ] } },
{ "type": "Feature", "properties": { "内容": "BestFeel【特定福祉用具販売】福井県坂井市春江町西長田４０－４６", "url": "https://www.kaigokensaku.mhlw.go.jp/18/index.php?action_kouhyou_detail_004_kani=true&JigyosyoCd=1871701064-00&ServiceCd=410&Type=search", "url2": "http://heart2-caring.co.jp" }, "geometry": { "type": "Point", "coordinates": [ 136.210153900000023, 36.1674297 ] } },
{ "type": "Feature", "properties": { "内容": "アイちゃん堂【特定福祉用具販売】福井県三方上中郡若狭町気山296-9-2", "url": "https://www.kaigokensaku.mhlw.go.jp/18/index.php?action_kouhyou_detail_004_kani=true&JigyosyoCd=1872400013-00&ServiceCd=410&Type=search", "url2": "http://www.fukushi-ai.com/" }, "geometry": { "type": "Point", "coordinates": [ 135.909056299999946, 35.565909 ] } },
{ "type": "Feature", "properties": { "内容": "有限会社創栄産業　福祉事業部クリエフ【特定福祉用具販売】福井県三方上中郡若狭町北前川29-1-1", "url": "https://www.kaigokensaku.mhlw.go.jp/18/index.php?action_kouhyou_detail_004_kani=true&JigyosyoCd=1872400112-00&ServiceCd=410&Type=search", "url2": "http://www.soei-gp.com/" }, "geometry": { "type": "Point", "coordinates": [ 135.907384500000035, 35.5486411 ] } },
{ "type": "Feature", "properties": { "内容": "株式会社ハシノメディカル　嶺南営業所【特定福祉用具販売】三方上中郡若狭町井ノ口30号友鹿13-1", "url": "https://www.kaigokensaku.mhlw.go.jp/18/index.php?action_kouhyou_detail_004_kani=true&JigyosyoCd=1872400153-00&ServiceCd=410&Type=search", "url2": "http://www.hashino-medical.co.jp/" }, "geometry": { "type": "Point", "coordinates": [ 135.855980499999987, 35.4625739 ] } }
]
}
